{
  "type": "FeatureCollection",
  "features": [
    {
      "type": "Feature",
      "properties": {
        "role": "trajectory"
      },
      "geometry": {
        "type": "LineString",
        "coordinates": [
          [
            30.384048823117038,
            59.995698994090326
          ],
          [
            30.384048823117038,
            59.995698994090326
          ],
          [
            30.384048823117038,
            59.995698994090326
          ],
          [
            30.384048823117038,
            59.995698994090326
          ],
          [
            30.384048823117038,
            59.995698994090326
          ],
          [
            30.384048823117038,
            59.995698994090326
          ],
          [
            30.384048823117038,
            59.995698994090326
          ],
          [
            30.384048823117038,
            59.995698994090326
          ],
          [
            30.384048823117038,
            59.995698994090326
          ],
          [
            30.384048823117038,
            59.995698994090326
          ],
          [
            30.384048823117038,
            59.995698994090326
          ],
          [
            30.384048823117038,
            59.995698994090326
          ],
          [
            30.384048823117038,
            59.995698994090326
          ],
          [
            30.384048823117038,
            59.995698994090326
          ],
          [
            30.384048823117038,
            59.995698994090326
          ],
          [
            30.384048823117038,
            59.995698994090326
          ],
          [
            30.384048823117038,
            59.995698994090326
          ],
          [
            30.384048823117038,
            59.995698994090326
          ],
          [
            30.384048823117038,
            59.995698994090326
          ],
          [
            30.384048823117038,
            59.995698994090326
          ],
          [
            30.384048823117038,
            59.995698994090326
          ],
          [
            30.384048823117038,
            59.995698994090326
          ],
          [
            30.384048823117038,
            59.995698994090326
          ],
          [
            30.384048823117038,
            59.995698994090326
          ],
          [
            30.384048823117038,
            59.995698994090326
          ],
          [
            30.384048823117038,
            59.995698994090326
          ],
          [
            30.384048823117038,
            59.995698994090326
          ],
          [
            30.384048823117038,
            59.995698994090326
          ],
          [
            30.384048823117038,
            59.995698994090326
          ],
          [
            30.384048823117038,
            59.995698994090326
          ],
          [
            30.384048823117038,
            59.995698994090326
          ],
          [
            30.384048823117038,
            59.995698994090326
          ],
          [
            30.384048823117038,
            59.995698994090326
          ],
          [
            30.384048823117038,
            59.995698994090326
          ],
          [
            30.384048823117038,
            59.995698994090326
          ],
          [
            30.384048823117038,
            59.995698994090326
          ],
          [
            30.384048823117038,
            59.995698994090326
          ],
          [
            30.384048823117038,
            59.995698994090326
          ],
          [
            30.384048823117038,
            59.995698994090326
          ],
          [
            30.384048823117038,
            59.995698994090326
          ],
          [
            30.384048823117038,
            59.995698994090326
          ],
          [
            30.384048823117038,
            59.995698994090326
          ],
          [
            30.384048823117038,
            59.995698994090326
          ],
          [
            30.384048823117038,
            59.995698994090326
          ],
          [
            30.384048823117038,
            59.995698994090326
          ],
          [
            30.384048823117038,
            59.995698994090326
          ],
          [
            30.384048823117038,
            59.995698994090326
          ],
          [
            30.384048823117038,
            59.995698994090326
          ],
          [
            30.384048823117038,
            59.995698994090326
          ],
          [
            30.384048823117038,
            59.995698994090326
          ],
          [
            30.384048823117038,
            59.995698994090326
          ],
          [
            30.384048823117038,
            59.995698994090326
          ],
          [
            30.384048823117038,
            59.995698994090326
          ],
          [
            30.384048823117038,
            59.995698994090326
          ],
          [
            30.384048823117038,
            59.995698994090326
          ],
          [
            30.384048823117038,
            59.995698994090326
          ],
          [
            30.384048823117038,
            59.995698994090326
          ],
          [
            30.384048823117038,
            59.995698994090326
          ],
          [
            30.384048823117038,
            59.995698994090326
          ],
          [
            30.384048823117038,
            59.995698994090326
          ],
          [
            30.384048823117038,
            59.995698994090326
          ],
          [
            30.384048823117038,
            59.995698994090326
          ],
          [
            30.384048823117038,
            59.995698994090326
          ],
          [
            30.384048823117038,
            59.995698994090326
          ],
          [
            30.384048823117038,
            59.995698994090326
          ],
          [
            30.384048823117038,
            59.995698994090326
          ],
          [
            30.384048823117038,
            59.995698994090326
          ],
          [
            30.384048823117038,
            59.995698994090326
          ],
          [
            30.384048823117038,
            59.995698994090326
          ],
          [
            30.384048823117038,
            59.995698994090326
          ],
          [
            30.384048823117038,
            59.995698994090326
          ],
          [
            30.384048823117038,
            59.995698994090326
          ],
          [
            30.384048823117038,
            59.995698994090326
          ],
          [
            30.384048823117038,
            59.995698994090326
          ],
          [
            30.384048823117038,
            59.995698994090326
          ],
          [
            30.384048823117038,
            59.995698994090326
          ],
          [
            30.384048823117038,
            59.995698994090326
          ],
          [
            30.384048823117038,
            59.995698994090326
          ],
          [
            30.384048823117038,
            59.995698994090326
          ],
          [
            30.384048823117038,
            59.995698994090326
          ],
          [
            30.384048823117038,
            59.995698994090326
          ],
          [
            30.384048823117038,
            59.995698994090326
          ],
          [
            30.384048823117038,
            59.995698994090326
          ],
          [
            30.384048823117038,
            59.995698994090326
          ],
          [
            30.384048823117038,
            59.995698994090326
          ],
          [
            30.384048823117038,
            59.995698994090326
          ],
          [
            30.384048823117038,
            59.995698994090326
          ],
          [
            30.384048823117038,
            59.995698994090326
          ],
          [
            30.384048823117038,
            59.995698994090326
          ],
          [
            30.384048823117038,
            59.995698994090326
          ],
          [
            30.384048823117038,
            59.995698994090326
          ],
          [
            30.384048823117038,
            59.995698994090326
          ],
          [
            30.384048823117038,
            59.995698994090326
          ],
          [
            30.384048823117038,
            59.995698994090326
          ],
          [
            30.384048823117038,
            59.995698994090326
          ],
          [
            30.384048823117038,
            59.995698994090326
          ],
          [
            30.384048823117038,
            59.995698994090326
          ],
          [
            30.384048823117038,
            59.995698994090326
          ],
          [
            30.384048823117038,
            59.995698994090326
          ],
          [
            30.384048823117038,
            59.995698994090326
          ],
          [
            30.384048823117038,
            59.995698994090326
          ],
          [
            30.384048823117038,
            59.995698994090326
          ],
          [
            30.384048823117038,
            59.995698994090326
          ],
          [
            30.384048823117038,
            59.995698994090326
          ],
          [
            30.384048823117038,
            59.995698994090326
          ],
          [
            30.384048823117038,
            59.995698994090326
          ],
          [
            30.384048823117038,
            59.995698994090326
          ],
          [
            30.384048823117038,
            59.995698994090326
          ],
          [
            30.384048823117038,
            59.995698994090326
          ],
          [
            30.384048823117038,
            59.995698994090326
          ],
          [
            30.384048823117038,
            59.995698994090326
          ],
          [
            30.384048823117038,
            59.995698994090326
          ],
          [
            30.384048823117038,
            59.995698994090326
          ],
          [
            30.384048823117038,
            59.995698994090326
          ],
          [
            30.384048823117038,
            59.995698994090326
          ],
          [
            30.384048823117038,
            59.995698994090326
          ],
          [
            30.384048823117038,
            59.995698994090326
          ],
          [
            30.384048823117038,
            59.995698994090326
          ],
          [
            30.384048823117038,
            59.995698994090326
          ],
          [
            30.384048823117038,
            59.995698994090326
          ],
          [
            30.384048823117038,
            59.995698994090326
          ],
          [
            30.384048823117038,
            59.995698994090326
          ],
          [
            30.384048823117038,
            59.995698994090326
          ],
          [
            30.384048823117038,
            59.995698994090326
          ],
          [
            30.384048823117038,
            59.995698994090326
          ],
          [
            30.384048823117038,
            59.995698994090326
          ],
          [
            30.384048823117038,
            59.995698994090326
          ],
          [
            30.384048823117038,
            59.995698994090326
          ],
          [
            30.384048823117038,
            59.995698994090326
          ],
          [
            30.384048823117038,
            59.995698994090326
          ],
          [
            30.384048823117038,
            59.995698994090326
          ],
          [
            30.384048823117038,
            59.995698994090326
          ],
          [
            30.384048823117038,
            59.995698994090326
          ],
          [
            30.384048823117038,
            59.995698994090326
          ],
          [
            30.384048823117038,
            59.995698994090326
          ],
          [
            30.384048823117038,
            59.995698994090326
          ],
          [
            30.384048823117038,
            59.995698994090326
          ],
          [
            30.384048823117038,
            59.995698994090326
          ],
          [
            30.384048823117038,
            59.995698994090326
          ],
          [
            30.384048823117038,
            59.995698994090326
          ],
          [
            30.384048823117038,
            59.995698994090326
          ],
          [
            30.384048823117038,
            59.995698994090326
          ],
          [
            30.384048823117038,
            59.995698994090326
          ],
          [
            30.384048823117038,
            59.995698994090326
          ],
          [
            30.384048823117038,
            59.995698994090326
          ],
          [
            30.384048823117038,
            59.995698994090326
          ],
          [
            30.384048823117038,
            59.995698994090326
          ],
          [
            30.384048823117038,
            59.995698994090326
          ],
          [
            30.384048823117038,
            59.995698994090326
          ],
          [
            30.384048823117038,
            59.995698994090326
          ],
          [
            30.384048823117038,
            59.995698994090326
          ],
          [
            30.384048823117038,
            59.995698994090326
          ],
          [
            30.384048823117038,
            59.995698994090326
          ],
          [
            30.384048823117038,
            59.995698994090326
          ],
          [
            30.384048823117038,
            59.995698994090326
          ],
          [
            30.384048823117038,
            59.995698994090326
          ],
          [
            30.384048823117038,
            59.995698994090326
          ],
          [
            30.384048823117038,
            59.995698994090326
          ],
          [
            30.384048823117038,
            59.995698994090326
          ],
          [
            30.384048823117038,
            59.995698994090326
          ],
          [
            30.384048823117038,
            59.995698994090326
          ],
          [
            30.384048823117038,
            59.995698994090326
          ],
          [
            30.384048823117038,
            59.995698994090326
          ],
          [
            30.384048823117038,
            59.995698994090326
          ],
          [
            30.384048823117038,
            59.995698994090326
          ],
          [
            30.384048823117038,
            59.995698994090326
          ],
          [
            30.384048823117038,
            59.995698994090326
          ],
          [
            30.384048823117038,
            59.995698994090326
          ],
          [
            30.384048823117038,
            59.995698994090326
          ],
          [
            30.384048823117038,
            59.995698994090326
          ],
          [
            30.384048823117038,
            59.995698994090326
          ],
          [
            30.384048823117038,
            59.995698994090326
          ],
          [
            30.384048823117038,
            59.995698994090326
          ],
          [
            30.384048823117038,
            59.995698994090326
          ],
          [
            30.384048823117038,
            59.995698994090326
          ],
          [
            30.384048823117038,
            59.995698994090326
          ],
          [
            30.384048823117038,
            59.995698994090326
          ],
          [
            30.384048823117038,
            59.995698994090326
          ],
          [
            30.384048823117038,
            59.995698994090326
          ],
          [
            30.384048823117038,
            59.995698994090326
          ],
          [
            30.384048823117038,
            59.995698994090326
          ],
          [
            30.384048823117038,
            59.995698994090326
          ],
          [
            30.384048823117038,
            59.995698994090326
          ],
          [
            30.384048823117038,
            59.995698994090326
          ],
          [
            30.384048823117038,
            59.995698994090326
          ],
          [
            30.384048823117038,
            59.995698994090326
          ],
          [
            30.384048823117038,
            59.995698994090326
          ],
          [
            30.384048823117038,
            59.995698994090326
          ],
          [
            30.384048823117038,
            59.995698994090326
          ],
          [
            30.384048823117038,
            59.995698994090326
          ],
          [
            30.384048823117038,
            59.995698994090326
          ],
          [
            30.384048823117038,
            59.995698994090326
          ],
          [
            30.384048823117038,
            59.995698994090326
          ],
          [
            30.384048823117038,
            59.995698994090326
          ],
          [
            30.384048823117038,
            59.995698994090326
          ],
          [
            30.384048823117038,
            59.995698994090326
          ],
          [
            30.384048823117038,
            59.995698994090326
          ],
          [
            30.384048823117038,
            59.995698994090326
          ],
          [
            30.384048823117038,
            59.995698994090326
          ],
          [
            30.384048823117038,
            59.995698994090326
          ],
          [
            30.384048823117038,
            59.995698994090326
          ],
          [
            30.384048823117038,
            59.995698994090326
          ],
          [
            30.384048823117038,
            59.995698994090326
          ],
          [
            30.384048823117038,
            59.995698994090326
          ],
          [
            30.384048823117038,
            59.995698994090326
          ],
          [
            30.384048823117038,
            59.995698994090326
          ],
          [
            30.384048823117038,
            59.995698994090326
          ],
          [
            30.384048823117038,
            59.995698994090326
          ],
          [
            30.384048823117038,
            59.995698994090326
          ],
          [
            30.384048823117038,
            59.995698994090326
          ],
          [
            30.384048823117038,
            59.995698994090326
          ],
          [
            30.384048823117038,
            59.995698994090326
          ],
          [
            30.384048823117038,
            59.995698994090326
          ],
          [
            30.384048823117038,
            59.995698994090326
          ],
          [
            30.384048823117038,
            59.995698994090326
          ],
          [
            30.384048823117038,
            59.995698994090326
          ],
          [
            30.384048823117038,
            59.995698994090326
          ],
          [
            30.384048823117038,
            59.995698994090326
          ],
          [
            30.384048823117038,
            59.995698994090326
          ],
          [
            30.384048823117038,
            59.995698994090326
          ],
          [
            30.384048823117038,
            59.995698994090326
          ],
          [
            30.384048823117038,
            59.995698994090326
          ],
          [
            30.384048823117038,
            59.995698994090326
          ],
          [
            30.384048823117038,
            59.995698994090326
          ],
          [
            30.384048823117038,
            59.995698994090326
          ],
          [
            30.384048823117038,
            59.995698994090326
          ],
          [
            30.384048823117038,
            59.995698994090326
          ],
          [
            30.384048823117038,
            59.995698994090326
          ],
          [
            30.384048823117038,
            59.995698994090326
          ],
          [
            30.384048823117038,
            59.995698994090326
          ],
          [
            30.384048823117038,
            59.995698994090326
          ],
          [
            30.384048823117038,
            59.995698994090326
          ],
          [
            30.384048823117038,
            59.995698994090326
          ],
          [
            30.384048823117038,
            59.995698994090326
          ],
          [
            30.384048823117038,
            59.995698994090326
          ],
          [
            30.384048823117038,
            59.995698994090326
          ],
          [
            30.384048823117038,
            59.995698994090326
          ],
          [
            30.384048823117038,
            59.995698994090326
          ],
          [
            30.384048823117038,
            59.995698994090326
          ],
          [
            30.384048823117038,
            59.995698994090326
          ],
          [
            30.384048823117038,
            59.995698994090326
          ],
          [
            30.384048823117038,
            59.995698994090326
          ],
          [
            30.384048823117038,
            59.995698994090326
          ],
          [
            30.384048823117038,
            59.995698994090326
          ],
          [
            30.384048823117038,
            59.995698994090326
          ],
          [
            30.384048823117038,
            59.995698994090326
          ],
          [
            30.384048823117038,
            59.995698994090326
          ],
          [
            30.384048823117038,
            59.995698994090326
          ],
          [
            30.384048823117038,
            59.995698994090326
          ],
          [
            30.384048823117038,
            59.995698994090326
          ],
          [
            30.384048823117038,
            59.995698994090326
          ],
          [
            30.384048823117038,
            59.995698994090326
          ],
          [
            30.384048823117038,
            59.995698994090326
          ],
          [
            30.384048823117038,
            59.995698994090326
          ],
          [
            30.384048823117038,
            59.995698994090326
          ],
          [
            30.384048823117038,
            59.995698994090326
          ],
          [
            30.384048823117038,
            59.995698994090326
          ],
          [
            30.384048823117038,
            59.995698994090326
          ],
          [
            30.384048823117038,
            59.995698994090326
          ],
          [
            30.384048823117038,
            59.995698994090326
          ],
          [
            30.384048823117038,
            59.995698994090326
          ],
          [
            30.384048823117038,
            59.995698994090326
          ],
          [
            30.384048823117038,
            59.995698994090326
          ],
          [
            30.384048823117038,
            59.995698994090326
          ],
          [
            30.384048823117038,
            59.995698994090326
          ],
          [
            30.384048823117038,
            59.995698994090326
          ],
          [
            30.384048823117038,
            59.995698994090326
          ],
          [
            30.384048823117038,
            59.995698994090326
          ],
          [
            30.384048823117038,
            59.995698994090326
          ],
          [
            30.384048823117038,
            59.995698994090326
          ],
          [
            30.384048823117038,
            59.995698994090326
          ],
          [
            30.384048823117038,
            59.995698994090326
          ],
          [
            30.384048823117038,
            59.995698994090326
          ],
          [
            30.384048823117038,
            59.995698994090326
          ],
          [
            30.384048823117038,
            59.995698994090326
          ],
          [
            30.384048823117038,
            59.995698994090326
          ],
          [
            30.384048823117038,
            59.995698994090326
          ],
          [
            30.384048823117038,
            59.995698994090326
          ],
          [
            30.384048823117038,
            59.995698994090326
          ],
          [
            30.384048823117038,
            59.995698994090326
          ],
          [
            30.384048823117038,
            59.995698994090326
          ],
          [
            30.384048823117038,
            59.995698994090326
          ],
          [
            30.384048823117038,
            59.995698994090326
          ],
          [
            30.384048823117038,
            59.995698994090326
          ],
          [
            30.384048823117038,
            59.995698994090326
          ],
          [
            30.384048823117038,
            59.995698994090326
          ],
          [
            30.384048823117038,
            59.995698994090326
          ],
          [
            30.384048823117038,
            59.995698994090326
          ],
          [
            30.384048823117038,
            59.995698994090326
          ],
          [
            30.384048823117038,
            59.995698994090326
          ],
          [
            30.384048823117038,
            59.995698994090326
          ],
          [
            30.384048823117038,
            59.995698994090326
          ],
          [
            30.384048823117038,
            59.995698994090326
          ],
          [
            30.384048823117038,
            59.995698994090326
          ],
          [
            30.384048823117038,
            59.995698994090326
          ],
          [
            30.384048823117038,
            59.995698994090326
          ],
          [
            30.384048823117038,
            59.995698994090326
          ],
          [
            30.384048823117038,
            59.995698994090326
          ],
          [
            30.384048823117038,
            59.995698994090326
          ],
          [
            30.384048823117038,
            59.995698994090326
          ],
          [
            30.384048823117038,
            59.995698994090326
          ],
          [
            30.384048823117038,
            59.995698994090326
          ],
          [
            30.384048823117038,
            59.995698994090326
          ],
          [
            30.384048823117038,
            59.995698994090326
          ],
          [
            30.384048823117038,
            59.995698994090326
          ],
          [
            30.384048823117038,
            59.995698994090326
          ],
          [
            30.384048823117038,
            59.995698994090326
          ],
          [
            30.384048823117038,
            59.995698994090326
          ],
          [
            30.384048823117038,
            59.995698994090326
          ],
          [
            30.384048823117038,
            59.995698994090326
          ],
          [
            30.384048823117038,
            59.995698994090326
          ],
          [
            30.384048823117038,
            59.995698994090326
          ],
          [
            30.384048823117038,
            59.995698994090326
          ],
          [
            30.384048823117038,
            59.995698994090326
          ],
          [
            30.384048823117038,
            59.995698994090326
          ],
          [
            30.384048823117038,
            59.995698994090326
          ],
          [
            30.384048823117038,
            59.995698994090326
          ],
          [
            30.384048823117038,
            59.995698994090326
          ],
          [
            30.384048823117038,
            59.995698994090326
          ],
          [
            30.384048823117038,
            59.995698994090326
          ],
          [
            30.384048823117038,
            59.995698994090326
          ],
          [
            30.384048823117038,
            59.995698994090326
          ],
          [
            30.384048823117038,
            59.995698994090326
          ],
          [
            30.384048823117038,
            59.995698994090326
          ],
          [
            30.384048823117038,
            59.995698994090326
          ],
          [
            30.384048823117038,
            59.995698994090326
          ],
          [
            30.384048823117038,
            59.995698994090326
          ],
          [
            30.384048823117038,
            59.995698994090326
          ],
          [
            30.384048823117038,
            59.995698994090326
          ],
          [
            30.384048823117038,
            59.995698994090326
          ],
          [
            30.384048823117038,
            59.995698994090326
          ],
          [
            30.384048823117038,
            59.995698994090326
          ],
          [
            30.384048823117038,
            59.995698994090326
          ],
          [
            30.384048823117038,
            59.995698994090326
          ],
          [
            30.384048823117038,
            59.995698994090326
          ],
          [
            30.384048823117038,
            59.995698994090326
          ],
          [
            30.384048823117038,
            59.995698994090326
          ],
          [
            30.384048823117038,
            59.995698994090326
          ],
          [
            30.384048823117038,
            59.995698994090326
          ],
          [
            30.384048823117038,
            59.995698994090326
          ],
          [
            30.384048823117038,
            59.995698994090326
          ],
          [
            30.384048823117038,
            59.995698994090326
          ],
          [
            30.384048823117038,
            59.995698994090326
          ],
          [
            30.384048823117038,
            59.995698994090326
          ],
          [
            30.384048823117038,
            59.995698994090326
          ],
          [
            30.384048823117038,
            59.995698994090326
          ],
          [
            30.384048823117038,
            59.995698994090326
          ],
          [
            30.384048823117038,
            59.995698994090326
          ],
          [
            30.384048823117038,
            59.995698994090326
          ],
          [
            30.384048823117038,
            59.995698994090326
          ],
          [
            30.384048823117038,
            59.995698994090326
          ],
          [
            30.384048823117038,
            59.995698994090326
          ],
          [
            30.384048823117038,
            59.995698994090326
          ],
          [
            30.384048823117038,
            59.995698994090326
          ],
          [
            30.384048823117038,
            59.995698994090326
          ],
          [
            30.384048823117038,
            59.995698994090326
          ],
          [
            30.384048823117038,
            59.995698994090326
          ],
          [
            30.384048823117038,
            59.995698994090326
          ],
          [
            30.384048823117038,
            59.995698994090326
          ],
          [
            30.384048823117038,
            59.995698994090326
          ],
          [
            30.384048823117038,
            59.995698994090326
          ],
          [
            30.384048823117038,
            59.995698994090326
          ],
          [
            30.384048823117038,
            59.995698994090326
          ],
          [
            30.384048823117038,
            59.995698994090326
          ],
          [
            30.384048823117038,
            59.995698994090326
          ],
          [
            30.384048823117038,
            59.995698994090326
          ],
          [
            30.384048823117038,
            59.995698994090326
          ],
          [
            30.384048823117038,
            59.995698994090326
          ],
          [
            30.384048823117038,
            59.995698994090326
          ],
          [
            30.384048823117038,
            59.995698994090326
          ],
          [
            30.384048823117038,
            59.995698994090326
          ],
          [
            30.384048823117038,
            59.995698994090326
          ],
          [
            30.384048823117038,
            59.995698994090326
          ],
          [
            30.384048823117038,
            59.995698994090326
          ],
          [
            30.384048823117038,
            59.995698994090326
          ],
          [
            30.384048823117038,
            59.995698994090326
          ],
          [
            30.384048823117038,
            59.995698994090326
          ],
          [
            30.384048823117038,
            59.995698994090326
          ],
          [
            30.384048823117038,
            59.995698994090326
          ],
          [
            30.384048823117038,
            59.995698994090326
          ],
          [
            30.384048823117038,
            59.995698994090326
          ],
          [
            30.384048823117038,
            59.995698994090326
          ],
          [
            30.384048823117038,
            59.995698994090326
          ],
          [
            30.384048823117038,
            59.995698994090326
          ],
          [
            30.384048823117038,
            59.995698994090326
          ],
          [
            30.384048823117038,
            59.995698994090326
          ],
          [
            30.384048823117038,
            59.995698994090326
          ],
          [
            30.384048823117038,
            59.995698994090326
          ],
          [
            30.384048823117038,
            59.995698994090326
          ],
          [
            30.384048823117038,
            59.995698994090326
          ],
          [
            30.384048823117038,
            59.995698994090326
          ],
          [
            30.384048823117038,
            59.995698994090326
          ],
          [
            30.384048823117038,
            59.995698994090326
          ],
          [
            30.384048823117038,
            59.995698994090326
          ],
          [
            30.384048823117038,
            59.995698994090326
          ],
          [
            30.384048823117038,
            59.995698994090326
          ],
          [
            30.384048823117038,
            59.995698994090326
          ],
          [
            30.384048823117038,
            59.995698994090326
          ],
          [
            30.384048823117038,
            59.995698994090326
          ],
          [
            30.384048823117038,
            59.995698994090326
          ],
          [
            30.384048823117038,
            59.995698994090326
          ],
          [
            30.384048823117038,
            59.995698994090326
          ],
          [
            30.384048823117038,
            59.995698994090326
          ],
          [
            30.384048823117038,
            59.995698994090326
          ],
          [
            30.384048823117038,
            59.995698994090326
          ],
          [
            30.384048823117038,
            59.995698994090326
          ],
          [
            30.384048823117038,
            59.995698994090326
          ],
          [
            30.384048823117038,
            59.995698994090326
          ],
          [
            30.384048823117038,
            59.995698994090326
          ],
          [
            30.384048823117038,
            59.995698994090326
          ],
          [
            30.384048823117038,
            59.995698994090326
          ],
          [
            30.384048823117038,
            59.995698994090326
          ],
          [
            30.384048823117038,
            59.995698994090326
          ],
          [
            30.384048823117038,
            59.995698994090326
          ],
          [
            30.384048823117038,
            59.995698994090326
          ],
          [
            30.384048823117038,
            59.995698994090326
          ],
          [
            30.384048823117038,
            59.995698994090326
          ],
          [
            30.384048823117038,
            59.995698994090326
          ],
          [
            30.384048823117038,
            59.995698994090326
          ],
          [
            30.384048823117038,
            59.995698994090326
          ],
          [
            30.384048823117038,
            59.995698994090326
          ],
          [
            30.384048823117038,
            59.995698994090326
          ],
          [
            30.384048823117038,
            59.995698994090326
          ],
          [
            30.384048823117038,
            59.995698994090326
          ],
          [
            30.384048823117038,
            59.995698994090326
          ],
          [
            30.384048823117038,
            59.995698994090326
          ],
          [
            30.384048823117038,
            59.995698994090326
          ],
          [
            30.384048823117038,
            59.995698994090326
          ],
          [
            30.384048823117038,
            59.995698994090326
          ],
          [
            30.384048823117038,
            59.995698994090326
          ],
          [
            30.384048823117038,
            59.995698994090326
          ],
          [
            30.384048823117038,
            59.995698994090326
          ],
          [
            30.384048823117038,
            59.995698994090326
          ],
          [
            30.384048823117038,
            59.995698994090326
          ],
          [
            30.384048823117038,
            59.995698994090326
          ],
          [
            30.384048823117038,
            59.995698994090326
          ],
          [
            30.384048823117038,
            59.995698994090326
          ],
          [
            30.384048823117038,
            59.995698994090326
          ],
          [
            30.384048823117038,
            59.995698994090326
          ],
          [
            30.384048823117038,
            59.995698994090326
          ],
          [
            30.384048823117038,
            59.995698994090326
          ],
          [
            30.384048823117038,
            59.995698994090326
          ],
          [
            30.384048823117038,
            59.995698994090326
          ],
          [
            30.384048823117038,
            59.995698994090326
          ],
          [
            30.384048823117038,
            59.995698994090326
          ],
          [
            30.384048823117038,
            59.995698994090326
          ],
          [
            30.384048823117038,
            59.995698994090326
          ],
          [
            30.384048823117038,
            59.995698994090326
          ],
          [
            30.384048823117038,
            59.995698994090326
          ],
          [
            30.384048823117038,
            59.995698994090326
          ],
          [
            30.384048823117038,
            59.995698994090326
          ],
          [
            30.384048823117038,
            59.995698994090326
          ],
          [
            30.384048823117038,
            59.995698994090326
          ],
          [
            30.384048823117038,
            59.995698994090326
          ],
          [
            30.384048823117038,
            59.995698994090326
          ],
          [
            30.384048823117038,
            59.995698994090326
          ],
          [
            30.384048823117038,
            59.995698994090326
          ],
          [
            30.384048823117038,
            59.995698994090326
          ],
          [
            30.384048823117038,
            59.995698994090326
          ],
          [
            30.384048823117038,
            59.995698994090326
          ],
          [
            30.384048823117038,
            59.995698994090326
          ],
          [
            30.384048823117038,
            59.995698994090326
          ],
          [
            30.384048823117038,
            59.995698994090326
          ],
          [
            30.384048823117038,
            59.995698994090326
          ],
          [
            30.384048823117038,
            59.995698994090326
          ],
          [
            30.384048823117038,
            59.995698994090326
          ],
          [
            30.384048823117038,
            59.995698994090326
          ],
          [
            30.384048823117038,
            59.995698994090326
          ],
          [
            30.384048823117038,
            59.995698994090326
          ],
          [
            30.384048823117038,
            59.995698994090326
          ],
          [
            30.384048823117038,
            59.995698994090326
          ],
          [
            30.384048823117038,
            59.995698994090326
          ],
          [
            30.384048823117038,
            59.995698994090326
          ],
          [
            30.384048823117038,
            59.995698994090326
          ],
          [
            30.384048823117038,
            59.995698994090326
          ],
          [
            30.384048823117038,
            59.995698994090326
          ],
          [
            30.384048823117038,
            59.995698994090326
          ],
          [
            30.384048823117038,
            59.995698994090326
          ],
          [
            30.384048823117038,
            59.995698994090326
          ],
          [
            30.384048823117038,
            59.995698994090326
          ],
          [
            30.384048823117038,
            59.995698994090326
          ],
          [
            30.384048823117038,
            59.995698994090326
          ],
          [
            30.384048823117038,
            59.995698994090326
          ],
          [
            30.384048823117038,
            59.995698994090326
          ],
          [
            30.384048823117038,
            59.995698994090326
          ],
          [
            30.384048823117038,
            59.995698994090326
          ],
          [
            30.384048823117038,
            59.995698994090326
          ],
          [
            30.384048823117038,
            59.995698994090326
          ],
          [
            30.384048823117038,
            59.995698994090326
          ],
          [
            30.384048823117038,
            59.995698994090326
          ],
          [
            30.384048823117038,
            59.995698994090326
          ],
          [
            30.384048823117038,
            59.995698994090326
          ],
          [
            30.384048823117038,
            59.995698994090326
          ],
          [
            30.384048823117038,
            59.995698994090326
          ],
          [
            30.384048823117038,
            59.995698994090326
          ],
          [
            30.384048823117038,
            59.995698994090326
          ],
          [
            30.384048823117038,
            59.995698994090326
          ],
          [
            30.384048823117038,
            59.995698994090326
          ],
          [
            30.384048823117038,
            59.995698994090326
          ],
          [
            30.384048823117038,
            59.995698994090326
          ],
          [
            30.384048823117038,
            59.995698994090326
          ],
          [
            30.384048823117038,
            59.995698994090326
          ],
          [
            30.384048823117038,
            59.995698994090326
          ],
          [
            30.384048823117038,
            59.995698994090326
          ],
          [
            30.384048823117038,
            59.995698994090326
          ],
          [
            30.384048823117038,
            59.995698994090326
          ],
          [
            30.384048823117038,
            59.995698994090326
          ],
          [
            30.384048823117038,
            59.995698994090326
          ],
          [
            30.384048823117038,
            59.995698994090326
          ],
          [
            30.384048823117038,
            59.995698994090326
          ],
          [
            30.384048823117038,
            59.995698994090326
          ],
          [
            30.384048823117038,
            59.995698994090326
          ],
          [
            30.384048823117038,
            59.995698994090326
          ],
          [
            30.384048823117038,
            59.995698994090326
          ],
          [
            30.384048823117038,
            59.995698994090326
          ],
          [
            30.384048823117038,
            59.995698994090326
          ],
          [
            30.384048823117038,
            59.995698994090326
          ],
          [
            30.384048823117038,
            59.995698994090326
          ],
          [
            30.384048823117038,
            59.995698994090326
          ],
          [
            30.384048823117038,
            59.995698994090326
          ],
          [
            30.384048823117038,
            59.995698994090326
          ],
          [
            30.384048823117038,
            59.995698994090326
          ],
          [
            30.384048823117038,
            59.995698994090326
          ],
          [
            30.384048823117038,
            59.995698994090326
          ],
          [
            30.384048823117038,
            59.995698994090326
          ],
          [
            30.384048823117038,
            59.995698994090326
          ],
          [
            30.384048823117038,
            59.995698994090326
          ],
          [
            30.384048823117038,
            59.995698994090326
          ],
          [
            30.384048823117038,
            59.995698994090326
          ],
          [
            30.384048823117038,
            59.995698994090326
          ],
          [
            30.384048823117038,
            59.995698994090326
          ],
          [
            30.384048823117038,
            59.995698994090326
          ],
          [
            30.384048823117038,
            59.995698994090326
          ],
          [
            30.384048823117038,
            59.995698994090326
          ],
          [
            30.384048823117038,
            59.995698994090326
          ],
          [
            30.384048823117038,
            59.995698994090326
          ],
          [
            30.384048823117038,
            59.995698994090326
          ],
          [
            30.384048823117038,
            59.995698994090326
          ],
          [
            30.384048823117038,
            59.995698994090326
          ],
          [
            30.384048823117038,
            59.995698994090326
          ],
          [
            30.384048823117038,
            59.995698994090326
          ],
          [
            30.384048823117038,
            59.995698994090326
          ],
          [
            30.384048823117038,
            59.995698994090326
          ],
          [
            30.384048823117038,
            59.995698994090326
          ],
          [
            30.384048823117038,
            59.995698994090326
          ],
          [
            30.384048823117038,
            59.995698994090326
          ],
          [
            30.384048823117038,
            59.995698994090326
          ],
          [
            30.384048823117038,
            59.995698994090326
          ],
          [
            30.384048823117038,
            59.995698994090326
          ],
          [
            30.384048823117038,
            59.995698994090326
          ],
          [
            30.384048823117038,
            59.995698994090326
          ],
          [
            30.384048823117038,
            59.995698994090326
          ],
          [
            30.384048823117038,
            59.995698994090326
          ],
          [
            30.384048823117038,
            59.995698994090326
          ],
          [
            30.384048823117038,
            59.995698994090326
          ],
          [
            30.384048823117038,
            59.995698994090326
          ],
          [
            30.384048823117038,
            59.995698994090326
          ],
          [
            30.384048823117038,
            59.995698994090326
          ],
          [
            30.384048823117038,
            59.995698994090326
          ],
          [
            30.384048823117038,
            59.995698994090326
          ],
          [
            30.384048823117038,
            59.995698994090326
          ],
          [
            30.384048823117038,
            59.995698994090326
          ],
          [
            30.384048823117038,
            59.995698994090326
          ],
          [
            30.384048823117038,
            59.995698994090326
          ],
          [
            30.384048823117038,
            59.995698994090326
          ],
          [
            30.384048823117038,
            59.995698994090326
          ],
          [
            30.384048823117038,
            59.995698994090326
          ],
          [
            30.384048823117038,
            59.995698994090326
          ],
          [
            30.384048823117038,
            59.995698994090326
          ],
          [
            30.384048823117038,
            59.995698994090326
          ],
          [
            30.384048823117038,
            59.995698994090326
          ],
          [
            30.384048823117038,
            59.995698994090326
          ],
          [
            30.384048823117038,
            59.995698994090326
          ],
          [
            30.384048823117038,
            59.995698994090326
          ],
          [
            30.384048823117038,
            59.995698994090326
          ],
          [
            30.384048823117038,
            59.995698994090326
          ],
          [
            30.384048823117038,
            59.995698994090326
          ],
          [
            30.384048823117038,
            59.995698994090326
          ],
          [
            30.384048823117038,
            59.995698994090326
          ],
          [
            30.384048823117038,
            59.995698994090326
          ],
          [
            30.384048823117038,
            59.995698994090326
          ],
          [
            30.384048823117038,
            59.995698994090326
          ],
          [
            30.384048823117038,
            59.995698994090326
          ],
          [
            30.384048823117038,
            59.995698994090326
          ],
          [
            30.384048823117038,
            59.995698994090326
          ],
          [
            30.384048823117038,
            59.995698994090326
          ],
          [
            30.384048823117038,
            59.995698994090326
          ],
          [
            30.384048823117038,
            59.995698994090326
          ],
          [
            30.384048823117038,
            59.995698994090326
          ],
          [
            30.384048823117038,
            59.995698994090326
          ],
          [
            30.384048823117038,
            59.995698994090326
          ],
          [
            30.384048823117038,
            59.995698994090326
          ],
          [
            30.384048823117038,
            59.995698994090326
          ],
          [
            30.384048824323084,
            59.995698994236946
          ],
          [
            30.38404882509725,
            59.99569899433098
          ],
          [
            30.38404882640681,
            59.99569899449002
          ],
          [
            30.384048826311286,
            59.99569899447843
          ],
          [
            30.38404882335752,
            59.9956989941181
          ],
          [
            30.38404882214676,
            59.995698993969896
          ],
          [
            30.384048822516892,
            59.99569899401548
          ]
        ]
      }
    },
    {
      "type": "Feature",
      "properties": {
        "role": "endpoint",
        "status": "INSUFFICIENT_DATA",
        "confidence": 0.12
      },
      "geometry": {
        "type": "Point",
        "coordinates": [
          30.384048822516892,
          59.99569899401548
        ]
      }
    },
    {
      "type": "Feature",
      "properties": {
        "role": "confidence_polygon",
        "status": "INSUFFICIENT_DATA"
      },
      "geometry": {
        "type": "Polygon",
        "coordinates": [
          [
            [
              30.385034356348196,
              59.9956988863476
            ],
            [
              30.38502595398207,
              59.995763323146285
            ],
            [
              30.38500083252892,
              59.99582665931422
            ],
            [
              30.38495942173347,
              59.995887811142694
            ],
            [
              30.38490243006832,
              59.99594573229217
            ],
            [
              30.384830832617126,
              59.99599943169641
            ],
            [
              30.384745854394684,
              59.9960479905212
            ],
            [
              30.384648949389124,
              59.996090577887514
            ],
            [
              30.384541775684685,
              59.99612646508953
            ],
            [
              30.384426167090517,
              59.996155038064785
            ],
            [
              30.384304101761188,
              59.996175807902425
            ],
            [
              30.38417766834586,
              59.99618841920996
            ],
            [
              30.3840490302456,
              59.99619265619505
            ],
            [
              30.38392038859088,
              59.99618844635857
            ],
            [
              30.383793944573004,
              59.99617586173512
            ],
            [
              30.383671861774484,
              59.996155117660415
            ],
            [
              30.383556229143434,
              59.99612656908615
            ],
            [
              30.383449025245767,
              59.996090704505605
            ],
            [
              30.383352084407345,
              59.99604813759425
            ],
            [
              30.383267065325576,
              59.99599959670781
            ],
            [
              30.383195422687816,
              59.99594591241847
            ],
            [
              30.383138382282084,
              59.99588800330183
            ],
            [
              30.383096920026066,
              59.99582686021823
            ],
            [
              30.383071745272936,
              59.99576352935759
            ],
            [
              30.383063288679413,
              59.99569909433786
            ],
            [
              30.38307169484324,
              59.995634657663224
            ],
            [
              30.383096819835732,
              59.995571321859934
            ],
            [
              30.38313823367096,
              59.99551017061182
            ],
            [
              30.383195227669166,
              59.99545225021888
            ],
            [
              30.383266826587707,
              59.9953985516958
            ],
            [
              30.383351805311793,
              59.9953499938167
            ],
            [
              30.38344870981909,
              59.995307407396204
            ],
            [
              30.383555882059333,
              59.99527152107569
            ],
            [
              30.38367148832315,
              59.99524294885751
            ],
            [
              30.38379355061477,
              59.995222179600944
            ],
            [
              30.383919980492067,
              59.995209568658886
            ],
            [
              30.384048614795063,
              59.99520533179873
            ],
            [
              30.384177252652076,
              59.99520954151116
            ],
            [
              30.384303693130622,
              59.995222125769956
            ],
            [
              30.384425772889358,
              59.99524286926431
            ],
            [
              30.38454140318734,
              59.995271417082066
            ],
            [
              30.384648605617663,
              59.99530728078143
            ],
            [
              30.384745545954452,
              59.99534984674709
            ],
            [
              30.384830565534475,
              59.9953983866877
            ],
            [
              30.384902209636433,
              59.99545207009553
            ],
            [
              30.384959252372518,
              59.995509978455104
            ],
            [
              30.38500071766624,
              59.99557112095764
            ],
            [
              30.38502589595741,
              59.995634451452815
            ],
            [
              30.385034356348196,
              59.9956988863476
            ]
          ]
        ]
      }
    }
  ]
}