{
  "type": "FeatureCollection",
  "features": [
    {
      "type": "Feature",
      "properties": {
        "name": "ekf_dead_reckoning",
        "point_count": 466,
        "segment_count": 12,
        "role": "baseline"
      },
      "geometry": {
        "type": "MultiLineString",
        "coordinates": [
          [
            [
              30.386921761876753,
              59.99532565331338
            ],
            [
              30.386820727866567,
              59.99533891574374
            ],
            [
              30.386699206124522,
              59.99535530416485
            ],
            [
              30.386600082559085,
              59.995372648920714
            ],
            [
              30.386548816572894,
              59.995369091678626
            ],
            [
              30.38652316275733,
              59.99536585514216
            ],
            [
              30.38654073409238,
              59.995365272468106
            ],
            [
              30.38657530161952,
              59.995365611025505
            ],
            [
              30.386592109394716,
              59.99536532402196
            ],
            [
              30.386597235666013,
              59.995365219792845
            ],
            [
              30.386600680568165,
              59.99536514736331
            ],
            [
              30.386603239617838,
              59.99536509909631
            ],
            [
              30.38660528700702,
              59.99536508099286
            ],
            [
              30.386607022622528,
              59.995365013687184
            ],
            [
              30.386603579845712,
              59.99536458385639
            ],
            [
              30.3865989331067,
              59.995364214289694
            ],
            [
              30.386595443157645,
              59.99536389053863
            ],
            [
              30.386592588946336,
              59.99536360940748
            ],
            [
              30.386590520267116,
              59.99536336500284
            ],
            [
              30.38658860564878,
              59.99536314482722
            ],
            [
              30.386586396250618,
              59.995362948416584
            ],
            [
              30.386583859476595,
              59.995362110468925
            ],
            [
              30.386581732384396,
              59.99536131272908
            ],
            [
              30.3865798400495,
              59.99536052680317
            ],
            [
              30.386578096313105,
              59.99535968444411
            ],
            [
              30.386576393100018,
              59.995358738064255
            ],
            [
              30.38657564758571,
              59.99535829687399
            ],
            [
              30.386575693035066,
              59.9953577123239
            ],
            [
              30.386573428490564,
              59.99535886761354
            ],
            [
              30.38657396852539,
              59.99535843343729
            ],
            [
              30.386574210477647,
              59.9953579206845
            ],
            [
              30.3865744103111,
              59.99535734510006
            ],
            [
              30.386574564524203,
              59.99535675824025
            ],
            [
              30.38657468238264,
              59.99535615207585
            ],
            [
              30.38657472247648,
              59.995355546337095
            ],
            [
              30.38657470531729,
              59.995354930721874
            ],
            [
              30.386574624195898,
              59.995354311087674
            ],
            [
              30.386574487527223,
              59.995353685353
            ],
            [
              30.38657428276087,
              59.995353068178346
            ],
            [
              30.38657402212536,
              59.99535245573961
            ],
            [
              30.38657371136581,
              59.995351846084134
            ],
            [
              30.38657334185504,
              59.99535126291131
            ],
            [
              30.386572924503522,
              59.99535069536012
            ],
            [
              30.386572501408626,
              59.99535004469086
            ],
            [
              30.386572049744117,
              59.99534927200707
            ],
            [
              30.386571514177366,
              59.99534853696157
            ],
            [
              30.38656240746772,
              59.9953467101242
            ],
            [
              30.3865495932541,
              59.995345078536204
            ],
            [
              30.38650515980743,
              59.995336350641765
            ],
            [
              30.386499046544273,
              59.99533761160755
            ],
            [
              30.38649809606653,
              59.995337851957615
            ],
            [
              30.38649858847814,
              59.99533767646961
            ],
            [
              30.38649957854232,
              59.9953372313485
            ],
            [
              30.386484492686737,
              59.995341312538095
            ],
            [
              30.386466647766614,
              59.99534568864376
            ],
            [
              30.38644671711,
              59.99535038961704
            ]
          ],
          [
            [
              30.385539552871634,
              59.99549292070185
            ],
            [
              30.38544782625287,
              59.995510682002184
            ],
            [
              30.3853656833967,
              59.995524598623575
            ],
            [
              30.38527620648183,
              59.99554113895666
            ],
            [
              30.385156496292026,
              59.995565927006076
            ],
            [
              30.385010488257134,
              59.995598711882224
            ],
            [
              30.38485531881509,
              59.99563166396507
            ],
            [
              30.384703611333883,
              59.9956616074726
            ],
            [
              30.38456685609074,
              59.9956852849129
            ],
            [
              30.384437402830315,
              59.9957091094016
            ],
            [
              30.3843257928513,
              59.99573262250403
            ],
            [
              30.384231398718722,
              59.995753791819745
            ],
            [
              30.384153294021647,
              59.99577081773315
            ],
            [
              30.384087354002464,
              59.99578275030403
            ],
            [
              30.38403045126458,
              59.99579166415406
            ],
            [
              30.383981624003006,
              59.995798290844874
            ],
            [
              30.38393470492599,
              59.995803737243314
            ],
            [
              30.38389262490678,
              59.995806444974576
            ],
            [
              30.38384320889056,
              59.99580177758348
            ],
            [
              30.383809124907206,
              59.99579984066012
            ],
            [
              30.383772236144797,
              59.99579647612004
            ],
            [
              30.383753371799365,
              59.995793379245576
            ],
            [
              30.383742993795384,
              59.99578922617773
            ],
            [
              30.383739028793574,
              59.995783047145885
            ],
            [
              30.38373515873117,
              59.99577828543104
            ],
            [
              30.38373069888921,
              59.99577506321521
            ],
            [
              30.38372706904746,
              59.99577222579178
            ],
            [
              30.38372411253013,
              59.99576984284102
            ],
            [
              30.383720795048504,
              59.995767644543925
            ],
            [
              30.383718194860627,
              59.99576585312052
            ],
            [
              30.383715009114205,
              59.99576400728556
            ],
            [
              30.38371148540551,
              59.995762561899674
            ],
            [
              30.383708317714287,
              59.99576128143893
            ],
            [
              30.383705301999054,
              59.99576021298404
            ],
            [
              30.383702389145594,
              59.99575928090788
            ],
            [
              30.383699554553584,
              59.99575846582584
            ],
            [
              30.383696532968106,
              59.99575796390034
            ],
            [
              30.383693514169504,
              59.9957577896332
            ],
            [
              30.3836908325265,
              59.99575726451548
            ],
            [
              30.38368847518999,
              59.99575687038387
            ],
            [
              30.38368631236847,
              59.995756468888864
            ],
            [
              30.38368430975046,
              59.99575598803345
            ],
            [
              30.383682347011618,
              59.99575553464369
            ],
            [
              30.383680486531183,
              59.99575505831662
            ],
            [
              30.383678501538686,
              59.99575459429088
            ],
            [
              30.38367633160203,
              59.995754039330585
            ],
            [
              30.38367429196063,
              59.9957535375497
            ],
            [
              30.383672470213632,
              59.995753221487625
            ],
            [
              30.383670615498698,
              59.995752953536964
            ],
            [
              30.38366883853569,
              59.9957527158444
            ],
            [
              30.383667040460384,
              59.99575248792624
            ],
            [
              30.383665112448544,
              59.99575234266683
            ],
            [
              30.383663221827785,
              59.99575219975005
            ],
            [
              30.383661420543515,
              59.99575207137032
            ],
            [
              30.3836596984399,
              59.995751955248366
            ],
            [
              30.38365801409852,
              59.995751822847765
            ],
            [
              30.383656429575552,
              59.99575170702396
            ],
            [
              30.38365487992034,
              59.99575159962571
            ],
            [
              30.38365344892879,
              59.99575150525068
            ],
            [
              30.383652168447327,
              59.99575163960157
            ],
            [
              30.383650921304536,
              59.99575176992262
            ],
            [
              30.38364979031886,
              59.99575191903247
            ],
            [
              30.3836568796442,
              59.99575558565069
            ],
            [
              30.38368914632814,
              59.99576924196612
            ],
            [
              30.383739362778954,
              59.99578840157492
            ],
            [
              30.383783389603988,
              59.995801002980286
            ],
            [
              30.383793036059007,
              59.99580327964385
            ],
            [
              30.38361961865052,
              59.99590493277809
            ],
            [
              30.383594345414803,
              59.99590433549311
            ],
            [
              30.383575790987244,
              59.9959008078483
            ]
          ],
          [
            [
              30.383281873603117,
              59.99580818126224
            ],
            [
              30.38328386997759,
              59.99580795346113
            ],
            [
              30.383287220298964,
              59.995807696790976
            ],
            [
              30.383290841462514,
              59.995807731827
            ],
            [
              30.38329340494985,
              59.99580732849197
            ],
            [
              30.383294524309683,
              59.99580650024997
            ],
            [
              30.383295791144384,
              59.995805252586166
            ],
            [
              30.38329595930328,
              59.995803487935106
            ],
            [
              30.383295209493806,
              59.9958009176405
            ],
            [
              30.383295058364546,
              59.995798802443296
            ],
            [
              30.383295410922525,
              59.99579701527401
            ],
            [
              30.383295794877167,
              59.99579513176856
            ],
            [
              30.38329601473288,
              59.995793183392976
            ],
            [
              30.383296276101998,
              59.99579148177372
            ],
            [
              30.38329640116156,
              59.99578988049102
            ],
            [
              30.383296512151613,
              59.995788460271726
            ],
            [
              30.38329641983434,
              59.995787421512745
            ],
            [
              30.383296432102522,
              59.99578659398065
            ],
            [
              30.3832964800441,
              59.9957858742543
            ],
            [
              30.383295926842095,
              59.99578524640058
            ],
            [
              30.383295651204214,
              59.99578503425682
            ],
            [
              30.383295077089,
              59.99578507777275
            ],
            [
              30.383294547881018,
              59.99578516571646
            ],
            [
              30.383294095016243,
              59.995785258898394
            ],
            [
              30.383293698011045,
              59.995785355607815
            ],
            [
              30.383293239117204,
              59.995785456088434
            ],
            [
              30.383292759241805,
              59.99578558878132
            ],
            [
              30.38329209286318,
              59.99578577967425
            ],
            [
              30.383291542499613,
              59.99578605961498
            ],
            [
              30.38329102258654,
              59.995786371980564
            ],
            [
              30.383290493526506,
              59.9957866869414
            ],
            [
              30.383290075389375,
              59.99578702062365
            ],
            [
              30.383289577280607,
              59.99578738060888
            ],
            [
              30.383289132351532,
              59.99578768935659
            ],
            [
              30.38328870277824,
              59.99578796059065
            ],
            [
              30.383288272677564,
              59.99578830650759
            ],
            [
              30.38328791232809,
              59.995788773552036
            ],
            [
              30.38328767844858,
              59.99578930241991
            ],
            [
              30.38328744666254,
              59.99578994951216
            ],
            [
              30.383287154173097,
              59.99579057648953
            ],
            [
              30.383286884795844,
              59.99579119592884
            ],
            [
              30.383286734219652,
              59.99579185390815
            ],
            [
              30.383286578427178,
              59.9957925263814
            ],
            [
              30.3832864440825,
              59.995793212304875
            ],
            [
              30.383286379389567,
              59.995793946966764
            ],
            [
              30.383286394591398,
              59.99579460616879
            ],
            [
              30.38328645577168,
              59.995795263796666
            ],
            [
              30.38328655783761,
              59.99579587240765
            ],
            [
              30.383286763703946,
              59.99579647821477
            ],
            [
              30.38328704401888,
              59.99579705877644
            ],
            [
              30.38328734982118,
              59.99579771783864
            ],
            [
              30.38328763568342,
              59.9957983497349
            ],
            [
              30.38328794434636,
              59.995798982165105
            ],
            [
              30.383288261628337,
              59.995799598891146
            ],
            [
              30.383288579392122,
              59.9958001592499
            ],
            [
              30.383288987810552,
              59.99580071989554
            ],
            [
              30.383289371627068,
              59.99580127634872
            ],
            [
              30.38328963167472,
              59.995801785401625
            ],
            [
              30.383289778921547,
              59.99580228492472
            ],
            [
              30.383289739528347,
              59.995802505583974
            ],
            [
              30.383295984163844,
              59.99580704704118
            ],
            [
              30.383298524418297,
              59.99581247566508
            ],
            [
              30.383295776252403,
              59.99581439163121
            ],
            [
              30.38329242651405,
              59.99581720512327
            ],
            [
              30.383287178603112,
              59.995820230942
            ],
            [
              30.383287332511426,
              59.995820053887584
            ],
            [
              30.383287516286916,
              59.99581985605468
            ],
            [
              30.383287699556412,
              59.995819657510616
            ],
            [
              30.38327642146567,
              59.99582551645113
            ],
            [
              30.383268974743814,
              59.995827490164174
            ],
            [
              30.383260990075147,
              59.99582936584552
            ]
          ],
          [
            [
              30.382483752749664,
              59.99596402385935
            ],
            [
              30.382412158520957,
              59.99597347703137
            ],
            [
              30.382332206369078,
              59.99598130462691
            ],
            [
              30.382310463865885,
              59.99598368329022
            ],
            [
              30.382294417854627,
              59.99598526568094
            ],
            [
              30.382276466817743,
              59.99598683054505
            ],
            [
              30.38195559639139,
              59.99602658119915
            ],
            [
              30.381633441519213,
              59.99606569473975
            ],
            [
              30.38130168415157,
              59.99610671927156
            ]
          ],
          [
            [
              30.38044730758716,
              59.99622096732475
            ],
            [
              30.38018999667814,
              59.996249349310844
            ],
            [
              30.379920513749198,
              59.99628066392473
            ],
            [
              30.379641413693957,
              59.99631461252832
            ],
            [
              30.379357932969732,
              59.99635024184252
            ],
            [
              30.379068182044414,
              59.996386096421524
            ],
            [
              30.378773855215567,
              59.99642358419446
            ],
            [
              30.37847176252676,
              59.99646326208499
            ],
            [
              30.37815718376129,
              59.996506351341054
            ],
            [
              30.377833790937743,
              59.996552359702285
            ],
            [
              30.377502094670234,
              59.99659954142982
            ],
            [
              30.377164808368303,
              59.99664802301852
            ],
            [
              30.37681723595442,
              59.996698371063104
            ],
            [
              30.37645964742455,
              59.99675096435739
            ],
            [
              30.376096368225973,
              59.99680324077875
            ],
            [
              30.37572687816835,
              59.99685410828592
            ],
            [
              30.375358448829637,
              59.996905236533074
            ],
            [
              30.374979559506137,
              59.996958943172594
            ],
            [
              30.374607681661598,
              59.997013696308116
            ],
            [
              30.37424129883289,
              59.99706472706489
            ],
            [
              30.373885544386443,
              59.997114437474416
            ],
            [
              30.37353843248419,
              59.99716227296349
            ],
            [
              30.37309039149014,
              59.99722255121294
            ],
            [
              30.372634081143076,
              59.997284865029215
            ],
            [
              30.372176193048986,
              59.99734772904624
            ],
            [
              30.372097819746873,
              59.99735896739196
            ],
            [
              30.371914836724777,
              59.997387701964215
            ],
            [
              30.37167855671469,
              59.9974195077987
            ]
          ],
          [
            [
              30.371754646519754,
              59.99740634017892
            ],
            [
              30.371441874366898,
              59.99744627119372
            ],
            [
              30.37114238268884,
              59.997483442073204
            ],
            [
              30.370856167751107,
              59.997520885791566
            ],
            [
              30.370585430632197,
              59.99755987973448
            ],
            [
              30.370333530314607,
              59.9975978209719
            ],
            [
              30.37009956737895,
              59.99763254781277
            ],
            [
              30.36988168213589,
              59.99766664326812
            ],
            [
              30.369669011924685,
              59.99769705211241
            ],
            [
              30.369456910037226,
              59.99772540574417
            ],
            [
              30.36925099065946,
              59.99775080808886
            ],
            [
              30.36905314611478,
              59.99777528796966
            ],
            [
              30.368860711258012,
              59.997797253958566
            ],
            [
              30.368674520688664,
              59.99781984575392
            ],
            [
              30.368489377441474,
              59.99784368770095
            ],
            [
              30.368306955785194,
              59.9978675575595
            ],
            [
              30.368133018491047,
              59.99789136251721
            ],
            [
              30.367964428700436,
              59.997916492197646
            ],
            [
              30.367804410889327,
              59.997941525464114
            ],
            [
              30.367649094343296,
              59.99796724155934
            ],
            [
              30.367502211570283,
              59.99799146498394
            ],
            [
              30.367363484616433,
              59.99801371961333
            ],
            [
              30.3672344686414,
              59.99803306585977
            ],
            [
              30.367117594948624,
              59.99804977643467
            ],
            [
              30.367008897784338,
              59.99806491755791
            ],
            [
              30.36691289492092,
              59.998076788649165
            ],
            [
              30.36674666464883,
              59.99809909595422
            ],
            [
              30.366592245047798,
              59.99811981866149
            ],
            [
              30.366458873759925,
              59.998137788335704
            ],
            [
              30.366648160205337,
              59.99811247426693
            ],
            [
              30.366770113660067,
              59.99809556189966
            ],
            [
              30.366864673147234,
              59.998082616764606
            ]
          ],
          [
            [
              30.367158397883756,
              59.998042549887565
            ],
            [
              30.36715807733046,
              59.99804203852839
            ],
            [
              30.367158174772786,
              59.99804165725568
            ],
            [
              30.367158347224173,
              59.99804141254767
            ],
            [
              30.367158677904744,
              59.99804121765177
            ],
            [
              30.367159015049367,
              59.99804106342194
            ],
            [
              30.36715611727763,
              59.99804112558598
            ],
            [
              30.367147754459776,
              59.99804209247343
            ],
            [
              30.36714568106149,
              59.99804264451561
            ],
            [
              30.367143015417028,
              59.998043066588274
            ],
            [
              30.367140951261987,
              59.99804338336675
            ],
            [
              30.367139270028634,
              59.99804363814177
            ],
            [
              30.367138073684952,
              59.99804386034528
            ],
            [
              30.367134439685863,
              59.99804547630482
            ],
            [
              30.36713116848192,
              59.9980469595682
            ],
            [
              30.36712783254791,
              59.99804849981128
            ],
            [
              30.36712460626939,
              59.998050103655025
            ],
            [
              30.367121817209878,
              59.99805156177212
            ],
            [
              30.367119271142236,
              59.998053331832416
            ],
            [
              30.36711708614503,
              59.99805496520115
            ],
            [
              30.367115089981624,
              59.998056437612654
            ],
            [
              30.367112686887218,
              59.99805808029008
            ],
            [
              30.367110506013233,
              59.99805955555623
            ],
            [
              30.367108637112235,
              59.998061014970276
            ],
            [
              30.367106935049677,
              59.99806234044968
            ],
            [
              30.367105369775864,
              59.9980635540785
            ],
            [
              30.367104376491323,
              59.99806450604232
            ],
            [
              30.367103479077105,
              59.99806539368962
            ],
            [
              30.367102533095586,
              59.99806627466527
            ],
            [
              30.367101676191403,
              59.99806701310348
            ],
            [
              30.367100835662704,
              59.99806774517004
            ],
            [
              30.367100093227023,
              59.998068416872215
            ],
            [
              30.367099396351087,
              59.99806904902968
            ],
            [
              30.36709875957388,
              59.99806964567364
            ],
            [
              30.367098130361207,
              59.998070224891
            ],
            [
              30.367097575781365,
              59.998070808669254
            ],
            [
              30.36709712281956,
              59.998071362057175
            ],
            [
              30.367096802227866,
              59.99807189770347
            ],
            [
              30.367096241875224,
              59.998072388235215
            ],
            [
              30.36709599484263,
              59.99807259721698
            ],
            [
              30.36709571601857,
              59.99807277143975
            ],
            [
              30.36709546909187,
              59.99807295021466
            ],
            [
              30.36709482751078,
              59.99807314425448
            ],
            [
              30.36709433139593,
              59.99807319842574
            ],
            [
              30.36709415408055,
              59.99807320489955
            ],
            [
              30.3670939065831,
              59.998073258838254
            ],
            [
              30.367093987978734,
              59.99807320554389
            ],
            [
              30.367094265426637,
              59.998073097602045
            ],
            [
              30.36709468540758,
              59.99807298176902
            ],
            [
              30.367095600157604,
              59.99807274436457
            ],
            [
              30.367096244100473,
              59.99807256793343
            ],
            [
              30.367094380706593,
              59.998074203576124
            ],
            [
              30.36709128040939,
              59.99807491877239
            ],
            [
              30.36709096980612,
              59.99807496453009
            ],
            [
              30.367083759266496,
              59.998075940899426
            ],
            [
              30.36705745763792,
              59.99807915359869
            ],
            [
              30.36699647800124,
              59.99808640844996
            ],
            [
              30.36691218060394,
              59.99809533616329
            ],
            [
              30.366803163667367,
              59.99810729731639
            ]
          ],
          [
            [
              30.366226301693125,
              59.99817914687834
            ],
            [
              30.366183973366436,
              59.99818386009358
            ],
            [
              30.36614232844407,
              59.9981887540832
            ],
            [
              30.366113972946696,
              59.99819238939336
            ],
            [
              30.366094973221024,
              59.99819556870881
            ],
            [
              30.366063407210245,
              59.998200321035256
            ],
            [
              30.366022775684772,
              59.99820599519132
            ],
            [
              30.365983418063973,
              59.998210706970006
            ],
            [
              30.365937912721712,
              59.99821616541038
            ],
            [
              30.365881923141178,
              59.998223076738114
            ],
            [
              30.365830919040608,
              59.998229166634964
            ],
            [
              30.36578485282973,
              59.99823382013823
            ],
            [
              30.365740679001583,
              59.99823808397758
            ],
            [
              30.36569929371529,
              59.998241757426136
            ],
            [
              30.36566952758184,
              59.998243847642755
            ],
            [
              30.365644600802362,
              59.998245339377554
            ],
            [
              30.365623005436454,
              59.99824561512601
            ],
            [
              30.3655931687678,
              59.99824684057696
            ],
            [
              30.365561210684426,
              59.998247636515806
            ],
            [
              30.365529276895806,
              59.998253873332146
            ],
            [
              30.365506196095144,
              59.99825824172538
            ],
            [
              30.365488964602513,
              59.998261807016966
            ],
            [
              30.36548835189135,
              59.998263075693345
            ],
            [
              30.3654880142371,
              59.99826378528272
            ],
            [
              30.36548801456724,
              59.99826378642279
            ],
            [
              30.365469938389463,
              59.99827551419107
            ],
            [
              30.365445637861555,
              59.99829580908643
            ],
            [
              30.365413574912036,
              59.99833130888587
            ]
          ],
          [
            [
              30.36510217799556,
              59.99885549783594
            ],
            [
              30.365069781515306,
              59.998925670150115
            ],
            [
              30.365056632928617,
              59.99899937613279
            ],
            [
              30.365042086355782,
              59.99910113263149
            ],
            [
              30.365027537261554,
              59.99920537849763
            ],
            [
              30.365012707563075,
              59.999308471305476
            ],
            [
              30.365018742188873,
              59.999282402779016
            ],
            [
              30.365023252731934,
              59.99925194128468
            ],
            [
              30.36502939015288,
              59.99921785741924
            ]
          ],
          [
            [
              30.36508241421826,
              59.998899148768864
            ],
            [
              30.365082453667622,
              59.99889853513632
            ],
            [
              30.365087287763394,
              59.99891219637245
            ],
            [
              30.36509301999777,
              59.99892817017706
            ],
            [
              30.3651001301215,
              59.99894961069888
            ],
            [
              30.36510008772634,
              59.998949170125655
            ],
            [
              30.365100117292688,
              59.998948628109716
            ],
            [
              30.365100178869078,
              59.99894812215548
            ],
            [
              30.365118955691948,
              59.99900030968389
            ],
            [
              30.36513638433532,
              59.99904933169818
            ],
            [
              30.365157095077787,
              59.99910365969831
            ]
          ],
          [
            [
              30.365443930395074,
              59.999823127788346
            ],
            [
              30.365502313827264,
              59.999946713554365
            ],
            [
              30.365557841727277,
              60.00006828849715
            ],
            [
              30.365616068045963,
              60.000186445429705
            ],
            [
              30.365675298589174,
              60.00030448857961
            ],
            [
              30.365738254380126,
              60.00042518750736
            ],
            [
              30.365792759856042,
              60.000551782735165
            ],
            [
              30.365843784063838,
              60.00068366438568
            ],
            [
              30.365899586243863,
              60.000820509483695
            ],
            [
              30.365953508169515,
              60.000962864452376
            ],
            [
              30.366012204420745,
              60.0011122051311
            ],
            [
              30.36607801256819,
              60.00126488226683
            ],
            [
              30.366159940762902,
              60.00141718593564
            ],
            [
              30.366248660658353,
              60.00156848799446
            ],
            [
              30.366344891407945,
              60.00171975543924
            ],
            [
              30.366441967894083,
              60.001868669217586
            ],
            [
              30.36653091071609,
              60.00201736060365
            ],
            [
              30.36661532466129,
              60.00216436915701
            ],
            [
              30.36669504976689,
              60.00230896864082
            ],
            [
              30.36678277468541,
              60.00244909586899
            ],
            [
              30.366874645703902,
              60.00258635257191
            ],
            [
              30.366961745967224,
              60.00272185436327
            ],
            [
              30.367047297358248,
              60.00285713201427
            ],
            [
              30.367132253281596,
              60.0029907125553
            ],
            [
              30.367217947420283,
              60.00312222290799
            ],
            [
              30.367305117623076,
              60.00325187048058
            ],
            [
              30.36739431193056,
              60.00338127772685
            ],
            [
              30.367485465452198,
              60.00351142543246
            ],
            [
              30.367575742992653,
              60.003642535967835
            ],
            [
              30.367667518256983,
              60.00377472669727
            ],
            [
              30.36776405885649,
              60.00390996723408
            ],
            [
              30.36786123384127,
              60.004046431861724
            ],
            [
              30.36795471425683,
              60.00418335827274
            ],
            [
              30.36804773701937,
              60.00431933423696
            ],
            [
              30.368136817525052,
              60.00445143662722
            ],
            [
              30.36822235772795,
              60.004578129291154
            ],
            [
              30.368298455981254,
              60.004697360955625
            ],
            [
              30.36836568523064,
              60.00480893911589
            ],
            [
              30.36843440508777,
              60.00491707100193
            ],
            [
              30.36851269563779,
              60.005027897721405
            ],
            [
              30.3685992097858,
              60.00513854637693
            ],
            [
              30.36869209988695,
              60.00525092147232
            ],
            [
              30.368789175834735,
              60.00536413075648
            ],
            [
              30.368911475621637,
              60.00551601691223
            ],
            [
              30.369041893000908,
              60.00568280609545
            ],
            [
              30.369182135412508,
              60.0058642251353
            ],
            [
              30.369240399816846,
              60.00593166742575
            ],
            [
              30.36928730391958,
              60.00598698900358
            ],
            [
              30.3693218578756,
              60.006026830794525
            ]
          ],
          [
            [
              30.368755883512204,
              60.00531887852895
            ],
            [
              30.36875571596739,
              60.00531867132011
            ],
            [
              30.36875557548781,
              60.005318499334
            ],
            [
              30.36875544606109,
              60.005318342810135
            ],
            [
              30.368755326954673,
              60.0053182002432
            ],
            [
              30.368755499213222,
              60.005318408123365
            ],
            [
              30.36874758075693,
              60.0053127277515
            ],
            [
              30.36874231791622,
              60.0053084358001
            ],
            [
              30.368737476853642,
              60.005305121907156
            ],
            [
              30.368733231737075,
              60.00530235653749
            ],
            [
              30.368729956840024,
              60.00529983850704
            ],
            [
              30.36872809535597,
              60.005297279154995
            ],
            [
              30.36872746826274,
              60.0052950142132
            ],
            [
              30.368727882215488,
              60.00529295313232
            ],
            [
              30.368728728297324,
              60.00529094252806
            ],
            [
              30.368730681231433,
              60.005289442375776
            ],
            [
              30.368732662406128,
              60.00528843253181
            ],
            [
              30.36873441074005,
              60.00528764495274
            ],
            [
              30.36873602819113,
              60.005287433830034
            ],
            [
              30.368737325538646,
              60.005287304070464
            ],
            [
              30.368738669798084,
              60.00528706924355
            ],
            [
              30.368740026248588,
              60.005286834143305
            ],
            [
              30.36874129369713,
              60.005286794524636
            ],
            [
              30.36874244918031,
              60.00528678741287
            ],
            [
              30.368742250384543,
              60.00528654978725
            ],
            [
              30.368742054081885,
              60.005286316823494
            ],
            [
              30.368741878347322,
              60.00528610959303
            ],
            [
              30.368742373957197,
              60.00528588741234
            ],
            [
              30.368742731632356,
              60.00528564249781
            ],
            [
              30.368743248541602,
              60.005285431293686
            ],
            [
              30.368743746097607,
              60.00528526914435
            ],
            [
              30.368744380222644,
              60.00528529509745
            ],
            [
              30.368744731486448,
              60.00528506785533
            ],
            [
              30.368745022295904,
              60.005284851680614
            ],
            [
              30.368745235777922,
              60.00528461782575
            ],
            [
              30.368745033238483,
              60.00528439629893
            ],
            [
              30.36874482875923,
              60.00528417404096
            ],
            [
              30.36874462040954,
              60.0052839485305
            ],
            [
              30.36874441135075,
              60.00528372336379
            ],
            [
              30.368744217997357,
              60.00528351670116
            ],
            [
              30.36874401246644,
              60.005283297118
            ],
            [
              30.368743802921287,
              60.00528307456155
            ],
            [
              30.36874359508379,
              60.005282855563465
            ],
            [
              30.36874339146205,
              60.00528264247463
            ]
          ]
        ]
      }
    }
  ]
}