{
  "type": "FeatureCollection",
  "features": [
    {
      "type": "Feature",
      "properties": {
        "name": "last_known_position",
        "point_count": 466,
        "segment_count": 12,
        "role": "baseline"
      },
      "geometry": {
        "type": "MultiLineString",
        "coordinates": [
          [
            [
              30.3869346319815,
              59.99532399252391
            ],
            [
              30.3869346319815,
              59.99532399252391
            ],
            [
              30.386818803126296,
              59.99533963624744
            ],
            [
              30.386733810373947,
              59.99535184311263
            ],
            [
              30.386694129309852,
              59.99535684291567
            ],
            [
              30.38666314160378,
              59.99536110371973
            ],
            [
              30.386648637135796,
              59.995363754392095
            ],
            [
              30.386634169882257,
              59.995365921307766
            ],
            [
              30.386624882370587,
              59.99536428013243
            ],
            [
              30.3866068224591,
              59.995364699762256
            ],
            [
              30.3866068224591,
              59.995364699762256
            ],
            [
              30.3866068224591,
              59.995364699762256
            ],
            [
              30.3866068224591,
              59.995364699762256
            ],
            [
              30.3866068224591,
              59.995364699762256
            ],
            [
              30.38656213747428,
              59.995361068470736
            ],
            [
              30.38654200489363,
              59.99536052157467
            ],
            [
              30.386544751566422,
              59.99536007295631
            ],
            [
              30.386544751566422,
              59.99536007295631
            ],
            [
              30.386544751566422,
              59.99536007295631
            ],
            [
              30.386544751566422,
              59.99536007295631
            ],
            [
              30.386544751566422,
              59.99536007295631
            ],
            [
              30.386527853034917,
              59.99534910403741
            ],
            [
              30.386528142794543,
              59.99534906281503
            ],
            [
              30.386528142794543,
              59.99534906281503
            ],
            [
              30.386528142794543,
              59.99534906281503
            ],
            [
              30.386528142794543,
              59.99534906281503
            ],
            [
              30.38654415442494,
              59.99535884233116
            ],
            [
              30.386561964057147,
              59.995358737574854
            ],
            [
              30.386560970201803,
              59.995357739605545
            ],
            [
              30.386565764749207,
              59.99535619230125
            ],
            [
              30.38656020751375,
              59.995354328159046
            ],
            [
              30.386560698217096,
              59.99535328506335
            ],
            [
              30.386560698217096,
              59.99535328506335
            ],
            [
              30.386560698217096,
              59.99535328506335
            ],
            [
              30.386560698217096,
              59.99535328506335
            ],
            [
              30.386560698217096,
              59.99535328506335
            ],
            [
              30.386560698217096,
              59.99535328506335
            ],
            [
              30.386560698217096,
              59.99535328506335
            ],
            [
              30.386560698217096,
              59.99535328506335
            ],
            [
              30.386560698217096,
              59.99535328506335
            ],
            [
              30.386560698217096,
              59.99535328506335
            ],
            [
              30.386560698217096,
              59.99535328506335
            ],
            [
              30.386560698217096,
              59.99535328506335
            ],
            [
              30.386560698217096,
              59.99535328506335
            ],
            [
              30.386560698217096,
              59.99535328506335
            ],
            [
              30.386560698217096,
              59.99535328506335
            ],
            [
              30.386458417896968,
              59.99536104788821
            ],
            [
              30.386402841572092,
              59.995368109385474
            ],
            [
              30.386339265842416,
              59.99537476464748
            ],
            [
              30.386254922495525,
              59.99538668541897
            ],
            [
              30.386254922495525,
              59.99538668541897
            ],
            [
              30.386254922495525,
              59.99538668541897
            ],
            [
              30.386254922495525,
              59.99538668541897
            ],
            [
              30.385905675252975,
              59.99543982052246
            ],
            [
              30.38581223131771,
              59.99545664731524
            ],
            [
              30.385724633504033,
              59.99546823509531
            ]
          ],
          [
            [
              30.385609819908392,
              59.99548213243819
            ],
            [
              30.38550464037533,
              59.9955005651113
            ],
            [
              30.38539062130983,
              59.995513538592284
            ],
            [
              30.385261799746296,
              59.99553393218477
            ],
            [
              30.385121017004632,
              59.995554007341866
            ],
            [
              30.384976125365494,
              59.995574990100465
            ],
            [
              30.384835826943913,
              59.99559157779379
            ],
            [
              30.384709055653186,
              59.995607208438166
            ],
            [
              30.384600584768503,
              59.995617067156935
            ],
            [
              30.38448243316384,
              59.995633041180746
            ],
            [
              30.384388468510746,
              59.995648102178855
            ],
            [
              30.384304254051756,
              59.99566102268308
            ],
            [
              30.38422955897272,
              59.995671713625384
            ],
            [
              30.38415890187529,
              59.995677601567444
            ],
            [
              30.384090011080087,
              59.99568648362797
            ],
            [
              30.384029598746785,
              59.99569742850164
            ],
            [
              30.38395933945313,
              59.995708676275704
            ],
            [
              30.38390410946079,
              59.99571737958659
            ],
            [
              30.38384865444223,
              59.995726629975564
            ],
            [
              30.38379698127823,
              59.99573275642963
            ],
            [
              30.383734524394953,
              59.99573968954701
            ],
            [
              30.383712975431823,
              59.995743643565746
            ],
            [
              30.38369815983124,
              59.99574609092522
            ],
            [
              30.3836978710845,
              59.99574666813802
            ],
            [
              30.383690542524135,
              59.99574892249478
            ],
            [
              30.38368442367848,
              59.995750305205874
            ],
            [
              30.383684514460946,
              59.995748238939925
            ],
            [
              30.383685393044146,
              59.99574811007855
            ],
            [
              30.38367636760854,
              59.99574529753157
            ],
            [
              30.383680282247557,
              59.995746077356756
            ],
            [
              30.383667084016537,
              59.99574190466293
            ],
            [
              30.38365761069085,
              59.99574315560824
            ],
            [
              30.38365708234266,
              59.99574297376516
            ],
            [
              30.38365415519392,
              59.9957441214306
            ],
            [
              30.383650720554648,
              59.99574459616121
            ],
            [
              30.38364685922221,
              59.995745106507975
            ],
            [
              30.38363880675906,
              59.99574627179423
            ],
            [
              30.383633454137605,
              59.99574780464943
            ],
            [
              30.383634204516866,
              59.995747673923304
            ],
            [
              30.383636754100394,
              59.99574887294571
            ],
            [
              30.383637691567614,
              59.99574900592501
            ],
            [
              30.383636701386134,
              59.99574608606948
            ],
            [
              30.383634366504722,
              59.995746693412734
            ],
            [
              30.383634366504722,
              59.995746693412734
            ],
            [
              30.38362644930111,
              59.99574486692407
            ],
            [
              30.3836180469206,
              59.99574195821214
            ],
            [
              30.383618179507184,
              59.9957419319371
            ],
            [
              30.383622678593614,
              59.99574723676214
            ],
            [
              30.383616804230893,
              59.995747469018575
            ],
            [
              30.383617576742687,
              59.995748496605756
            ],
            [
              30.383613209972083,
              59.99574846225907
            ],
            [
              30.383606297603613,
              59.99575018972157
            ],
            [
              30.38360465096682,
              59.995750163940336
            ],
            [
              30.38360465096682,
              59.995750163940336
            ],
            [
              30.38360465096682,
              59.995750163940336
            ],
            [
              30.38360465096682,
              59.995750163940336
            ],
            [
              30.38360465096682,
              59.995750163940336
            ],
            [
              30.38360465096682,
              59.995750163940336
            ],
            [
              30.38360465096682,
              59.995750163940336
            ],
            [
              30.383612317619598,
              59.9957597821197
            ],
            [
              30.383612317619598,
              59.9957597821197
            ],
            [
              30.383612317619598,
              59.9957597821197
            ],
            [
              30.383612317619598,
              59.9957597821197
            ],
            [
              30.383591826165702,
              59.99576045006099
            ],
            [
              30.383591826165702,
              59.99576045006099
            ],
            [
              30.383591826165702,
              59.99576045006099
            ],
            [
              30.383591826165702,
              59.99576045006099
            ],
            [
              30.38329330578519,
              59.9958067327369
            ],
            [
              30.3832701421352,
              59.99581171891908
            ],
            [
              30.38328201190915,
              59.995809616469614
            ]
          ],
          [
            [
              30.38328187279586,
              59.99580818371438
            ],
            [
              30.383287355426788,
              59.995808056774514
            ],
            [
              30.383296510689235,
              59.995807753025424
            ],
            [
              30.383304460200453,
              59.99580889711654
            ],
            [
              30.383305206956972,
              59.995806546904866
            ],
            [
              30.383300092958105,
              59.995803069941445
            ],
            [
              30.383303590789062,
              59.9957981684773
            ],
            [
              30.383295998070064,
              59.99579142086688
            ],
            [
              30.38328695130465,
              59.99577992920994
            ],
            [
              30.383291755745915,
              59.99578010909735
            ],
            [
              30.38329732843056,
              59.99578010207247
            ],
            [
              30.383298526633116,
              59.995775284575075
            ],
            [
              30.383296943277646,
              59.995770998084396
            ],
            [
              30.383298172881588,
              59.995771192811716
            ],
            [
              30.38329645095604,
              59.995769302143025
            ],
            [
              30.383296236405073,
              59.995769498040445
            ],
            [
              30.38329292030364,
              59.99577383179674
            ],
            [
              30.38329438702653,
              59.99577590019744
            ],
            [
              30.38329448001209,
              59.99577682925694
            ],
            [
              30.383282516241366,
              59.99577716678917
            ],
            [
              30.383287388098548,
              59.99578536965532
            ],
            [
              30.383280079197274,
              59.99579106638654
            ],
            [
              30.383279954229252,
              59.995792481713465
            ],
            [
              30.38328037450532,
              59.995793347268645
            ],
            [
              30.383281345450232,
              59.9957932744163
            ],
            [
              30.383278907278886,
              59.995794083899504
            ],
            [
              30.383277476950045,
              59.99579542284838
            ],
            [
              30.38327144965475,
              59.99579772198226
            ],
            [
              30.383273849583777,
              59.99580090271365
            ],
            [
              30.383273888826025,
              59.995802478353426
            ],
            [
              30.38327228013521,
              59.99580351738175
            ],
            [
              30.383274655901296,
              59.99580552243605
            ],
            [
              30.383271721623586,
              59.99580607048753
            ],
            [
              30.383273062315332,
              59.99580595806369
            ],
            [
              30.383272530468467,
              59.99580547941119
            ],
            [
              30.383272419082523,
              59.99580914708967
            ],
            [
              30.38327458925054,
              59.995812794105845
            ],
            [
              30.38327875305289,
              59.995818018270924
            ],
            [
              30.38327822160311,
              59.99582387024063
            ],
            [
              30.383275482338743,
              59.99582454884592
            ],
            [
              30.383276183053646,
              59.995826038834224
            ],
            [
              30.38327971585112,
              59.995829147998755
            ],
            [
              30.383279221164468,
              59.99583049215989
            ],
            [
              30.383279849015956,
              59.99583282505566
            ],
            [
              30.383281364945066,
              59.99583565595032
            ],
            [
              30.383285078830735,
              59.9958341257076
            ],
            [
              30.383287394230212,
              59.995836548322636
            ],
            [
              30.38328870925047,
              59.99583488792467
            ],
            [
              30.383295075422435,
              59.99583581099076
            ],
            [
              30.383296389427258,
              59.995836623942296
            ],
            [
              30.38329706362678,
              59.99584139774798
            ],
            [
              30.383296959119384,
              59.99584134176265
            ],
            [
              30.383298108385894,
              59.99584275304853
            ],
            [
              30.383298777668877,
              59.995843312926084
            ],
            [
              30.38329899962289,
              59.99584156369168
            ],
            [
              30.383302834770657,
              59.99584284038302
            ],
            [
              30.383301956914078,
              59.99584393403274
            ],
            [
              30.383296828448096,
              59.99584161386418
            ],
            [
              30.383292671753367,
              59.995842639832624
            ],
            [
              30.38328673116186,
              59.99584680019417
            ],
            [
              30.383260602836327,
              59.99585240061881
            ],
            [
              30.383215285622825,
              59.99586124073164
            ],
            [
              30.38319554733705,
              59.99586834119614
            ],
            [
              30.383117260837572,
              59.99587842172567
            ],
            [
              30.38307088754199,
              59.99588787794794
            ],
            [
              30.38307088754199,
              59.99588787794794
            ],
            [
              30.38307088754199,
              59.99588787794794
            ],
            [
              30.38307088754199,
              59.99588787794794
            ],
            [
              30.382791364606142,
              59.99592705081838
            ],
            [
              30.382708128407494,
              59.99593500220754
            ],
            [
              30.38263586152603,
              59.995944795535365
            ]
          ],
          [
            [
              30.38253695571098,
              59.995957249199364
            ],
            [
              30.382394291830206,
              59.99597638534111
            ],
            [
              30.382224776682627,
              59.99598999408417
            ],
            [
              30.382224776682627,
              59.99598999408417
            ],
            [
              30.382224776682627,
              59.99598999408417
            ],
            [
              30.382224776682627,
              59.99598999408417
            ],
            [
              30.381323061087624,
              59.99611066304972
            ],
            [
              30.381084238784606,
              59.99614009556543
            ],
            [
              30.380855940122043,
              59.99616658215728
            ]
          ],
          [
            [
              30.380620332281893,
              59.99619837732406
            ],
            [
              30.38036532948736,
              59.996226421654015
            ],
            [
              30.38009902109269,
              59.99626169436376
            ],
            [
              30.379832274064476,
              59.99629936145816
            ],
            [
              30.37956715206071,
              59.99633572430915
            ],
            [
              30.379283651896827,
              59.99637036757471
            ],
            [
              30.37899904862806,
              59.996409175975444
            ],
            [
              30.378700756273282,
              59.996452544042455
            ],
            [
              30.37838251913882,
              59.996499387304105
            ],
            [
              30.378065170353196,
              59.996546821090995
            ],
            [
              30.377736858951337,
              59.99659284749089
            ],
            [
              30.37740630508653,
              59.99663869653692
            ],
            [
              30.37706461629845,
              59.99668569530202
            ],
            [
              30.376723198119805,
              59.99673435856015
            ],
            [
              30.376379366729285,
              59.996782192468956
            ],
            [
              30.376029169186964,
              59.99682934501359
            ],
            [
              30.375678141161785,
              59.996878237534844
            ],
            [
              30.37532347100458,
              59.996925227128756
            ],
            [
              30.374990208944183,
              59.99697338693564
            ],
            [
              30.374663699630847,
              59.997013042735695
            ],
            [
              30.37435117049669,
              59.997055788936734
            ],
            [
              30.37404183601435,
              59.99709618210306
            ],
            [
              30.37404183601435,
              59.99709618210306
            ],
            [
              30.37404183601435,
              59.99709618210306
            ],
            [
              30.37404183601435,
              59.99709618210306
            ],
            [
              30.372865549081915,
              59.99725551240097
            ],
            [
              30.37256328667218,
              59.99730203370929
            ],
            [
              30.372252633016707,
              59.99733724096983
            ]
          ],
          [
            [
              30.371962460519196,
              59.997377561382706
            ],
            [
              30.371675881516392,
              59.997413642237085
            ],
            [
              30.371422107498187,
              59.99744713777441
            ],
            [
              30.37116209751866,
              59.997482610089115
            ],
            [
              30.370919604411245,
              59.9975192004805
            ],
            [
              30.370687722208242,
              59.99755306299839
            ],
            [
              30.370462261372847,
              59.99758773765377
            ],
            [
              30.370234908561763,
              59.99762302705666
            ],
            [
              30.37000925963353,
              59.99765340419961
            ],
            [
              30.3697836474992,
              59.99768372342339
            ],
            [
              30.369563507453226,
              59.99771135886962
            ],
            [
              30.369354710066716,
              59.99774026813154
            ],
            [
              30.369142138117628,
              59.99776680426094
            ],
            [
              30.36893210105352,
              59.997791719232204
            ],
            [
              30.368727746314065,
              59.99781805711677
            ],
            [
              30.368541770434007,
              59.99784330297793
            ],
            [
              30.368370411516768,
              59.99786746622854
            ],
            [
              30.368194487207745,
              59.99789227327446
            ],
            [
              30.36802794813018,
              59.99791326431773
            ],
            [
              30.36786347504107,
              59.997936703075204
            ],
            [
              30.367722863024436,
              59.997954611611505
            ],
            [
              30.36759289668715,
              59.997976339474235
            ],
            [
              30.367477643756427,
              59.99799629804009
            ],
            [
              30.36738169548396,
              59.99801149225523
            ],
            [
              30.36729235467453,
              59.99802494631579
            ],
            [
              30.367225518808652,
              59.99803107901209
            ],
            [
              30.367225518808652,
              59.99803107901209
            ],
            [
              30.367225518808652,
              59.99803107901209
            ],
            [
              30.367225518808652,
              59.99803107901209
            ],
            [
              30.367170470549993,
              59.998041666725626
            ],
            [
              30.367167822072016,
              59.99804075901576
            ],
            [
              30.36716337119513,
              59.99804173480909
            ]
          ],
          [
            [
              30.367157957914994,
              59.99804261022976
            ],
            [
              30.367155534178607,
              59.998041278155206
            ],
            [
              30.36715599683788,
              59.99804085822056
            ],
            [
              30.36715599683788,
              59.99804085822056
            ],
            [
              30.36715599683788,
              59.99804085822056
            ],
            [
              30.36715599683788,
              59.99804085822056
            ],
            [
              30.36713069798944,
              59.998042298067276
            ],
            [
              30.367121904683966,
              59.9980419724709
            ],
            [
              30.367118694243317,
              59.99804782007353
            ],
            [
              30.367109121915153,
              59.998047497043395
            ],
            [
              30.36711162730806,
              59.99804705064878
            ],
            [
              30.36711162730806,
              59.99804705064878
            ],
            [
              30.36711162730806,
              59.99804705064878
            ],
            [
              30.36707299871331,
              59.998068311275915
            ],
            [
              30.367071592047203,
              59.998069748977734
            ],
            [
              30.36706231395676,
              59.99807375795544
            ],
            [
              30.367058363129644,
              59.998077958467455
            ],
            [
              30.367058708997153,
              59.99807829599165
            ],
            [
              30.367057801795895,
              59.99808751837348
            ],
            [
              30.36705965248333,
              59.998088222476106
            ],
            [
              30.36705965248333,
              59.998088222476106
            ],
            [
              30.367045756869537,
              59.998094526859205
            ],
            [
              30.367045780478612,
              59.99809377412446
            ],
            [
              30.36704827419287,
              59.99809615571596
            ],
            [
              30.367048989787932,
              59.9980958404315
            ],
            [
              30.367048989787932,
              59.9980958404315
            ],
            [
              30.367061016816923,
              59.99809140593466
            ],
            [
              30.36706132480623,
              59.99809136183651
            ],
            [
              30.36705873385903,
              59.998092530686584
            ],
            [
              30.367058117814135,
              59.99808980648761
            ],
            [
              30.367058117814135,
              59.99808980648761
            ],
            [
              30.367058117814135,
              59.99808980648761
            ],
            [
              30.367058117814135,
              59.99808980648761
            ],
            [
              30.367058117814135,
              59.99808980648761
            ],
            [
              30.367058117814135,
              59.99808980648761
            ],
            [
              30.367058019005317,
              59.99809037317161
            ],
            [
              30.367059477345023,
              59.99809019347256
            ],
            [
              30.367059477345023,
              59.99809019347256
            ],
            [
              30.367059477345023,
              59.99809019347256
            ],
            [
              30.367065208463654,
              59.998080124536244
            ],
            [
              30.367062551255785,
              59.998078948960156
            ],
            [
              30.367063037964495,
              59.99807940239119
            ],
            [
              30.367060782995818,
              59.998078400997215
            ],
            [
              30.3670604220819,
              59.99808033321262
            ],
            [
              30.367062926053453,
              59.99808149997192
            ],
            [
              30.36706411111285,
              59.99808164990857
            ],
            [
              30.36706411111285,
              59.99808164990857
            ],
            [
              30.36706411111285,
              59.99808164990857
            ],
            [
              30.36706411111285,
              59.99808164990857
            ],
            [
              30.36706411111285,
              59.99808164990857
            ],
            [
              30.36706411111285,
              59.99808164990857
            ],
            [
              30.36692065028055,
              59.998107122726594
            ],
            [
              30.366841570683317,
              59.998116040598674
            ],
            [
              30.366841570683317,
              59.998116040598674
            ],
            [
              30.366841570683317,
              59.998116040598674
            ],
            [
              30.366841570683317,
              59.998116040598674
            ],
            [
              30.366417835957463,
              59.9981610573672
            ],
            [
              30.3663499804588,
              59.99816298376845
            ],
            [
              30.36629891271076,
              59.998168999390764
            ]
          ],
          [
            [
              30.366259575156842,
              59.998176300929906
            ],
            [
              30.36622033679669,
              59.99818326283724
            ],
            [
              30.366177041937476,
              59.998189905008665
            ],
            [
              30.366142130684246,
              59.998193423402526
            ],
            [
              30.36610376890592,
              59.998198967374556
            ],
            [
              30.366040584295533,
              59.99820687163249
            ],
            [
              30.365985438668694,
              59.99821440300317
            ],
            [
              30.365941343952077,
              59.99821817286545
            ],
            [
              30.365885517686255,
              59.99822383528005
            ],
            [
              30.36582835669249,
              59.99823113015028
            ],
            [
              30.36579090329012,
              59.99823456404537
            ],
            [
              30.365755391827456,
              59.998234973464484
            ],
            [
              30.3657153649367,
              59.9982392842561
            ],
            [
              30.365676437234047,
              59.99824142550804
            ],
            [
              30.365641259621164,
              59.99824073941777
            ],
            [
              30.36559574283015,
              59.998243252999394
            ],
            [
              30.365540494687604,
              59.99824927408367
            ],
            [
              30.365466118086953,
              59.99825911101461
            ],
            [
              30.365402214693777,
              59.99827344399403
            ],
            [
              30.365347459303052,
              59.998299495580454
            ],
            [
              30.365293023329976,
              59.99832427072932
            ],
            [
              30.365257252182865,
              59.99836665969394
            ],
            [
              30.365257252182865,
              59.99836665969394
            ],
            [
              30.365257252182865,
              59.99836665969394
            ],
            [
              30.365257252182865,
              59.99836665969394
            ],
            [
              30.36518076311462,
              59.998602094892895
            ],
            [
              30.365146079654078,
              59.998682453339406
            ],
            [
              30.3651176289297,
              59.99874837730664
            ]
          ],
          [
            [
              30.36511747677185,
              59.99880852981163
            ],
            [
              30.365081393203106,
              59.99884936492276
            ],
            [
              30.365083684086148,
              59.99887344532206
            ],
            [
              30.365083684086148,
              59.99887344532206
            ],
            [
              30.365083684086148,
              59.99887344532206
            ],
            [
              30.365083684086148,
              59.99887344532206
            ],
            [
              30.365084230832853,
              59.99889997368572
            ],
            [
              30.365082353208035,
              59.998899650625916
            ],
            [
              30.365082353208035,
              59.998899650625916
            ]
          ],
          [
            [
              30.365082353208035,
              59.998899650625916
            ],
            [
              30.365082353208035,
              59.998899650625916
            ],
            [
              30.36510151339417,
              59.99895383373066
            ],
            [
              30.365115624055264,
              59.99899335404121
            ],
            [
              30.365135022517812,
              59.99905527385945
            ],
            [
              30.365135022517812,
              59.99905527385945
            ],
            [
              30.365135022517812,
              59.99905527385945
            ],
            [
              30.365135022517812,
              59.99905527385945
            ],
            [
              30.365255429444247,
              59.999382079927514
            ],
            [
              30.365291401448257,
              59.99948703391895
            ],
            [
              30.365348875334437,
              59.99960388600408
            ]
          ],
          [
            [
              30.36540624544071,
              59.9997388233771
            ],
            [
              30.365466659930288,
              59.999865401224795
            ],
            [
              30.36552236279096,
              59.99998541944244
            ],
            [
              30.365586077704616,
              60.00010200174441
            ],
            [
              30.365652939441436,
              60.00022583501665
            ],
            [
              30.365718470519056,
              60.000354714890165
            ],
            [
              30.365769471396675,
              60.00049325928082
            ],
            [
              30.365821064498057,
              60.00063929296272
            ],
            [
              30.36588328840125,
              60.000781629157565
            ],
            [
              30.365936380786966,
              60.00092924689528
            ],
            [
              30.36600103550234,
              60.00107869693002
            ],
            [
              30.36605657072598,
              60.00122780632849
            ],
            [
              30.36612956339997,
              60.00137437856357
            ],
            [
              30.366213567178782,
              60.00151150531451
            ],
            [
              30.366308203232784,
              60.001649465597545
            ],
            [
              30.366397322056716,
              60.00178691903329
            ],
            [
              30.366477244369083,
              60.00192712363294
            ],
            [
              30.366564743412606,
              60.002064937061355
            ],
            [
              30.36665292922998,
              60.00219706941415
            ],
            [
              30.36673957436151,
              60.00232888692111
            ],
            [
              30.366838591348913,
              60.00246189823693
            ],
            [
              30.36692734108276,
              60.00259666248024
            ],
            [
              30.367010123108447,
              60.00273971125382
            ],
            [
              30.36710309515575,
              60.002873347460415
            ],
            [
              30.367191632978027,
              60.003004546488
            ],
            [
              30.36727995076684,
              60.003137306784545
            ],
            [
              30.36736998449588,
              60.003273285642805
            ],
            [
              30.367466942916757,
              60.00341132846281
            ],
            [
              30.367559527536773,
              60.00355013805885
            ],
            [
              30.3676520116911,
              60.00369276463532
            ],
            [
              30.36774457762194,
              60.00382934631644
            ],
            [
              30.367833416787686,
              60.003963491935394
            ],
            [
              30.367910263731034,
              60.00409557042155
            ],
            [
              30.367992387478097,
              60.00422230896748
            ],
            [
              30.368072924302037,
              60.004339815140014
            ],
            [
              30.368145385624253,
              60.00445667621469
            ],
            [
              30.368208114073852,
              60.00456621627209
            ],
            [
              30.36827275807189,
              60.00467885980336
            ],
            [
              30.3683475111724,
              60.004795872580026
            ],
            [
              30.368426135233157,
              60.004914456553664
            ],
            [
              30.36850324174701,
              60.005018666524855
            ],
            [
              30.368580207682857,
              60.00511073781237
            ],
            [
              30.36864814236383,
              60.0051905317393
            ],
            [
              30.36864814236383,
              60.0051905317393
            ],
            [
              30.36864814236383,
              60.0051905317393
            ],
            [
              30.36864814236383,
              60.0051905317393
            ],
            [
              30.368766795498843,
              60.005300737971496
            ],
            [
              30.36878558240788,
              60.00532893954321
            ],
            [
              30.368777838036063,
              60.005318888369935
            ]
          ],
          [
            [
              30.368756069759595,
              60.00531911078088
            ],
            [
              30.368756069759595,
              60.00531911078088
            ],
            [
              30.368756069759595,
              60.00531911078088
            ],
            [
              30.368756069759595,
              60.00531911078088
            ],
            [
              30.368756069759595,
              60.00531911078088
            ],
            [
              30.368756069759595,
              60.00531911078088
            ],
            [
              30.368727196330777,
              60.00529842870696
            ],
            [
              30.36872462646058,
              60.00529511517935
            ],
            [
              30.368717303860585,
              60.00529303569418
            ],
            [
              30.368712626270863,
              60.00529066919765
            ],
            [
              30.368711841525496,
              60.005288102472726
            ],
            [
              30.368716225908877,
              60.005285144749884
            ],
            [
              30.36872309460971,
              60.005281811031814
            ],
            [
              30.368730289922144,
              60.0052805578964
            ],
            [
              30.368734975369655,
              60.0052784819359
            ],
            [
              30.368749773778788,
              60.0052777413519
            ],
            [
              30.36875889463789,
              60.00527970968259
            ],
            [
              30.36876667758913,
              60.005282411483655
            ],
            [
              30.36877618250806,
              60.00528694942908
            ],
            [
              30.36878351683874,
              60.00529140352587
            ],
            [
              30.36880377225795,
              60.00529076922621
            ],
            [
              30.368826410787797,
              60.00529239308963
            ],
            [
              30.368840657576552,
              60.005299522203565
            ],
            [
              30.36885229896935,
              60.00530779125901
            ],
            [
              30.36885229896935,
              60.00530779125901
            ],
            [
              30.36885229896935,
              60.00530779125901
            ],
            [
              30.36885229896935,
              60.00530779125901
            ],
            [
              30.368861597173975,
              60.005290724845395
            ],
            [
              30.368849310894777,
              60.00529667668616
            ],
            [
              30.36888187703015,
              60.00528158062206
            ],
            [
              30.36890318134809,
              60.00528681312978
            ],
            [
              30.368924510127297,
              60.005287188502834
            ],
            [
              30.368938865019228,
              60.005286794063366
            ],
            [
              30.368947903492366,
              60.00528995646986
            ],
            [
              30.368950819642937,
              60.00528537219319
            ],
            [
              30.368950819642937,
              60.00528537219319
            ],
            [
              30.368950819642937,
              60.00528537219319
            ],
            [
              30.368950819642937,
              60.00528537219319
            ],
            [
              30.368950819642937,
              60.00528537219319
            ],
            [
              30.368950819642937,
              60.00528537219319
            ],
            [
              30.368950819642937,
              60.00528537219319
            ],
            [
              30.368950819642937,
              60.00528537219319
            ],
            [
              30.368950819642937,
              60.00528537219319
            ],
            [
              30.368950819642937,
              60.00528537219319
            ]
          ]
        ]
      }
    }
  ]
}