{
  "type": "FeatureCollection",
  "features": [
    {
      "type": "Feature",
      "properties": {
        "role": "trajectory"
      },
      "geometry": {
        "type": "LineString",
        "coordinates": [
          [
            30.367951791103447,
            60.00416116737473
          ],
          [
            30.367951845899345,
            60.00416125201819
          ],
          [
            30.367951915687133,
            60.00416135956864
          ],
          [
            30.367952004835367,
            60.00416149641617
          ],
          [
            30.367952123363487,
            60.00416167886865
          ],
          [
            30.367952269243865,
            60.00416190396841
          ],
          [
            30.367952444405873,
            60.004162176096884
          ],
          [
            30.36795265673746,
            60.00416250823731
          ],
          [
            30.36795291419489,
            60.004162912362126
          ],
          [
            30.36800001950206,
            60.00423236757033
          ],
          [
            30.368007547138742,
            60.00424365133936
          ],
          [
            30.368015037180843,
            60.004254986695344
          ],
          [
            30.368022475530623,
            60.0042663702326
          ],
          [
            30.36802994717233,
            60.004277798441436
          ],
          [
            30.368037511323067,
            60.004289251821646
          ],
          [
            30.36804515909475,
            60.004300708248664
          ],
          [
            30.368052804444886,
            60.004312181482476
          ],
          [
            30.368060506477,
            60.0043236781202
          ],
          [
            30.368068192505127,
            60.004335227135954
          ],
          [
            30.368102777375654,
            60.00438934186504
          ],
          [
            30.368110183019123,
            60.00440030324659
          ],
          [
            30.368117620901966,
            60.004411265268
          ],
          [
            30.368125084077597,
            60.004422205757166
          ],
          [
            30.368132524694268,
            60.004433115175004
          ],
          [
            30.368139983025493,
            60.00444400870319
          ],
          [
            30.3681474060287,
            60.00445493222075
          ],
          [
            30.368154844934203,
            60.004465887128404
          ],
          [
            30.368162291653718,
            60.004476863281425
          ],
          [
            30.368169628870312,
            60.00448786035179
          ],
          [
            30.368188486977225,
            60.00452377733673
          ],
          [
            30.36819558234555,
            60.004534395861235
          ],
          [
            30.36820263280789,
            60.0045449490373
          ],
          [
            30.368209617676605,
            60.00455545743047
          ],
          [
            30.368216619566333,
            60.004565948266595
          ],
          [
            30.368223575392598,
            60.00457642817473
          ],
          [
            30.368230436344543,
            60.00458685718783
          ],
          [
            30.368237302898592,
            60.00459719655261
          ],
          [
            30.368244074047112,
            60.00460746983704
          ],
          [
            30.36825071785491,
            60.00461769076842
          ],
          [
            30.36826271505979,
            60.00464590428629
          ],
          [
            30.368269938480832,
            60.00465665711793
          ],
          [
            30.368277153321234,
            60.004667314335215
          ],
          [
            30.36828430250123,
            60.00467790712196
          ],
          [
            30.36829140301812,
            60.00468844893967
          ],
          [
            30.368298475103554,
            60.00469893116299
          ],
          [
            30.368305467666296,
            60.00470933634759
          ],
          [
            30.368312439937732,
            60.00471964715133
          ],
          [
            30.368319423956624,
            60.00472987191552
          ],
          [
            30.36832640655184,
            60.00474002027624
          ],
          [
            30.368338016742396,
            60.004765060028255
          ],
          [
            30.36834569063319,
            60.00477653579107
          ],
          [
            30.368353400083496,
            60.004787959888205
          ],
          [
            30.36836105287717,
            60.004799387818736
          ],
          [
            30.368368810954102,
            60.004810817278
          ],
          [
            30.368376636938375,
            60.004822252964196
          ],
          [
            30.36838451391507,
            60.00483370901622
          ],
          [
            30.368392529271723,
            60.00484518866958
          ],
          [
            30.368400718317606,
            60.004856692085035
          ],
          [
            30.36840901664483,
            60.00486825631919
          ],
          [
            30.368420112521072,
            60.004890604099266
          ],
          [
            30.36842830299071,
            60.004902296457516
          ],
          [
            30.368436574978453,
            60.00491408878459
          ],
          [
            30.368445031916597,
            60.004925937259
          ],
          [
            30.368453534224223,
            60.004937868941724
          ],
          [
            30.36846227286856,
            60.00494985650912
          ],
          [
            30.368471179204526,
            60.00496192610251
          ],
          [
            30.368480279774847,
            60.004974080769124
          ],
          [
            30.368489491460675,
            60.0049863536679
          ],
          [
            30.36849886599659,
            60.00499873746263
          ],
          [
            30.36850691437655,
            60.00501335840803
          ],
          [
            30.368514753974267,
            60.00502394839914
          ],
          [
            30.36852273137407,
            60.005034659474724
          ],
          [
            30.368530847931403,
            60.005045486551076
          ],
          [
            30.36853912297401,
            60.00505643440048
          ],
          [
            30.368547462587347,
            60.00506751306033
          ],
          [
            30.36855593883276,
            60.00507871754222
          ],
          [
            30.36856452921326,
            60.005090053353975
          ],
          [
            30.368573229955572,
            60.005101507011595
          ],
          [
            30.368582020648635,
            60.00511309148434
          ],
          [
            30.36858873521606,
            60.00512188223515
          ],
          [
            30.36858171605424,
            60.005112773277844
          ],
          [
            30.368574788079464,
            60.005103852552324
          ],
          [
            30.36856801357207,
            60.00509510978262
          ],
          [
            30.368561342548325,
            60.00508654430641
          ],
          [
            30.368554815925595,
            60.00507815050676
          ],
          [
            30.368548408468005,
            60.005069932176966
          ],
          [
            30.36854210452777,
            60.005061884496946
          ],
          [
            30.368535902142117,
            60.00505401547674
          ],
          [
            30.368529817926852,
            60.005046331767744
          ],
          [
            30.36854315074458,
            60.00506234501896
          ],
          [
            30.36854935028737,
            60.00507020398704
          ],
          [
            30.3685556991987,
            60.00507822782766
          ],
          [
            30.368562192488874,
            60.005086416305794
          ],
          [
            30.368568775499554,
            60.005094797247594
          ],
          [
            30.36857553992177,
            60.00510337051697
          ],
          [
            30.368582427750507,
            60.005112128637464
          ],
          [
            30.36858940839553,
            60.005121048028364
          ],
          [
            30.368596457288508,
            60.00513013130972
          ],
          [
            30.36860353804383,
            60.00513939528913
          ],
          [
            30.36862686770502,
            60.00516843219588
          ],
          [
            30.36863155758723,
            60.0051744515756
          ],
          [
            30.368636342201555,
            60.005180652630806
          ],
          [
            30.36864120318734,
            60.005187031539116
          ],
          [
            30.368646180636812,
            60.005193572850715
          ],
          [
            30.368651289895432,
            60.00520027698934
          ],
          [
            30.368656515910388,
            60.00520715930716
          ],
          [
            30.368661846924027,
            60.005214221082625
          ],
          [
            30.368667307691368,
            60.00522145225425
          ],
          [
            30.36867287121772,
            60.00522885812081
          ],
          [
            30.368690940076082,
            60.00524643267425
          ],
          [
            30.368694554056813,
            60.00525070067569
          ],
          [
            30.368698298632825,
            60.00525514770235
          ],
          [
            30.368702197346714,
            60.005259785299025
          ],
          [
            30.36870627130063,
            60.00526462227682
          ],
          [
            30.36871050586926,
            60.0052696511969
          ],
          [
            30.368714867874004,
            60.00527486643771
          ],
          [
            30.36871937778421,
            60.00528026292117
          ],
          [
            30.368724047344287,
            60.005285844511235
          ],
          [
            30.36872885008202,
            60.005291624085245
          ],
          [
            30.36873988118065,
            60.0052991700438
          ],
          [
            30.368741850278887,
            60.00530153758387
          ],
          [
            30.36874395855595,
            60.00530407599488
          ],
          [
            30.36874618349233,
            60.00530676247823
          ],
          [
            30.368748522961468,
            60.00530958017808
          ],
          [
            30.3687509491051,
            60.00531251103982
          ],
          [
            30.36875339041749,
            60.00531546195062
          ],
          [
            30.368755753207143,
            60.005318319154114
          ],
          [
            30.368758038577635,
            60.00532108249416
          ],
          [
            30.368760277686743,
            60.005323791863155
          ],
          [
            30.368763053933023,
            60.00532290878103
          ],
          [
            30.36876296706008,
            60.00532280369324
          ],
          [
            30.3687628472321,
            60.00532265823361
          ],
          [
            30.36876268051282,
            60.00532245608046
          ],
          [
            30.36876246820678,
            60.00532219938352
          ],
          [
            30.368762220317542,
            60.00532189886169
          ],
          [
            30.36876193018018,
            60.005321547158246
          ],
          [
            30.368761600834837,
            60.00532114922272
          ],
          [
            30.368761239256475,
            60.00532071186197
          ],
          [
            30.368760839849053,
            60.00532022981767
          ],
          [
            30.368763346705993,
            60.005320782700146
          ],
          [
            30.36876359821938,
            60.00532108679625
          ],
          [
            30.368763818448397,
            60.00532135236884
          ],
          [
            30.36876400458209,
            60.005321577162334
          ],
          [
            30.368764157932755,
            60.005321762362335
          ],
          [
            30.368764282203408,
            60.0053219120237
          ],
          [
            30.368764378136458,
            60.00532202783397
          ],
          [
            30.36876444738479,
            60.005322111353635
          ],
          [
            30.368764490261217,
            60.00532216302595
          ],
          [
            30.3687645060309,
            60.00532218202807
          ],
          [
            30.36876584553993,
            60.00532183710756
          ],
          [
            30.36876566866105,
            60.00532162373245
          ],
          [
            30.368765468668787,
            60.00532138255126
          ],
          [
            30.368765243848525,
            60.00532111179667
          ],
          [
            30.36876499309907,
            60.00532080934513
          ],
          [
            30.368764719503176,
            60.0053204798282
          ],
          [
            30.36876442072113,
            60.005320120540645
          ],
          [
            30.368764094965197,
            60.00531972819631
          ],
          [
            30.368763745605566,
            60.00531930770079
          ],
          [
            30.36876337273001,
            60.00531886041549
          ],
          [
            30.36876237271663,
            60.005318452076644
          ],
          [
            30.368762362303553,
            60.00531843955575
          ],
          [
            30.368762332291755,
            60.00531840357333
          ],
          [
            30.368762283519292,
            60.00531834505312
          ],
          [
            30.368762215359826,
            60.00531826306552
          ],
          [
            30.36876212955374,
            60.00531816008213
          ],
          [
            30.368762026012114,
            60.00531803584529
          ],
          [
            30.368761905085936,
            60.00531789035867
          ],
          [
            30.368761767736963,
            60.00531772521577
          ],
          [
            30.368761612570257,
            60.005317538905516
          ],
          [
            30.36876101225108,
            60.00531747598435
          ],
          [
            30.368761005909935,
            60.00531746836759
          ],
          [
            30.36876098682281,
            60.0053174454815
          ],
          [
            30.368760954818605,
            60.00531740709986
          ],
          [
            30.3687609077334,
            60.005317350491225
          ],
          [
            30.368760846309428,
            60.005317276802224
          ],
          [
            30.3687607723243,
            60.005317188062996
          ],
          [
            30.36876068436222,
            60.005317082602915
          ],
          [
            30.36876058423306,
            60.00531696225465
          ],
          [
            30.368760471635657,
            60.00531682691895
          ],
          [
            30.368760003713458,
            60.00531687083754
          ],
          [
            30.36875999928953,
            60.00531686552699
          ],
          [
            30.368759982781107,
            60.005316845687965
          ],
          [
            30.368759954271997,
            60.005316811513474
          ],
          [
            30.368759916921796,
            60.005316766711395
          ],
          [
            30.368759868139414,
            60.00531670808336
          ],
          [
            30.368759810479343,
            60.005316639056346
          ],
          [
            30.36875974536733,
            60.00531656113011
          ],
          [
            30.368759668917107,
            60.00531646938318
          ],
          [
            30.36875958338395,
            60.005316367003665
          ],
          [
            30.368759216039837,
            60.00531648329625
          ],
          [
            30.36875921200018,
            60.00531647844935
          ],
          [
            30.368759200885957,
            60.005316465134136
          ],
          [
            30.368759180714846,
            60.0053164410164
          ],
          [
            30.368759151896942,
            60.00531640646073
          ],
          [
            30.368759116376907,
            60.00531636391909
          ],
          [
            30.368759072309693,
            60.00531631127363
          ],
          [
            30.368759020940438,
            60.00531624974766
          ],
          [
            30.368758961432796,
            60.00531617846556
          ],
          [
            30.368758893826932,
            60.005316097654095
          ],
          [
            30.368758601279392,
            60.005316258928914
          ],
          [
            30.36875859662695,
            60.00531625335643
          ],
          [
            30.368758583867006,
            60.00531623811412
          ],
          [
            30.3687585655117,
            60.005316216142376
          ],
          [
            30.368758539993927,
            60.00531618560409
          ],
          [
            30.36875850636928,
            60.005316145475504
          ],
          [
            30.36875846770933,
            60.00531609923623
          ],
          [
            30.36875842994276,
            60.005316054023325
          ],
          [
            30.368758401700546,
            60.005316020211446
          ],
          [
            30.368758390804736,
            60.005316007082484
          ],
          [
            30.368757881193886,
            60.005316705072175
          ],
          [
            30.368757889752562,
            60.00531671548637
          ],
          [
            30.368757915212214,
            60.00531674675369
          ],
          [
            30.36875795338287,
            60.005316794331584
          ],
          [
            30.36875800097206,
            60.00531685414855
          ],
          [
            30.36875805834004,
            60.00531692744005
          ],
          [
            30.36875811863941,
            60.00531700611014
          ],
          [
            30.3687581824946,
            60.005317091569786
          ],
          [
            30.368758253527012,
            60.00531718884005
          ],
          [
            30.368758326992243,
            60.00531729194461
          ],
          [
            30.368751313013675,
            60.005313092046165
          ],
          [
            30.368751280903673,
            60.005313043858756
          ],
          [
            30.368751256552862,
            60.00531300582058
          ],
          [
            30.368751242149266,
            60.00531298245962
          ],
          [
            30.368751238426697,
            60.005312976089186
          ],
          [
            30.368751242625883,
            60.00531298362761
          ],
          [
            30.368751251114492,
            60.005312999725476
          ],
          [
            30.368751262362323,
            60.00531302232109
          ],
          [
            30.368751275051878,
            60.00531304937426
          ],
          [
            30.36875128763887,
            60.00531307836692
          ],
          [
            30.36874501659252,
            60.005308865427445
          ],
          [
            30.36874501246367,
            60.00530885427097
          ],
          [
            30.368745000013764,
            60.00530881757979
          ],
          [
            30.368744977622374,
            60.00530874475516
          ],
          [
            30.368744941963687,
            60.005308617863236
          ],
          [
            30.368744897104296,
            60.00530843866299
          ],
          [
            30.368744849515,
            60.005308227390785
          ],
          [
            30.368744804165374,
            60.005307998455244
          ],
          [
            30.36874476144593,
            60.005307753322555
          ],
          [
            30.368744721733957,
            60.00530748399936
          ],
          [
            30.36873794470057,
            60.00530370331801
          ],
          [
            30.368737933030697,
            60.00530358765477
          ],
          [
            30.368737920173068,
            60.00530341960438
          ],
          [
            30.368737907281503,
            60.00530319105818
          ],
          [
            30.368737897998987,
            60.00530291593205
          ],
          [
            30.36873789432472,
            60.00530262377778
          ],
          [
            30.368737896588524,
            60.00530233328341
          ],
          [
            30.368737905148866,
            60.00530204468134
          ],
          [
            30.36873792045692,
            60.00530175231623
          ],
          [
            30.36873794367513,
            60.00530145834185
          ],
          [
            30.368731343783548,
            60.00529842014676
          ],
          [
            30.368731351883277,
            60.00529835855629
          ],
          [
            30.3687313622047,
            60.00529829282614
          ],
          [
            30.368731377185703,
            60.005298211582144
          ],
          [
            30.368731398737204,
            60.005298110162826
          ],
          [
            30.368731427299185,
            60.00529798994632
          ],
          [
            30.368731462001026,
            60.00529785503326
          ],
          [
            30.368731502364852,
            60.00529770968106
          ],
          [
            30.368731546609208,
            60.005297559338224
          ],
          [
            30.368731591575063,
            60.00529741246736
          ],
          [
            30.368726159949453,
            60.005294736216264
          ],
          [
            30.368726193476824,
            60.00529463113356
          ],
          [
            30.368726226365084,
            60.005294530013586
          ],
          [
            30.368726260111437,
            60.00529442624056
          ],
          [
            30.368726298095396,
            60.00529431006978
          ],
          [
            30.368726340387504,
            60.00529417918153
          ],
          [
            30.368726391738164,
            60.005294020199514
          ],
          [
            30.36872645611497,
            60.005293818619926
          ],
          [
            30.368726534577497,
            60.00529357081331
          ],
          [
            30.36872662198304,
            60.005293291980564
          ],
          [
            30.368723653949367,
            60.00529071605298
          ],
          [
            30.368723719804187,
            60.0052905027131
          ],
          [
            30.368723793376752,
            60.00529026439427
          ],
          [
            30.368723881149954,
            60.00528997660727
          ],
          [
            30.368723987652604,
            60.0052896271796
          ],
          [
            30.3687241140736,
            60.00528921025986
          ],
          [
            30.368724260345836,
            60.00528872520382
          ],
          [
            30.368724426190823,
            60.00528817482667
          ],
          [
            30.368724606831112,
            60.005287572267065
          ],
          [
            30.368724791334916,
            60.00528695598825
          ],
          [
            30.36872439357033,
            60.00528495884178
          ],
          [
            30.368724447565288,
            60.00528477802826
          ],
          [
            30.36872449620833,
            60.00528461364551
          ],
          [
            30.368724540092654,
            60.00528446558155
          ],
          [
            30.36872457934734,
            60.00528433209825
          ],
          [
            30.368724613701655,
            60.00528421446779
          ],
          [
            30.368724643691827,
            60.005284111181595
          ],
          [
            30.368724670213677,
            60.00528401937361
          ],
          [
            30.368724693637706,
            60.00528393785181
          ],
          [
            30.368724714916855,
            60.00528386300247
          ],
          [
            30.368726501261104,
            60.005282764909076
          ],
          [
            30.36872655825917,
            60.00528256215949
          ],
          [
            30.36872661158196,
            60.00528237164656
          ],
          [
            30.368726661593307,
            60.00528219083098
          ],
          [
            30.36872671191507,
            60.00528200572863
          ],
          [
            30.368726767339446,
            60.00528179972228
          ],
          [
            30.3687268301618,
            60.00528155971899
          ],
          [
            30.368726901322578,
            60.00528127913898
          ],
          [
            30.368726980512783,
            60.00528095718162
          ],
          [
            30.36872706585037,
            60.00528059405232
          ],
          [
            30.368729627648346,
            60.005279651466495
          ],
          [
            30.368729633505325,
            60.00527962434197
          ],
          [
            30.36872964955967,
            60.005279546486676
          ],
          [
            30.36872967403131,
            60.005279418240264
          ],
          [
            30.368729706028414,
            60.0052792383596
          ],
          [
            30.368729742374743,
            60.005279014888906
          ],
          [
            30.368729779679615,
            60.00527876121138
          ],
          [
            30.368729816437916,
            60.005278484517085
          ],
          [
            30.368729852343815,
            60.00527818099867
          ],
          [
            30.368729887392778,
            60.00527784676324
          ],
          [
            30.36873588887819,
            60.00527755953847
          ],
          [
            30.368735917956958,
            60.00527718260919
          ],
          [
            30.368735941828223,
            60.00527678622536
          ],
          [
            30.368735959709625,
            60.00527638831619
          ],
          [
            30.368735970922284,
            60.00527600293816
          ],
          [
            30.368735974170303,
            60.00527562739291
          ],
          [
            30.368735971313537,
            60.00527525399949
          ],
          [
            30.3687359591138,
            60.005274877333235
          ],
          [
            30.368735939831527,
            60.005274500605985
          ],
          [
            30.3687359117251,
            60.00527411927506
          ],
          [
            30.36874198963918,
            60.00527531693114
          ],
          [
            30.368742039944657,
            60.005275743058895
          ],
          [
            30.36874209563113,
            60.005276141491564
          ],
          [
            30.3687421531811,
            60.00527650846957
          ],
          [
            30.36874221193854,
            60.005276841214695
          ],
          [
            30.36874227013419,
            60.005277145776155
          ],
          [
            30.368742332072504,
            60.00527743854126
          ],
          [
            30.368742399956353,
            60.005277736347516
          ],
          [
            30.368742472191077,
            60.005278031972104
          ],
          [
            30.368742543202213,
            60.00527830321959
          ],
          [
            30.368748131051575,
            60.0052794265195
          ],
          [
            30.368748263293636,
            60.005279876854274
          ],
          [
            30.36874839075502,
            60.00528029786077
          ],
          [
            30.36874851400128,
            60.005280688133155
          ],
          [
            30.368748627179574,
            60.00528103400563
          ],
          [
            30.36874872256023,
            60.00528132108909
          ],
          [
            30.368748793881153,
            60.00528153457395
          ],
          [
            30.36874884019827,
            60.005281672393444
          ],
          [
            30.36874887818066,
            60.005281784829116
          ],
          [
            30.368748919586192,
            60.00528190653697
          ],
          [
            30.368753938999777,
            60.00528292045255
          ],
          [
            30.36875414984443,
            60.00528354092389
          ],
          [
            30.368754369031787,
            60.00528417539742
          ],
          [
            30.36875459840853,
            60.00528483523209
          ],
          [
            30.36875483582443,
            60.005285509834366
          ],
          [
            30.368755081507473,
            60.005286188808874
          ],
          [
            30.36875533702001,
            60.005286880244554
          ],
          [
            30.368755606826678,
            60.00528758887102
          ],
          [
            30.36875589304395,
            60.005288314135726
          ],
          [
            30.368756192108115,
            60.00528904886144
          ],
          [
            30.36876046208512,
            60.00529002386895
          ],
          [
            30.368760743123403,
            60.0052906616135
          ],
          [
            30.36876103127011,
            60.00529129444686
          ],
          [
            30.368761325999813,
            60.005291915868035
          ],
          [
            30.368761626352256,
            60.00529252852908
          ],
          [
            30.368761928936763,
            60.00529312632183
          ],
          [
            30.36876223319378,
            60.00529370598482
          ],
          [
            30.3687625383485,
            60.00529427222772
          ],
          [
            30.36876284620185,
            60.005294824749726
          ],
          [
            30.36876315440842,
            60.00529536282444
          ],
          [
            30.368768322120047,
            60.00529526693191
          ],
          [
            30.36876866522487,
            60.00529583488976
          ],
          [
            30.368769003936965,
            60.005296385939936
          ],
          [
            30.36876933612808,
            60.00529691311445
          ],
          [
            30.368769659838705,
            60.005297417943396
          ],
          [
            30.368769972876,
            60.00529789870581
          ],
          [
            30.368770275232546,
            60.00529835386292
          ],
          [
            30.36877056789089,
            60.005298788676576
          ],
          [
            30.3687708470857,
            60.00529919940328
          ],
          [
            30.36877111214279,
            60.00529958355009
          ],
          [
            30.368776798225305,
            60.00529920165149
          ],
          [
            30.368777266111813,
            60.00529986869453
          ],
          [
            30.3687777198043,
            60.00530051225503
          ],
          [
            30.368778162532283,
            60.00530113505979
          ],
          [
            30.368778589458596,
            60.00530173339472
          ],
          [
            30.36877899004498,
            60.005302296113626
          ],
          [
            30.36877936876003,
            60.005302827051636
          ],
          [
            30.368779737748486,
            60.005303343731896
          ],
          [
            30.368780105890007,
            60.005303860103865
          ],
          [
            30.368780474917262,
            60.0053043765869
          ],
          [
            30.368780839952027,
            60.00530488587719
          ],
          [
            30.368781202017672,
            60.00530538852999
          ],
          [
            30.368786293522874,
            60.00530538124458
          ],
          [
            30.36878689850679,
            60.005306214436914
          ],
          [
            30.36878750598745,
            60.00530704806078
          ],
          [
            30.368788116225215,
            60.0053078789199
          ],
          [
            30.36878872643703,
            60.0053087109449
          ],
          [
            30.368789339369435,
            60.00530954529694
          ],
          [
            30.36878995450455,
            60.00531037787698
          ],
          [
            30.368790567734308,
            60.0053112084011
          ],
          [
            30.36879117846949,
            60.00531203380467
          ],
          [
            30.368791771892553,
            60.00531283487746
          ],
          [
            30.368797132591183,
            60.00531313250378
          ],
          [
            30.368797798272983,
            60.00531403070784
          ],
          [
            30.36879846725257,
            60.00531493310731
          ],
          [
            30.368799133364803,
            60.005315833111844
          ],
          [
            30.368799794241223,
            60.00531672341113
          ],
          [
            30.368800455367303,
            60.00531761388436
          ],
          [
            30.368801112625697,
            60.00531849997258
          ],
          [
            30.368801768309595,
            60.0053193809245
          ],
          [
            30.368802425473106,
            60.00532026417177
          ],
          [
            30.368803078213737,
            60.005321141765606
          ],
          [
            30.36880372687053,
            60.00532201145208
          ],
          [
            30.36880437387789,
            60.00532288041687
          ],
          [
            30.368805018798923,
            60.00532374661264
          ],
          [
            30.368805660853223,
            60.00532460714152
          ],
          [
            30.368806298447684,
            60.0053254642755
          ],
          [
            30.36880693610939,
            60.00532631977789
          ],
          [
            30.36880757159036,
            60.00532717105401
          ],
          [
            30.36880820178962,
            60.00532801766482
          ],
          [
            30.36880883222816,
            60.005328863247215
          ],
          [
            30.36880946195948,
            60.00532970878582
          ],
          [
            30.36881008917878,
            60.00533054994184
          ],
          [
            30.36881071367229,
            60.00533138901183
          ],
          [
            30.36881133988561,
            60.00533222905056
          ],
          [
            30.368811960918816,
            60.00533306346447
          ],
          [
            30.368812576422723,
            60.005333891383785
          ],
          [
            30.36881319274849,
            60.00533471880021
          ],
          [
            30.368813807953075,
            60.00533554544842
          ],
          [
            30.368814420221607,
            60.00533636861496
          ],
          [
            30.36881503209094,
            60.00533718940186
          ],
          [
            30.36881564348494,
            60.0053380116141
          ],
          [
            30.36881625366026,
            60.00533883276524
          ],
          [
            30.36881686636667,
            60.00533965433109
          ],
          [
            30.368817484706053,
            60.00534048320108
          ],
          [
            30.368818108456974,
            60.00534131868241
          ],
          [
            30.368818738364265,
            60.00534216017542
          ],
          [
            30.3688193726039,
            60.005343009169984
          ],
          [
            30.368820000082646,
            60.00534384795742
          ],
          [
            30.368820605547462,
            60.00534465677239
          ],
          [
            30.368821197783195,
            60.005345450080966
          ],
          [
            30.36882179597059,
            60.00534624997049
          ],
          [
            30.368825528290824,
            60.00534254071671
          ],
          [
            30.36882553149042,
            60.005342544999316
          ],
          [
            30.36882553674938,
            60.00534255201295
          ],
          [
            30.368825539434464,
            60.00534255559603
          ],
          [
            30.368825540550915,
            60.00534255708934
          ],
          [
            30.368825541630432,
            60.005342558528355
          ],
          [
            30.36882554236009,
            60.00534255950121
          ],
          [
            30.368825541194564,
            60.005342557946975
          ],
          [
            30.368825538026616,
            60.005342553729974
          ],
          [
            30.368825533366067,
            60.00534254751948
          ],
          [
            30.368827427668208,
            60.00533886734951
          ],
          [
            30.368826917602394,
            60.00533818919089
          ],
          [
            30.36882638167307,
            60.0053374799718
          ],
          [
            30.368825815403078,
            60.005336733126086
          ],
          [
            30.368825219299325,
            60.00533594796241
          ],
          [
            30.368824593832002,
            60.00533512989661
          ],
          [
            30.368823962125912,
            60.00533430726665
          ],
          [
            30.36882335077469,
            60.00533351213583
          ],
          [
            30.368822771207693,
            60.005332760887875
          ],
          [
            30.368822231994766,
            60.005332063868906
          ],
          [
            30.368826537213792,
            60.005327425679795
          ],
          [
            30.368826535882327,
            60.00532742396876
          ],
          [
            30.368826516163956,
            60.005327398656455
          ],
          [
            30.368826457992295,
            60.00532732405751
          ],
          [
            30.36882635941877,
            60.005327197611095
          ],
          [
            30.368826224834596,
            60.00532702512126
          ],
          [
            30.368826053104655,
            60.00532680560514
          ],
          [
            30.36882584708589,
            60.00532654173163
          ],
          [
            30.36882561476977,
            60.00532624429671
          ],
          [
            30.368825360462573,
            60.00532591938641
          ],
          [
            30.368831340209002,
            60.00532247555415
          ],
          [
            30.368830756589183,
            60.005321726926695
          ],
          [
            30.36883019447266,
            60.00532100542237
          ],
          [
            30.36882966637368,
            60.00532032393915
          ],
          [
            30.36882917954179,
            60.0053196953587
          ],
          [
            30.36882873775307,
            60.00531912547073
          ],
          [
            30.368828344543772,
            60.005318616268276
          ],
          [
            30.36882800216882,
            60.00531817332892
          ],
          [
            30.36882769706752,
            60.005317778664086
          ],
          [
            30.368827385503252,
            60.005317374332876
          ],
          [
            30.36883485364465,
            60.005314568488075
          ],
          [
            30.368834135990195,
            60.00531363902994
          ],
          [
            30.368833408919663,
            60.005312695693206
          ],
          [
            30.368832672223768,
            60.00531174141523
          ],
          [
            30.368831940349327,
            60.0053107934134
          ],
          [
            30.36883120126927,
            60.005309834106455
          ],
          [
            30.368830455347112,
            60.005308868495575
          ],
          [
            30.368829711746574,
            60.005307905289335
          ],
          [
            30.368828960251,
            60.0053069312486
          ],
          [
            30.36882820446976,
            60.00530595352904
          ],
          [
            30.368836363841037,
            60.005303521543205
          ],
          [
            30.368836911315814,
            60.005304231660496
          ],
          [
            30.368837457592956,
            60.00530493856075
          ],
          [
            30.368838001598718,
            60.00530564466405
          ],
          [
            30.36883854017947,
            60.005306343264195
          ],
          [
            30.36883907661481,
            60.005307038040414
          ],
          [
            30.368839609223663,
            60.00530773032992
          ],
          [
            30.36884013613014,
            60.00530841411802
          ],
          [
            30.368840657154465,
            60.005309091021964
          ],
          [
            30.368841184439308,
            60.005309776052435
          ],
          [
            30.368850209160286,
            60.00530882438833
          ],
          [
            30.36884963993945,
            60.005308085096104
          ],
          [
            30.368849070585323,
            60.00530734637425
          ],
          [
            30.36884849759232,
            60.00530660368351
          ],
          [
            30.368847922410826,
            60.00530585594283
          ],
          [
            30.368847344679036,
            60.00530510536243
          ],
          [
            30.3688467619862,
            60.00530434978395
          ],
          [
            30.368846175643235,
            60.005303588413824
          ],
          [
            30.368845589142612,
            60.00530282701718
          ],
          [
            30.368845003344607,
            60.005302066367626
          ],
          [
            30.368852925134686,
            60.00530002312028
          ],
          [
            30.36885292509878,
            60.00530002307359
          ],
          [
            30.368852923693296,
            60.00530002124507
          ],
          [
            30.368852918396986,
            60.00530001435296
          ],
          [
            30.36885291034325,
            60.005300003889246
          ],
          [
            30.368852900934215,
            60.0052999916306
          ],
          [
            30.36885289040733,
            60.005299977939515
          ],
          [
            30.368852878890166,
            60.00529996297838
          ],
          [
            30.368852862973327,
            60.00529994224797
          ],
          [
            30.36885284457102,
            60.005299918336696
          ],
          [
            30.368860666251408,
            60.005298733419274
          ],
          [
            30.368860664741344,
            60.00529873145308
          ],
          [
            30.368860661337006,
            60.00529872703226
          ],
          [
            30.368860660259333,
            60.005298725629295
          ],
          [
            30.368860661313075,
            60.00529872700122
          ],
          [
            30.368860661337987,
            60.00529872703355
          ],
          [
            30.368860661161342,
            60.00529872680365
          ],
          [
            30.368860660614104,
            60.00529872609147
          ],
          [
            30.36886065831194,
            60.00529872310339
          ],
          [
            30.36886065573123,
            60.00529871974421
          ],
          [
            30.368867867295297,
            60.0052976499257
          ],
          [
            30.3688678667148,
            60.00529764917189
          ],
          [
            30.368867865318748,
            60.005297647353665
          ],
          [
            30.368867864551635,
            60.00529764635704
          ],
          [
            30.36886786286407,
            60.00529764416694
          ],
          [
            30.368867857224114,
            60.005297636823954
          ],
          [
            30.368867848408442,
            60.00529762534159
          ],
          [
            30.36886783572418,
            60.005297608829906
          ],
          [
            30.368867818897705,
            60.0052975869547
          ],
          [
            30.368867800170918,
            60.005297562516446
          ],
          [
            30.36887442489077,
            60.00529656535124
          ],
          [
            30.368874424025293,
            60.00529656422615
          ],
          [
            30.368874420714835,
            60.00529655990998
          ],
          [
            30.368874416171497,
            60.00529655399298
          ],
          [
            30.368874412640224,
            60.00529654940444
          ],
          [
            30.368874408559442,
            60.00529654407925
          ],
          [
            30.36887440457858,
            60.0052965388942
          ],
          [
            30.368874400585362,
            60.005296533701575
          ],
          [
            30.36887439428276,
            60.00529652547965
          ],
          [
            30.36887438727627,
            60.005296516345844
          ],
          [
            30.368874375653093,
            60.005296501222986
          ],
          [
            30.36887435786935,
            60.0052964780037
          ],
          [
            30.368874338835656,
            60.00529645317454
          ],
          [
            30.368874319228723,
            60.005296427681806
          ],
          [
            30.36887429768923,
            60.0052963995478
          ],
          [
            30.368874276364803,
            60.00529637172005
          ],
          [
            30.368874254781794,
            60.00529634357548
          ],
          [
            30.36887423567057,
            60.00529631869601
          ],
          [
            30.368874220215336,
            60.005296298718605
          ],
          [
            30.368874203210364,
            60.00529627674935
          ],
          [
            30.368874183141326,
            60.005296250703275
          ],
          [
            30.368874163296642,
            60.00529622447952
          ],
          [
            30.36887414728299,
            60.00529620362113
          ],
          [
            30.368874134984146,
            60.00529618767683
          ],
          [
            30.368874126902956,
            60.00529617719668
          ],
          [
            30.36887412155671,
            60.005296170263506
          ],
          [
            30.368874114380063,
            60.00529616094432
          ],
          [
            30.36887410583506,
            60.00529614986683
          ],
          [
            30.368874099183124,
            60.00529614122915
          ],
          [
            30.368874090917295,
            60.0052961303149
          ],
          [
            30.368874080745798,
            60.00529611702077
          ],
          [
            30.3688740719809,
            60.00529610548149
          ],
          [
            30.36887406393313,
            60.00529609490864
          ],
          [
            30.368874055265763,
            60.00529608354583
          ],
          [
            30.368874046439597,
            60.0052960719277
          ],
          [
            30.368874037185133,
            60.00529605980185
          ],
          [
            30.368874026263807,
            60.00529604545029
          ],
          [
            30.368874012810213,
            60.005296027844835
          ],
          [
            30.368873996369345,
            60.0052960062822
          ],
          [
            30.36887397871182,
            60.005295983100076
          ],
          [
            30.368873960727083,
            60.005295959582284
          ],
          [
            30.368873941753765,
            60.00529593468182
          ],
          [
            30.3688739219459,
            60.005295908748366
          ],
          [
            30.36887390215308,
            60.00529588286508
          ],
          [
            30.36887387995446,
            60.00529585414445
          ],
          [
            30.368873856832327,
            60.00529582442022
          ],
          [
            30.368873833242773,
            60.005295794115135
          ],
          [
            30.368873809132072,
            60.0052957623075
          ],
          [
            30.36887378500617,
            60.005295730573195
          ],
          [
            30.368873760573614,
            60.00529569846269
          ],
          [
            30.36887373647896,
            60.00529566706971
          ],
          [
            30.36887371277644,
            60.005295636230755
          ],
          [
            30.368873688464976,
            60.00529560461706
          ],
          [
            30.368873662960137,
            60.005295571582934
          ],
          [
            30.36887363793297,
            60.0052955386719
          ],
          [
            30.368873612142405,
            60.00529550492217
          ],
          [
            30.36887358500408,
            60.005295469427345
          ],
          [
            30.368873558536325,
            60.005295434553645
          ],
          [
            30.368873533922734,
            60.0052954021924
          ],
          [
            30.368873511262844,
            60.005295372534555
          ],
          [
            30.368873489655208,
            60.00529534445997
          ],
          [
            30.368873468078068,
            60.00529531638067
          ],
          [
            30.3688734460392,
            60.00529528790146
          ],
          [
            30.36887342449022,
            60.005295260156
          ],
          [
            30.368873403031714,
            60.00529523248615
          ],
          [
            30.36887338071128,
            60.0052952033172
          ],
          [
            30.368873357966084,
            60.00529517398793
          ],
          [
            30.368873335076902,
            60.00529514433349
          ],
          [
            30.368873311627734,
            60.00529511381557
          ]
        ]
      }
    },
    {
      "type": "Feature",
      "properties": {
        "role": "endpoint",
        "status": "PROBABLE",
        "confidence": 0.6174999999999999
      },
      "geometry": {
        "type": "Point",
        "coordinates": [
          30.368790187313163,
          60.00528549824991
        ]
      }
    },
    {
      "type": "Feature",
      "properties": {
        "role": "confidence_polygon",
        "status": "PROBABLE"
      },
      "geometry": {
        "type": "Polygon",
        "coordinates": [
          [
            [
              30.36892507666451,
              60.0052855167059
            ],
            [
              30.36892391787423,
              60.005294333264004
            ],
            [
              30.368920470915157,
              60.00530299865364
            ],
            [
              30.368914794764034,
              60.00531136460747
            ],
            [
              30.36890698653991,
              60.00531928798136
            ],
            [
              30.368897179842534,
              60.00532663320389
            ],
            [
              30.36888554246655,
              60.00533327459581
            ],
            [
              30.36887227353044,
              60.005339098520594
            ],
            [
              30.368857600069607,
              60.00534400532885
            ],
            [
              30.368841773151747,
              60.00534791106328
            ],
            [
              30.36882506358092,
              60.00535074889537
            ],
            [
              30.36880775726399,
              60.00535247026868
            ],
            [
              30.36879015031851,
              60.00535304572993
            ],
            [
              30.368772544006028,
              60.00535246543273
            ],
            [
              30.368755239577236,
              60.00535073930616
            ],
            [
              30.368738533117412,
              60.00534789688494
            ],
            [
              30.36872271048016,
              60.00534398680395
            ],
            [
              30.368708042396317,
              60.00533907596611
            ],
            [
              30.368694779841547,
              60.005333248397655
            ],
            [
              30.368683149742093,
              60.00532660381033
            ],
            [
              30.36867335109193,
              60.005319255895344
            ],
            [
              30.368665551547984,
              60.00531133037797
            ],
            [
              30.368659884561488,
              60.005302962866345
            ],
            [
              30.368656447094722,
              60.00529429653123
            ],
            [
              30.368655297961975,
              60.00528547965617
            ],
            [
              30.368656456823416,
              60.00527666310043
            ],
            [
              30.368659903848805,
              60.00526799771762
            ],
            [
              30.368665580056867,
              60.005259631774706
            ],
            [
              30.368673388324673,
              60.005251708415
            ],
            [
              30.36868319504947,
              60.00524436320901
            ],
            [
              30.36869483243479,
              60.005237721834824
            ],
            [
              30.36870810136149,
              60.00523189792778
            ],
            [
              30.36872277479481,
              60.00522699113604
            ],
            [
              30.36873860166893,
              60.00522308541578
            ],
            [
              30.36875531118276,
              60.00522024759458
            ],
            [
              30.36877261743336,
              60.005218526228084
            ],
            [
              30.368790224307645,
              60.005217950769165
            ],
            [
              30.368807830548953,
              60.005218531064024
            ],
            [
              30.36882513491143,
              60.00522025718374
            ],
            [
              30.368841841314318,
              60.00522309959407
            ],
            [
              30.368857663907892,
              60.005227009660864
            ],
            [
              30.368872331964308,
              60.00523192048216
            ],
            [
              30.368885594509745,
              60.005237748032904
            ],
            [
              30.368897224618625,
              60.005244392602485
            ],
            [
              30.368907023296288,
              60.005251740500945
            ],
            [
              30.36891482288398,
              60.00525966600416
            ],
            [
              30.368920489927444,
              60.00526803350489
            ],
            [
              30.368923927460568,
              60.005276699833175
            ],
            [
              30.36892507666451,
              60.0052855167059
            ]
          ]
        ]
      }
    }
  ]
}