{
  "type": "FeatureCollection",
  "features": [
    {
      "type": "Feature",
      "properties": {
        "name": "road_particle_filter",
        "point_count": 462,
        "segment_count": 12,
        "description": "Probabilistic estimate of the driven route. Not a measured track and not an exact path.",
        "algorithm": "road_particle_filter",
        "seed": 42
      },
      "geometry": {
        "type": "MultiLineString",
        "coordinates": [
          [
            [
              30.386630901593367,
              59.99539425903791
            ],
            [
              30.386563568200987,
              59.995403013794856
            ],
            [
              30.386529997881794,
              59.99540737862773
            ],
            [
              30.38651287548236,
              59.99540960488856
            ],
            [
              30.386507646397384,
              59.99541028477567
            ],
            [
              30.386497168919885,
              59.99541164705954
            ],
            [
              30.38649462744605,
              59.99541197750237
            ],
            [
              30.386491627362254,
              59.99541236757365
            ],
            [
              30.386486535927272,
              59.99541302956254
            ],
            [
              30.386478686453312,
              59.99541405015149
            ],
            [
              30.38647218630758,
              59.99541489530032
            ],
            [
              30.386461111726398,
              59.995416335216326
            ],
            [
              30.386454812993232,
              59.995417154176565
            ],
            [
              30.386444789836236,
              59.99541845738504
            ],
            [
              30.386438664645013,
              59.995419253780526
            ],
            [
              30.386425662081365,
              59.995420944368774
            ],
            [
              30.38641798509094,
              59.9954219425274
            ],
            [
              30.386411399036092,
              59.995422798842675
            ],
            [
              30.38640446496665,
              59.99542370040627
            ],
            [
              30.38639693370659,
              59.99542467961572
            ],
            [
              30.386393020708457,
              59.995425188380956
            ],
            [
              30.386387969606357,
              59.99542584512148
            ],
            [
              30.38638329157147,
              59.99542645335587
            ],
            [
              30.386389878319164,
              59.99542559695208
            ],
            [
              30.38638299562747,
              59.99542649183427
            ],
            [
              30.38637717019347,
              59.99542724925233
            ],
            [
              30.386393449708816,
              59.99542513260264
            ],
            [
              30.3864044045921,
              59.99542370825611
            ],
            [
              30.38641533060062,
              59.99542228766285
            ],
            [
              30.386415983153473,
              59.99542220281827
            ],
            [
              30.38643202915264,
              59.99542011652484
            ],
            [
              30.38643572111277,
              59.995419636497566
            ],
            [
              30.386436787653473,
              59.99541949782632
            ],
            [
              30.386438316927876,
              59.99541929899058
            ],
            [
              30.386433027887087,
              59.995419986669766
            ],
            [
              30.386438646630594,
              59.99541925612274
            ],
            [
              30.386438968486164,
              59.9954192142752
            ],
            [
              30.38644035694591,
              59.995419033748114
            ],
            [
              30.38644189567329,
              59.99541883368326
            ],
            [
              30.386438469712513,
              59.99541927912559
            ],
            [
              30.38644284385258,
              59.99541871040128
            ],
            [
              30.386441724099395,
              59.995418855991254
            ],
            [
              30.386436084035225,
              59.99541958931051
            ],
            [
              30.38642553005593,
              59.995420961534656
            ],
            [
              30.386412630053936,
              59.995422638786444
            ],
            [
              30.386392108076873,
              59.99542530704064
            ],
            [
              30.38649809606653,
              59.995337851957615
            ],
            [
              30.38649858847814,
              59.99533767646961
            ],
            [
              30.38649957854232,
              59.9953372313485
            ],
            [
              30.386484492686737,
              59.995341312538095
            ],
            [
              30.386466647766614,
              59.99534568864376
            ],
            [
              30.38644671711,
              59.99535038961704
            ]
          ],
          [
            [
              30.38556613209753,
              59.99553269689971
            ],
            [
              30.385459973513203,
              59.99554649875897
            ],
            [
              30.385359616222186,
              59.995559546293094
            ],
            [
              30.385268037886675,
              59.995571452392454
            ],
            [
              30.385102708710278,
              59.99559268114993
            ],
            [
              30.384977006987892,
              59.995608660139084
            ],
            [
              30.38483313693852,
              59.995626948489296
            ],
            [
              30.38469959384378,
              59.99564392394814
            ],
            [
              30.38457153599508,
              59.99566020200148
            ],
            [
              30.38444265630552,
              59.995676584381464
            ],
            [
              30.384329637438892,
              59.99569095051598
            ],
            [
              30.38422135818699,
              59.9957047140828
            ],
            [
              30.384135648951734,
              59.99571560866392
            ],
            [
              30.384049549846385,
              59.99572655273855
            ],
            [
              30.383985237908167,
              59.995734727400624
            ],
            [
              30.383916946567105,
              59.99574340784416
            ],
            [
              30.3838416705283,
              59.99575297605938
            ],
            [
              30.38379197307321,
              59.99575929299574
            ],
            [
              30.383740988975887,
              59.99576577345251
            ],
            [
              30.383687391180146,
              59.995772586105744
            ],
            [
              30.38362622210962,
              59.99578036109075
            ],
            [
              30.38358502513186,
              59.99578559747541
            ],
            [
              30.383558483779087,
              59.99578897103394
            ],
            [
              30.383564984296495,
              59.99578814478135
            ],
            [
              30.383556912758664,
              59.995789170719476
            ],
            [
              30.38356828161928,
              59.99578772567283
            ],
            [
              30.383573416454922,
              59.99578707300573
            ],
            [
              30.383584673893157,
              59.995785642119905
            ],
            [
              30.3835867395476,
              59.9957853795631
            ],
            [
              30.383582703288237,
              59.99578589259533
            ],
            [
              30.38359562696313,
              59.99578424992003
            ],
            [
              30.383598961805685,
              59.99578382604162
            ],
            [
              30.38359929247068,
              59.995783784012126
            ],
            [
              30.38360143327491,
              59.99578351190308
            ],
            [
              30.383601463387404,
              59.9957835080756
            ],
            [
              30.383601121716115,
              59.995783551504076
            ],
            [
              30.383593278300083,
              59.99578454844905
            ],
            [
              30.383591814345742,
              59.995784734526325
            ],
            [
              30.383590751466254,
              59.99578486962458
            ],
            [
              30.383587473508612,
              59.99578528627233
            ],
            [
              30.383583272326643,
              59.99578582026721
            ],
            [
              30.38357887490959,
              59.99578637920456
            ],
            [
              30.383572690557664,
              59.99578716527146
            ],
            [
              30.383564823890435,
              59.99578816516988
            ],
            [
              30.38355868500361,
              59.995788945457164
            ],
            [
              30.383551124377526,
              59.995789906455116
            ],
            [
              30.383542685776472,
              59.995790979048024
            ],
            [
              30.383536377038936,
              59.99579178092311
            ],
            [
              30.383531862472722,
              59.99579235474898
            ],
            [
              30.38352349101363,
              59.995793418806386
            ],
            [
              30.383517701590325,
              59.99579415467285
            ],
            [
              30.383511743740286,
              59.99579491194695
            ],
            [
              30.383504192891017,
              59.99579587169919
            ],
            [
              30.383498533858454,
              59.99579659099135
            ],
            [
              30.38349125997527,
              59.99579751553894
            ],
            [
              30.383485140350633,
              59.995798293374044
            ],
            [
              30.3834738563614,
              59.99579972762506
            ],
            [
              30.383471911946835,
              59.99579997476968
            ],
            [
              30.383467289118965,
              59.99580056235364
            ],
            [
              30.383462465621925,
              59.99580117544344
            ],
            [
              30.383459991304463,
              59.99580148994109
            ],
            [
              30.38345491411637,
              59.99580213527591
            ],
            [
              30.383455446398276,
              59.99580206762036
            ],
            [
              30.383448896639994,
              59.99580290012559
            ],
            [
              30.383739362778954,
              59.99578840157492
            ],
            [
              30.383783389603988,
              59.995801002980286
            ],
            [
              30.383793036059007,
              59.99580327964385
            ],
            [
              30.38361961865052,
              59.99590493277809
            ],
            [
              30.383594345414803,
              59.99590433549311
            ],
            [
              30.383575790987244,
              59.9959008078483
            ]
          ],
          [
            [
              30.383285777927554,
              59.995823633166715
            ],
            [
              30.3832788224712,
              59.99582451722798
            ],
            [
              30.383267552051226,
              59.99582594973439
            ],
            [
              30.383259509092163,
              59.99582697201955
            ],
            [
              30.383250272708544,
              59.99582814599198
            ],
            [
              30.38324537707842,
              59.99582876824117
            ],
            [
              30.38323588727141,
              59.99582997442332
            ],
            [
              30.38323074505892,
              59.99583062801322
            ],
            [
              30.383224425967832,
              59.99583143118744
            ],
            [
              30.38321437053792,
              59.9958327092601
            ],
            [
              30.38321174820157,
              59.9958330425661
            ],
            [
              30.38320677958865,
              59.99583367408997
            ],
            [
              30.383201071922834,
              59.99583439954915
            ],
            [
              30.383194241960723,
              59.99583526765477
            ],
            [
              30.383189688015435,
              59.99583584647261
            ],
            [
              30.383186798573142,
              59.99583621372788
            ],
            [
              30.38318022574625,
              59.99583704915014
            ],
            [
              30.3831726691446,
              59.99583800961212
            ],
            [
              30.38316840330528,
              59.99583855181018
            ],
            [
              30.383164269502657,
              59.99583907722593
            ],
            [
              30.38316249570879,
              59.995839302679144
            ],
            [
              30.38315799935275,
              59.995839874176035
            ],
            [
              30.38315481776765,
              59.99584027856249
            ],
            [
              30.383151090611303,
              59.99584075229215
            ],
            [
              30.38314561754518,
              59.995841447930516
            ],
            [
              30.3831460791882,
              59.99584138925471
            ],
            [
              30.383146297550624,
              59.99584136150038
            ],
            [
              30.38314520265039,
              59.995841500664525
            ],
            [
              30.383147408917573,
              59.9958412202433
            ],
            [
              30.383147350744707,
              59.995841227637186
            ],
            [
              30.383143246361737,
              59.995841749312895
            ],
            [
              30.383149283894756,
              59.9958409819297
            ],
            [
              30.38315038637802,
              59.99584084180173
            ],
            [
              30.38315213781887,
              59.995840619189806
            ],
            [
              30.38315289996104,
              59.995840522319895
            ],
            [
              30.383153637785192,
              59.99584042854084
            ],
            [
              30.38314753659356,
              59.995841204015406
            ],
            [
              30.383150192845587,
              59.9958408664001
            ],
            [
              30.383147005460643,
              59.995841271523524
            ],
            [
              30.38314605515238,
              59.995841392309714
            ],
            [
              30.38314136617327,
              59.99584198828876
            ],
            [
              30.38314225552737,
              59.995841875250015
            ],
            [
              30.383136020231326,
              59.995842667768926
            ],
            [
              30.383126095858707,
              59.99584392917636
            ],
            [
              30.38312791321409,
              59.99584369818695
            ],
            [
              30.38312519588379,
              59.99584404356492
            ],
            [
              30.383122354984344,
              59.99584440464869
            ],
            [
              30.383122906081358,
              59.99584433460319
            ],
            [
              30.383118275367277,
              59.99584492317573
            ],
            [
              30.383113673170136,
              59.99584550812351
            ],
            [
              30.383114995003027,
              59.99584534011612
            ],
            [
              30.383117563556958,
              59.99584501364814
            ],
            [
              30.383117373106806,
              59.99584503785472
            ],
            [
              30.38312150829793,
              59.99584451226414
            ],
            [
              30.383117161049455,
              59.9958450648076
            ],
            [
              30.383130176451075,
              59.995843410525076
            ],
            [
              30.38313503277632,
              59.995842793276445
            ],
            [
              30.38313811851249,
              59.99584240107314
            ],
            [
              30.383142267195957,
              59.995841873766906
            ],
            [
              30.383135720765587,
              59.99584270583163
            ],
            [
              30.38313569600527,
              59.99584270897872
            ],
            [
              30.38312774487764,
              59.99584371958284
            ],
            [
              30.383113399463497,
              59.99584554291213
            ],
            [
              30.38309799756599,
              59.995847500520476
            ],
            [
              30.38308196881475,
              59.995849537800915
            ],
            [
              30.383287332511426,
              59.995820053887584
            ],
            [
              30.383287516286916,
              59.99581985605468
            ],
            [
              30.383287699556412,
              59.995819657510616
            ],
            [
              30.38327642146567,
              59.99582551645113
            ],
            [
              30.383268974743814,
              59.995827490164174
            ],
            [
              30.383260990075147,
              59.99582936584552
            ]
          ],
          [
            [
              30.382466196954717,
              59.995928675984
            ],
            [
              30.382397105572036,
              59.99593759782239
            ],
            [
              30.382311661589586,
              59.995948631231485
            ],
            [
              30.382310463865885,
              59.99598368329022
            ],
            [
              30.382294417854627,
              59.99598526568094
            ],
            [
              30.382276466817743,
              59.99598683054505
            ],
            [
              30.38195559639139,
              59.99602658119915
            ],
            [
              30.381633441519213,
              59.99606569473975
            ],
            [
              30.38130168415157,
              59.99610671927156
            ]
          ],
          [
            [
              30.380427344998363,
              59.99621778792796
            ],
            [
              30.380189880814854,
              59.99625770068428
            ],
            [
              30.379928117014327,
              59.996291336644234
            ],
            [
              30.379659397343165,
              59.996325792944745
            ],
            [
              30.379396125379866,
              59.9963595500075
            ],
            [
              30.37911178083839,
              59.99639641098646
            ],
            [
              30.378833989230174,
              59.996433888879466
            ],
            [
              30.378538064804705,
              59.99647381240173
            ],
            [
              30.378238687932978,
              59.99651420092494
            ],
            [
              30.377911878581244,
              59.9965582894391
            ],
            [
              30.37760423444387,
              59.99659979160618
            ],
            [
              30.377256492919415,
              59.996647276906245
            ],
            [
              30.376885687266167,
              59.996698947202766
            ],
            [
              30.376548615870245,
              59.996747188633236
            ],
            [
              30.37621230099389,
              59.99679532079355
            ],
            [
              30.37587979929441,
              59.996842906246286
            ],
            [
              30.375529799745227,
              59.996892994823774
            ],
            [
              30.37517862546364,
              59.996942827142
            ],
            [
              30.374838288764444,
              59.996990123582236
            ],
            [
              30.374471558307853,
              59.997041086818214
            ],
            [
              30.374120707335475,
              59.99708984223828
            ],
            [
              30.37377223732792,
              59.99713826572672
            ],
            [
              30.37309039149014,
              59.99722255121294
            ],
            [
              30.372634081143076,
              59.997284865029215
            ],
            [
              30.372176193048986,
              59.99734772904624
            ],
            [
              30.372097819746873,
              59.99735896739196
            ],
            [
              30.371914836724777,
              59.997387701964215
            ],
            [
              30.37167855671469,
              59.9974195077987
            ]
          ],
          [
            [
              30.371760804414098,
              59.997418536671304
            ],
            [
              30.371469678784905,
              59.997459823789015
            ],
            [
              30.371206774608424,
              59.997497107931245
            ],
            [
              30.37096190885997,
              59.997531833380975
            ],
            [
              30.37071705403938,
              59.99756655675415
            ],
            [
              30.37049727287911,
              59.99759648646101
            ],
            [
              30.370277583991104,
              59.9976253210611
            ],
            [
              30.370049449401424,
              59.99765526373621
            ],
            [
              30.36982097910158,
              59.99768525002404
            ],
            [
              30.369604658666812,
              59.997713641251096
            ],
            [
              30.369395243007048,
              59.99774112586897
            ],
            [
              30.36919175125997,
              59.99776783071948
            ],
            [
              30.368987426113303,
              59.99779306476937
            ],
            [
              30.368784973731785,
              59.99781806718399
            ],
            [
              30.36857234685323,
              59.99784432575139
            ],
            [
              30.36838137535539,
              59.997867909638714
            ],
            [
              30.368207749511427,
              59.997889351168205
            ],
            [
              30.368037965402774,
              59.99791031802371
            ],
            [
              30.367879413328588,
              59.99792989759993
            ],
            [
              30.367720745699007,
              59.99794930883705
            ],
            [
              30.36758278390247,
              59.99796498915155
            ],
            [
              30.36744788145574,
              59.997980321596025
            ],
            [
              30.367318947770467,
              59.997994975514125
            ],
            [
              30.367218380625005,
              59.998006405345535
            ],
            [
              30.367114901134098,
              59.9980181660877
            ],
            [
              30.36703617760282,
              59.998027113183845
            ],
            [
              30.36674666464883,
              59.99809909595422
            ],
            [
              30.366592245047798,
              59.99811981866149
            ],
            [
              30.366458873759925,
              59.998137788335704
            ],
            [
              30.366648160205337,
              59.99811247426693
            ],
            [
              30.366770113660067,
              59.99809556189966
            ],
            [
              30.366864673147234,
              59.998082616764606
            ]
          ],
          [
            [
              30.367137945022375,
              59.998015547091164
            ],
            [
              30.367128327150194,
              59.99801664018735
            ],
            [
              30.367119177224637,
              59.998017680099466
            ],
            [
              30.367110503833203,
              59.998018665851625
            ],
            [
              30.367102162531754,
              59.99801961386035
            ],
            [
              30.367094200815195,
              59.99802051872783
            ],
            [
              30.367085505605953,
              59.99802150695782
            ],
            [
              30.36707358255762,
              59.998022862037935
            ],
            [
              30.36706488483853,
              59.99802385055167
            ],
            [
              30.36705560192795,
              59.99802490557293
            ],
            [
              30.367047245702,
              59.99802585527405
            ],
            [
              30.36703914629968,
              59.9980267757861
            ],
            [
              30.36703119086198,
              59.99802767993577
            ],
            [
              30.36702187313955,
              59.99802873891085
            ],
            [
              30.36701283778723,
              59.99802976579338
            ],
            [
              30.367003640637122,
              59.99803081106384
            ],
            [
              30.366993807455582,
              59.99803192861945
            ],
            [
              30.36698578759112,
              59.99803284008829
            ],
            [
              30.366977115791915,
              59.99803382564983
            ],
            [
              30.36696884456596,
              59.9980347656851
            ],
            [
              30.366960959913662,
              59.998035661785266
            ],
            [
              30.366952795443726,
              59.998036589686485
            ],
            [
              30.366945116043976,
              59.998037462458406
            ],
            [
              30.366937269557933,
              59.998038354219375
            ],
            [
              30.366930052419725,
              59.99803917445387
            ],
            [
              30.366923090975234,
              59.99803996562813
            ],
            [
              30.3669167451266,
              59.99804068683903
            ],
            [
              30.366908224343963,
              59.99804165523243
            ],
            [
              30.366903778760264,
              59.998042160476146
            ],
            [
              30.3668987617223,
              59.99804273066585
            ],
            [
              30.36689319124739,
              59.99804336375376
            ],
            [
              30.366888093313058,
              59.998043943136935
            ],
            [
              30.366883175029038,
              59.99804450210252
            ],
            [
              30.366878631442813,
              59.998045018483346
            ],
            [
              30.366869521180917,
              59.99804605386859
            ],
            [
              30.366867256305333,
              59.998046311272574
            ],
            [
              30.36686500280456,
              59.99804656738379
            ],
            [
              30.36686341912682,
              59.998046747369315
            ],
            [
              30.366862686687522,
              59.99804683061129
            ],
            [
              30.366857030101947,
              59.99804747348403
            ],
            [
              30.36686171360545,
              59.998046941202404
            ],
            [
              30.366864831719152,
              59.9980465868277
            ],
            [
              30.366868689007067,
              59.998046148445475
            ],
            [
              30.36686669899378,
              59.998046374611256
            ],
            [
              30.366872970119868,
              59.99804566189526
            ],
            [
              30.366872664385493,
              59.998045696642095
            ],
            [
              30.366879049390707,
              59.998044970983365
            ],
            [
              30.366882878623734,
              59.998044535789155
            ],
            [
              30.36688028849911,
              59.9980448301581
            ],
            [
              30.36688391931875,
              59.998044417513626
            ],
            [
              30.366884634118758,
              59.99804433627622
            ],
            [
              30.366873888868092,
              59.99804555747912
            ],
            [
              30.366859845836284,
              59.998047153474964
            ],
            [
              30.36709096980612,
              59.99807496453009
            ],
            [
              30.367083759266496,
              59.998075940899426
            ],
            [
              30.36705745763792,
              59.99807915359869
            ],
            [
              30.36699647800124,
              59.99808640844996
            ],
            [
              30.36691218060394,
              59.99809533616329
            ],
            [
              30.366803163667367,
              59.99810729731639
            ]
          ],
          [
            [
              30.366200566896634,
              59.99812235944048
            ],
            [
              30.366159233896212,
              59.99812713978259
            ],
            [
              30.36612055121056,
              59.998131613591255
            ],
            [
              30.36609147807513,
              59.998134976008416
            ],
            [
              30.366065758703243,
              59.99813795054435
            ],
            [
              30.36603396996641,
              59.99814162701604
            ],
            [
              30.36598428872658,
              59.998147372797426
            ],
            [
              30.365947065354042,
              59.998151677776306
            ],
            [
              30.365896638674272,
              59.99815750973316
            ],
            [
              30.365856786583436,
              59.998162118700364
            ],
            [
              30.36581080212914,
              59.99816743687009
            ],
            [
              30.365776786737523,
              59.998171370788725
            ],
            [
              30.36574366642064,
              59.99817519711947
            ],
            [
              30.36571818923881,
              59.9981781196896
            ],
            [
              30.365684929012957,
              59.9981818541062
            ],
            [
              30.365661945262605,
              59.99818440962713
            ],
            [
              30.365648966555877,
              59.99818585270371
            ],
            [
              30.365615494663665,
              59.998189574370386
            ],
            [
              30.36555184099794,
              59.99819741714432
            ],
            [
              30.36543210860187,
              59.998218868129115
            ],
            [
              30.36536261759183,
              59.9982404380631
            ],
            [
              30.36530599255938,
              59.99825913540673
            ],
            [
              30.36548835189135,
              59.998263075693345
            ],
            [
              30.3654880142371,
              59.99826378528272
            ],
            [
              30.36548801456724,
              59.99826378642279
            ],
            [
              30.365469938389463,
              59.99827551419107
            ],
            [
              30.365445637861555,
              59.99829580908643
            ],
            [
              30.365413574912036,
              59.99833130888587
            ]
          ],
          [
            [
              30.36505959916809,
              59.99885113546567
            ],
            [
              30.365068015097982,
              59.99891833703035
            ],
            [
              30.365082748806817,
              59.99897175802994
            ],
            [
              30.365042086355782,
              59.99910113263149
            ],
            [
              30.365027537261554,
              59.99920537849763
            ],
            [
              30.365012707563075,
              59.999308471305476
            ],
            [
              30.365018742188873,
              59.999282402779016
            ],
            [
              30.365023252731934,
              59.99925194128468
            ],
            [
              30.36502939015288,
              59.99921785741924
            ]
          ],
          [
            [
              30.36506615519567,
              59.998903485653365
            ],
            [
              30.36506677080178,
              59.998908401288524
            ],
            [
              30.36506773114316,
              59.99891606964325
            ],
            [
              30.365068904579747,
              59.9989254395647
            ],
            [
              30.365072252315862,
              59.9989373372843
            ],
            [
              30.36510008772634,
              59.998949170125655
            ],
            [
              30.365100117292688,
              59.998948628109716
            ],
            [
              30.365100178869078,
              59.99894812215548
            ],
            [
              30.365118955691948,
              59.99900030968389
            ],
            [
              30.36513638433532,
              59.99904933169818
            ],
            [
              30.365157095077787,
              59.99910365969831
            ]
          ],
          [
            [
              30.36540998228929,
              59.99982740188973
            ],
            [
              30.365459771832715,
              59.99995012577932
            ],
            [
              30.36550914490456,
              60.00007182220954
            ],
            [
              30.36555919906868,
              60.00019519648573
            ],
            [
              30.365611083526638,
              60.00032308110644
            ],
            [
              30.365664681625443,
              60.00045433051962
            ],
            [
              30.365724760058114,
              60.00058668241879
            ],
            [
              30.365789280170013,
              60.00072869765205
            ],
            [
              30.365854024264024,
              60.00087120463416
            ],
            [
              30.365919306185265,
              60.001013333026904
            ],
            [
              30.36598960422805,
              60.001166140183486
            ],
            [
              30.36605770985925,
              60.00131420596192
            ],
            [
              30.366154829214768,
              60.001474086392854
            ],
            [
              30.366234669084115,
              60.001602632083774
            ],
            [
              30.36632505349995,
              60.001742595106336
            ],
            [
              30.366413884656193,
              60.001879909847126
            ],
            [
              30.366504182323173,
              60.00201949028209
            ],
            [
              30.36660193071277,
              60.0021580637179
            ],
            [
              30.366694805906647,
              60.00228950205458
            ],
            [
              30.366789814784372,
              60.00242395886273
            ],
            [
              30.366884814362496,
              60.00255840134801
            ],
            [
              30.366977651621994,
              60.00268978261823
            ],
            [
              30.367071107514054,
              60.00282203824301
            ],
            [
              30.36716437969708,
              60.00295403276774
            ],
            [
              30.367257297988363,
              60.00308552536735
            ],
            [
              30.367342785297694,
              60.0032176861718
            ],
            [
              30.367429908011715,
              60.00335266146809
            ],
            [
              30.36751779174494,
              60.00348881460204
            ],
            [
              30.3676046012601,
              60.00362330235409
            ],
            [
              30.367692423906544,
              60.00375935850598
            ],
            [
              30.36777950453155,
              60.00389426394359
            ],
            [
              30.367866387606462,
              60.00402886218155
            ],
            [
              30.36795176890056,
              60.00416113275468
            ],
            [
              30.368035327558918,
              60.00429057866747
            ],
            [
              30.36811713387102,
              60.00441730887824
            ],
            [
              30.368187601447172,
              60.00452647287167
            ],
            [
              30.368271203918944,
              60.00465336041592
            ],
            [
              30.368337418586876,
              60.00475234609288
            ],
            [
              30.368414065932466,
              60.004866927013616
            ],
            [
              30.368494769704263,
              60.004987571021694
            ],
            [
              30.368567131317192,
              60.005095743551905
            ],
            [
              30.368633847810496,
              60.0051954765962
            ],
            [
              30.36869785360107,
              60.00529115687215
            ],
            [
              30.368911475621637,
              60.00551601691223
            ],
            [
              30.369041893000908,
              60.00568280609545
            ],
            [
              30.369182135412508,
              60.0058642251353
            ],
            [
              30.369240399816846,
              60.00593166742575
            ],
            [
              30.36928730391958,
              60.00598698900358
            ],
            [
              30.3693218578756,
              60.006026830794525
            ]
          ],
          [
            [
              30.368722498536123,
              60.00532799766701
            ],
            [
              30.36872532238107,
              60.00533221892206
            ],
            [
              30.36872780656994,
              60.005335932437575
            ],
            [
              30.368730352128956,
              60.005339737692026
            ],
            [
              30.3687327733189,
              60.00534334200193
            ],
            [
              30.368734117860246,
              60.00534531665571
            ],
            [
              30.368734440591854,
              60.0053457906338
            ],
            [
              30.368732764695952,
              60.005343329337904
            ],
            [
              30.368732282347963,
              60.00534262093994
            ],
            [
              30.368731996591215,
              60.005342195932435
            ],
            [
              30.36873254786475,
              60.00534301088983
            ],
            [
              30.36873169977592,
              60.005341752235225
            ],
            [
              30.36873140235366,
              60.00534130763069
            ],
            [
              30.36873235148867,
              60.00534272248309
            ],
            [
              30.36873112547887,
              60.00534089374171
            ],
            [
              30.368731780056706,
              60.00534187224373
            ],
            [
              30.3687328963073,
              60.00534352262824
            ],
            [
              30.36873431933218,
              60.005345612546435
            ],
            [
              30.36873645778532,
              60.005348753174125
            ],
            [
              30.368738936974612,
              60.00535239422133
            ],
            [
              30.36874160094363,
              60.0053563066433
            ],
            [
              30.368744180260325,
              60.005360094740205
            ],
            [
              30.368748411024207,
              60.005366308222435
            ],
            [
              30.368751025263162,
              60.00537014760524
            ],
            [
              30.36875448376674,
              60.0053752269096
            ],
            [
              30.368757911486245,
              60.00538026100157
            ],
            [
              30.368761249584473,
              60.005385163470415
            ],
            [
              30.368763670374804,
              60.005388718742054
            ],
            [
              30.368766302823925,
              60.005392584863515
            ],
            [
              30.36876880888809,
              60.00539626537003
            ],
            [
              30.3687717062752,
              60.005400520588076
            ],
            [
              30.368774654268773,
              60.005404850127576
            ],
            [
              30.368777841750354,
              60.00540953138724
            ],
            [
              30.368780992206478,
              60.005414158268536
            ],
            [
              30.36878388003266,
              60.00541839944016
            ],
            [
              30.368745033238483,
              60.00528439629893
            ],
            [
              30.36874482875923,
              60.00528417404096
            ],
            [
              30.36874462040954,
              60.0052839485305
            ],
            [
              30.36874441135075,
              60.00528372336379
            ],
            [
              30.368744217997357,
              60.00528351670116
            ],
            [
              30.36874401246644,
              60.005283297118
            ],
            [
              30.368743802921287,
              60.00528307456155
            ],
            [
              30.36874359508379,
              60.005282855563465
            ],
            [
              30.36874339146205,
              60.00528264247463
            ]
          ]
        ]
      }
    }
  ]
}