{
  "type": "FeatureCollection",
  "note": "Synthetic test polygons. NOT the official Saint Petersburg paid-parking zones.",
  "features": [
    {
      "type": "Feature",
      "properties": {
        "id": "test-zone-01",
        "name": "Test zone test-zone-01",
        "official": false
      },
      "geometry": {
        "type": "Polygon",
        "coordinates": [
          [
            [
              30.350881022957235,
              59.94880624458177
            ],
            [
              30.355175464919245,
              59.94880650072631
            ],
            [
              30.355175093524167,
              59.95096067815323
            ],
            [
              30.350880372948346,
              59.950960421990274
            ],
            [
              30.350881022957235,
              59.94880624458177
            ]
          ]
        ]
      }
    },
    {
      "type": "Feature",
      "properties": {
        "id": "test-zone-02",
        "name": "Test zone test-zone-02",
        "official": false
      },
      "geometry": {
        "type": "Polygon",
        "coordinates": [
          [
            [
              30.355891205251904,
              59.94880652983126
            ],
            [
              30.361259257772637,
              59.948806624390336
            ],
            [
              30.361259286907963,
              59.95149934607436
            ],
            [
              30.355890799045277,
              59.95149925150679
            ],
            [
              30.355891205251904,
              59.94880652983126
            ]
          ]
        ]
      }
    },
    {
      "type": "Feature",
      "properties": {
        "id": "test-zone-03",
        "name": "Test zone test-zone-03",
        "official": false
      },
      "geometry": {
        "type": "Polygon",
        "coordinates": [
          [
            [
              30.343723712748982,
              59.94862599232958
            ],
            [
              30.349807472445683,
              59.94862664389575
            ],
            [
              30.349806572862335,
              59.951319365611795
            ],
            [
              30.343722319784085,
              59.95131871398713
            ],
            [
              30.343723712748982,
              59.94862599232958
            ]
          ]
        ]
      }
    }
  ]
}