{
  "type": "FeatureCollection",
  "features": [
    {
      "type": "Feature",
      "properties": {
        "role": "trajectory"
      },
      "geometry": {
        "type": "LineString",
        "coordinates": [
          [
            30.344426964891607,
            59.87239576523985
          ],
          [
            30.344426884635247,
            59.8723958344235
          ],
          [
            30.344426803986988,
            59.87239590376811
          ],
          [
            30.34442672148086,
            59.87239597489297
          ],
          [
            30.34442663566157,
            59.8723960488098
          ],
          [
            30.344426548114164,
            59.87239612405569
          ],
          [
            30.344426462602147,
            59.87239619763733
          ],
          [
            30.344426381498803,
            59.87239626753788
          ],
          [
            30.34442631336619,
            59.87239632623574
          ],
          [
            30.344426281463672,
            59.87239635386073
          ],
          [
            30.34442620743856,
            59.872399172682044
          ],
          [
            30.344426169728333,
            59.872399205721834
          ],
          [
            30.34442614520368,
            59.872399227400535
          ],
          [
            30.344426109911346,
            59.87239925889119
          ],
          [
            30.34442604140259,
            59.87239932032057
          ],
          [
            30.344425935123,
            59.87239941631649
          ],
          [
            30.3444258146479,
            59.87239952600892
          ],
          [
            30.344425707361804,
            59.87239962414439
          ],
          [
            30.344425625927524,
            59.872399699351035
          ],
          [
            30.34442557297375,
            59.87239974872156
          ],
          [
            30.344424464909675,
            59.872400197246755
          ],
          [
            30.34442436995485,
            59.872400287673784
          ],
          [
            30.344424265019722,
            59.87240038848128
          ],
          [
            30.34442413316715,
            59.87240051662147
          ],
          [
            30.34442396919359,
            59.87240067705386
          ],
          [
            30.3444237729097,
            59.87240086959565
          ],
          [
            30.344423542054255,
            59.87240109683653
          ],
          [
            30.344423279101445,
            59.872401355422575
          ],
          [
            30.34442301399021,
            59.87240161619698
          ],
          [
            30.34442275872048,
            59.87240186752203
          ],
          [
            30.344425605208578,
            59.87240117445449
          ],
          [
            30.34442567141539,
            59.872401109303496
          ],
          [
            30.344425743521874,
            59.87240103838514
          ],
          [
            30.34442581293617,
            59.87240097021472
          ],
          [
            30.344425882640106,
            59.872400901632425
          ],
          [
            30.344425956143386,
            59.872400829547246
          ],
          [
            30.34442603160223,
            59.87240075541219
          ],
          [
            30.344426108367042,
            59.872400679933705
          ],
          [
            30.344426186574736,
            59.87240060310869
          ],
          [
            30.344426263974587,
            59.87240052686648
          ],
          [
            30.344431794983958,
            59.87239901959985
          ],
          [
            30.344431891625177,
            59.87239892487604
          ],
          [
            30.344431993742482,
            59.87239882445323
          ],
          [
            30.344432097957352,
            59.872398722242195
          ],
          [
            30.344432200313594,
            59.872398621621365
          ],
          [
            30.344432302755532,
            59.87239852064779
          ],
          [
            30.3444323989756,
            59.87239842576304
          ],
          [
            30.34443248568941,
            59.87239834006789
          ],
          [
            30.34443256499902,
            59.872398261275194
          ],
          [
            30.344432634847887,
            59.87239819184393
          ],
          [
            30.344435754534516,
            59.872397322264476
          ],
          [
            30.344435824199902,
            59.87239725225831
          ],
          [
            30.344435900164626,
            59.87239717593169
          ],
          [
            30.344435978661817,
            59.87239709692676
          ],
          [
            30.344436051252938,
            59.87239702324468
          ],
          [
            30.34443611048395,
            59.87239696287696
          ],
          [
            30.344436156866863,
            59.87239691538873
          ],
          [
            30.34443619315254,
            59.87239687785388
          ],
          [
            30.344436223482816,
            59.87239684617703
          ],
          [
            30.344436248031165,
            59.87239682034505
          ],
          [
            30.344438918335676,
            59.87239469267368
          ],
          [
            30.344438968481004,
            59.87239463852646
          ],
          [
            30.344439009616657,
            59.872394593388314
          ],
          [
            30.344439039656105,
            59.872394559968896
          ],
          [
            30.344439059013624,
            59.8723945380474
          ],
          [
            30.344439076289717,
            59.87239451807162
          ],
          [
            30.344439096469078,
            59.87239449431986
          ],
          [
            30.344439123833023,
            59.87239446152419
          ],
          [
            30.344439161242363,
            59.87239441577915
          ],
          [
            30.344439206840203,
            59.87239435904912
          ],
          [
            30.344439379631794,
            59.87239364497303
          ],
          [
            30.344439423289593,
            59.87239358884077
          ],
          [
            30.34443948491921,
            59.87239350865741
          ],
          [
            30.34443955946182,
            59.87239341054406
          ],
          [
            30.344439635843226,
            59.87239330850786
          ],
          [
            30.34443970371704,
            59.87239321688256
          ],
          [
            30.344439771078886,
            59.87239312507386
          ],
          [
            30.34443985466435,
            59.87239300994324
          ],
          [
            30.344439960694217,
            59.87239286311684
          ],
          [
            30.344440089285786,
            59.87239268465561
          ],
          [
            30.344435495168607,
            59.87239404874641
          ],
          [
            30.34443535896485,
            59.87239423747928
          ],
          [
            30.344435214707033,
            59.87239443774986
          ],
          [
            30.344435075421924,
            59.872394631262374
          ],
          [
            30.344434937520095,
            59.87239482273935
          ],
          [
            30.34443479647876,
            59.872395018966074
          ],
          [
            30.344434658492077,
            59.872395211594906
          ],
          [
            30.344434521603215,
            59.87239540263555
          ],
          [
            30.34443438557931,
            59.87239559254301
          ],
          [
            30.344434249084088,
            59.872395783826924
          ],
          [
            30.344428052841263,
            59.87239612761735
          ],
          [
            30.344427868577846,
            59.87239638579848
          ],
          [
            30.344427689795836,
            59.87239663689732
          ],
          [
            30.34442751669144,
            59.87239688019035
          ],
          [
            30.344427347730704,
            59.872397118856185
          ],
          [
            30.34442717919921,
            59.87239735678684
          ],
          [
            30.344427011736585,
            59.87239759433494
          ],
          [
            30.344426844864675,
            59.87239783141557
          ],
          [
            30.344426675475766,
            59.872398071084625
          ],
          [
            30.34442650403431,
            59.87239831460461
          ],
          [
            30.344421032683375,
            59.87239892944115
          ],
          [
            30.344421015296334,
            59.87239895421755
          ],
          [
            30.344421005351904,
            59.872398968392474
          ],
          [
            30.344421004705676,
            59.87239896931523
          ],
          [
            30.344421018603594,
            59.87239894938868
          ],
          [
            30.344421052606236,
            59.87239890046155
          ],
          [
            30.344421104600947,
            59.87239882509697
          ],
          [
            30.344421167557208,
            59.87239873280126
          ],
          [
            30.34442123741738,
            59.87239862926981
          ],
          [
            30.34442131264443,
            59.872398516184134
          ],
          [
            30.344413416493154,
            59.87239962095656
          ],
          [
            30.34441338349261,
            59.872399672051785
          ],
          [
            30.344413336923513,
            59.87239974498084
          ],
          [
            30.344413273936578,
            59.87239984535957
          ],
          [
            30.344413192409387,
            59.8723999763966
          ],
          [
            30.344413091902474,
            59.87240013893658
          ],
          [
            30.34441297753329,
            59.872400325795645
          ],
          [
            30.344412858073575,
            59.87240052197709
          ],
          [
            30.34441274049102,
            59.87240071589493
          ],
          [
            30.344412629003592,
            59.87240090161428
          ],
          [
            30.34440596386631,
            59.87240275106926
          ],
          [
            30.344405902144466,
            59.87240285561543
          ],
          [
            30.344405850452,
            59.87240294453492
          ],
          [
            30.344405808245288,
            59.87240301806101
          ],
          [
            30.344405769978735,
            59.872403085633586
          ],
          [
            30.34440572627429,
            59.872403164160986
          ],
          [
            30.34440566658947,
            59.872403272458456
          ],
          [
            30.344405585455238,
            59.8724034204898
          ],
          [
            30.34440548587488,
            59.87240360356569
          ],
          [
            30.344405368492,
            59.87240381913188
          ],
          [
            30.34440475614814,
            59.87240344973052
          ],
          [
            30.344404811534957,
            59.87240334749561
          ],
          [
            30.34440486880868,
            59.87240324235545
          ],
          [
            30.34440492406381,
            59.87240314085654
          ],
          [
            30.34440498355852,
            59.872403030931466
          ],
          [
            30.344405052885847,
            59.87240290277616
          ],
          [
            30.344405131818842,
            59.87240275600033
          ],
          [
            30.344405217195348,
            59.872402595847795
          ],
          [
            30.34440530813447,
            59.872402423913016
          ],
          [
            30.34440540466261,
            59.87240224006016
          ],
          [
            30.34440940054725,
            59.872401192114694
          ],
          [
            30.34440952880663,
            59.8724009438226
          ],
          [
            30.344409645321,
            59.872400717525785
          ],
          [
            30.34440974853624,
            59.87240051653519
          ],
          [
            30.344409837524047,
            59.87240034264084
          ],
          [
            30.34440992108333,
            59.87240017972723
          ],
          [
            30.344410008682505,
            59.87240000924574
          ],
          [
            30.344410095696126,
            59.872399839525116
          ],
          [
            30.34441018273825,
            59.87239967099218
          ],
          [
            30.344410272691018,
            59.87239949626599
          ],
          [
            30.34441271121135,
            59.872400719274985
          ],
          [
            30.34441267659643,
            59.872400786333195
          ],
          [
            30.344412644736657,
            59.872400848014806
          ],
          [
            30.34441261044499,
            59.872400914194344
          ],
          [
            30.34441257490127,
            59.87240098271944
          ],
          [
            30.34441253976591,
            59.87240104982549
          ],
          [
            30.34441249931125,
            59.87240112720606
          ],
          [
            30.344412449862183,
            59.87240122127176
          ],
          [
            30.3444123874203,
            59.87240133985744
          ],
          [
            30.344412304447477,
            59.872401498155455
          ],
          [
            30.34441258929826,
            59.87240242221424
          ],
          [
            30.344412557416536,
            59.87240248335342
          ],
          [
            30.344412520033977,
            59.872402556231975
          ],
          [
            30.344412480268723,
            59.87240263546598
          ],
          [
            30.34441244246108,
            59.87240271173975
          ],
          [
            30.344412406041187,
            59.872402787063685
          ],
          [
            30.344412367754934,
            59.872402868522535
          ],
          [
            30.344412329128435,
            59.87240295308225
          ],
          [
            30.344412293639333,
            59.872403033300344
          ],
          [
            30.344412262071966,
            59.87240310804525
          ],
          [
            30.344413125928728,
            59.872395013039785
          ],
          [
            30.34441319642309,
            59.87239483087104
          ],
          [
            30.34441325575857,
            59.87239466848231
          ],
          [
            30.34441330512605,
            59.872394524339974
          ],
          [
            30.34441334722575,
            59.87239439191612
          ],
          [
            30.34441338109255,
            59.87239427629157
          ],
          [
            30.344413404339328,
            59.87239418803083
          ],
          [
            30.344413417286322,
            59.872394132650825
          ],
          [
            30.34441342223169,
            59.87239410841296
          ],
          [
            30.344413422047293,
            59.87239410950332
          ],
          [
            30.344410734998704,
            59.87239089393164
          ],
          [
            30.34441074609489,
            59.87239077593957
          ],
          [
            30.344410750300494,
            59.87239069758546
          ],
          [
            30.344410750759142,
            59.87239065245632
          ],
          [
            30.344410749923945,
            59.87239062788032
          ],
          [
            30.344410748839994,
            59.8723906145924
          ],
          [
            30.344410747966702,
            59.872390607996095
          ],
          [
            30.344410750594655,
            59.8723906219005
          ],
          [
            30.344410764154244,
            59.872390678472314
          ],
          [
            30.344410788107453,
            59.87239076116221
          ],
          [
            30.344405367706912,
            59.8723893894617
          ],
          [
            30.344405253754076,
            59.87238910759275
          ],
          [
            30.344405172936018,
            59.872388933844654
          ],
          [
            30.34440512034111,
            59.87238883459735
          ],
          [
            30.344405068763315,
            59.87238874914466
          ],
          [
            30.3444049985725,
            59.87238864435932
          ],
          [
            30.344404905652507,
            59.87238851712161
          ],
          [
            30.34440479913575,
            59.87238838123418
          ],
          [
            30.34440468583221,
            59.87238824488456
          ],
          [
            30.344404566270306,
            59.87238810870273
          ],
          [
            30.34438376885897,
            59.8723969253996
          ],
          [
            30.34438455522706,
            59.872397730272496
          ],
          [
            30.34438534472194,
            59.87239850228501
          ],
          [
            30.34438613063496,
            59.87239924492128
          ],
          [
            30.344386928222654,
            59.87239997165569
          ],
          [
            30.34438774095799,
            59.872400694297355
          ],
          [
            30.34438856649463,
            59.872401414634076
          ],
          [
            30.344389407605146,
            59.872402139115984
          ],
          [
            30.344390268044975,
            59.87240287076445
          ],
          [
            30.344391137591284,
            59.872403616719645
          ],
          [
            30.344358146235678,
            59.87239542932791
          ],
          [
            30.344356871708477,
            59.87239433621648
          ],
          [
            30.344355578615396,
            59.87239322632523
          ],
          [
            30.344354267410452,
            59.872392092529836
          ],
          [
            30.344352931749242,
            59.87239093953706
          ],
          [
            30.34435157539289,
            59.87238976970021
          ],
          [
            30.34435021310716,
            59.87238859696002
          ],
          [
            30.34434887310453,
            59.87238743697608
          ],
          [
            30.34434756771033,
            59.87238630779376
          ],
          [
            30.344346303602098,
            59.872385205259725
          ],
          [
            30.344319065836185,
            59.8723861881481
          ],
          [
            30.34431764139642,
            59.87238493224825
          ],
          [
            30.34431623380455,
            59.87238369698323
          ],
          [
            30.344314822618145,
            59.87238247207358
          ],
          [
            30.344313416896615,
            59.87238124588745
          ],
          [
            30.3443120195784,
            59.872380018680744
          ],
          [
            30.34431062545572,
            59.87237879355299
          ],
          [
            30.34430920923696,
            59.87237754690474
          ],
          [
            30.344307749137535,
            59.872376257706414
          ],
          [
            30.344306241564354,
            59.87237493239238
          ],
          [
            30.344286768778478,
            59.87238126156703
          ],
          [
            30.34428809607972,
            59.87238244340461
          ],
          [
            30.344289408532124,
            59.87238362992038
          ],
          [
            30.344290719903736,
            59.87238483712878
          ],
          [
            30.344292047073303,
            59.87238608373549
          ],
          [
            30.34429342840192,
            59.87238737245919
          ],
          [
            30.344294819589628,
            59.87238868761108
          ],
          [
            30.344296181258283,
            59.87238998448285
          ],
          [
            30.344297509958885,
            59.872391257979274
          ],
          [
            30.344298814245185,
            59.87239251901826
          ],
          [
            30.344263534467565,
            59.87239016381055
          ],
          [
            30.344262077141515,
            59.87238872802443
          ],
          [
            30.3442605994548,
            59.87238727665129
          ],
          [
            30.34425911128626,
            59.87238578606836
          ],
          [
            30.34425760454857,
            59.87238425403234
          ],
          [
            30.344256100596674,
            59.87238269758314
          ],
          [
            30.34425461091061,
            59.87238112401885
          ],
          [
            30.34425314486627,
            59.87237953993203
          ],
          [
            30.344251696938286,
            59.872377946058215
          ],
          [
            30.34425026624364,
            59.872376333900654
          ],
          [
            30.34422092713276,
            59.87238961061103
          ],
          [
            30.344222141752894,
            59.87239103928185
          ],
          [
            30.344223332557902,
            59.87239246381446
          ],
          [
            30.344224472464898,
            59.87239387417165
          ],
          [
            30.34422557971928,
            59.87239527264887
          ],
          [
            30.344226681947184,
            59.87239667067373
          ],
          [
            30.344227783793848,
            59.87239805824805
          ],
          [
            30.34422886997643,
            59.872399405063014
          ],
          [
            30.34422992242692,
            59.872400676735055
          ],
          [
            30.34423093016471,
            59.87240186677196
          ],
          [
            30.344192608061523,
            59.872399067416524
          ],
          [
            30.344191241135352,
            59.87239753991271
          ],
          [
            30.34418980175265,
            59.87239599400496
          ],
          [
            30.344188273817746,
            59.87239441051915
          ],
          [
            30.344186637353474,
            59.87239277132808
          ],
          [
            30.344184888683003,
            59.872391079626695
          ],
          [
            30.344183061614046,
            59.87238936021186
          ],
          [
            30.344181173134068,
            59.87238763466875
          ],
          [
            30.344179233977478,
            59.87238591741938
          ],
          [
            30.34417726557396,
            59.87238421972956
          ],
          [
            30.3441506725452,
            59.872387079739255
          ],
          [
            30.344149078862593,
            59.87238577980372
          ],
          [
            30.34414746917654,
            59.872384501748456
          ],
          [
            30.344145823402464,
            59.87238323073732
          ],
          [
            30.344144116761058,
            59.87238194708049
          ],
          [
            30.344142329430746,
            59.87238063796451
          ],
          [
            30.344140459466857,
            59.8723793097018
          ],
          [
            30.344138528988516,
            59.8723779788735
          ],
          [
            30.344136535286477,
            59.87237665212583
          ],
          [
            30.344134460199744,
            59.87237530987772
          ],
          [
            30.344113280149,
            59.87238280639109
          ],
          [
            30.344115048653485,
            59.872383889359014
          ],
          [
            30.344116739863257,
            59.87238490834778
          ],
          [
            30.344118421559706,
            59.87238590410706
          ],
          [
            30.34412014983129,
            59.8723869086031
          ],
          [
            30.34412188840511,
            59.87238791025534
          ],
          [
            30.344123617454795,
            59.87238889651775
          ],
          [
            30.344125331291444,
            59.8723898775294
          ],
          [
            30.344127041717844,
            59.872390872557446
          ],
          [
            30.344128755366803,
            59.8723918980064
          ],
          [
            30.344097642257594,
            59.87239068842498
          ],
          [
            30.34409605914972,
            59.87238969164979
          ],
          [
            30.34409453934618,
            59.87238868911001
          ],
          [
            30.344093067027796,
            59.872387676767794
          ],
          [
            30.34409164186147,
            59.87238664548609
          ],
          [
            30.344090254361813,
            59.87238558332291
          ],
          [
            30.344088906355832,
            59.87238448101857
          ],
          [
            30.344087600247153,
            59.87238333928763
          ],
          [
            30.3440863391914,
            59.87238215440595
          ],
          [
            30.344085137655746,
            59.87238092514504
          ],
          [
            30.34405798532051,
            59.872380177515026
          ],
          [
            30.34405688702555,
            59.872378815888865
          ],
          [
            30.344055878502967,
            59.872377435900404
          ],
          [
            30.344054958575203,
            59.87237602406849
          ],
          [
            30.344054091625473,
            59.87237456594988
          ],
          [
            30.344053265162007,
            59.872373007553726
          ],
          [
            30.344052481361896,
            59.872371320596685
          ],
          [
            30.344051774936208,
            59.87236954736997
          ],
          [
            30.34405116885647,
            59.87236774584278
          ],
          [
            30.344050660287216,
            59.87236593795568
          ],
          [
            30.344032645098775,
            59.87237096836843
          ],
          [
            30.344032826524163,
            59.87237209042101
          ],
          [
            30.34403294241499,
            59.872373233054745
          ],
          [
            30.344032986553145,
            59.8723744039577
          ],
          [
            30.344032951210522,
            59.872375603321245
          ],
          [
            30.344032833275694,
            59.872376825291404
          ],
          [
            30.34403263795677,
            59.87237805062509
          ],
          [
            30.34403237323294,
            59.87237923366648
          ],
          [
            30.344032053999367,
            59.87238034225355
          ],
          [
            30.344031691185364,
            59.872381369816544
          ],
          [
            30.344015682125136,
            59.87237505140279
          ],
          [
            30.34401617622454,
            59.872374030963016
          ],
          [
            30.34401673288583,
            59.872373014974734
          ],
          [
            30.344017367001616,
            59.872371976325496
          ],
          [
            30.344018095929147,
            59.87237089379104
          ],
          [
            30.344018916835374,
            59.8723697758843
          ],
          [
            30.34401981872807,
            59.87236863755511
          ],
          [
            30.34402079954433,
            59.872367491679825
          ],
          [
            30.344021848359585,
            59.8723663594315
          ],
          [
            30.344022948593217,
            59.87236524943144
          ],
          [
            30.34400539797199,
            59.87237165357918
          ],
          [
            30.344004143364227,
            59.87237276024163
          ],
          [
            30.344002815756895,
            59.872373856373216
          ],
          [
            30.344001405406686,
            59.87237494735101
          ],
          [
            30.343999895397758,
            59.87237603282654
          ],
          [
            30.343998284026124,
            59.87237711386718
          ],
          [
            30.343996594209777,
            59.8723781745068
          ],
          [
            30.343994860616597,
            59.87237919171803
          ],
          [
            30.34399310358558,
            59.87238015856585
          ],
          [
            30.343991324600903,
            59.87238107579984
          ],
          [
            30.34398682871459,
            59.872379720284975
          ],
          [
            30.343988193563572,
            59.87237908864193
          ],
          [
            30.34398970504732,
            59.87237842002911
          ],
          [
            30.343991437628333,
            59.87237768099209
          ],
          [
            30.34399344076564,
            59.87237684832213
          ],
          [
            30.343995714566688,
            59.87237592010233
          ],
          [
            30.343998247505354,
            59.87237490115913
          ],
          [
            30.344001038538295,
            59.872373790345804
          ],
          [
            30.34400407177967,
            59.87237258921237
          ],
          [
            30.344007320533464,
            59.872371303616454
          ],
          [
            30.343999122707384,
            59.872374296532314
          ],
          [
            30.34399714971889,
            59.87237507740066
          ],
          [
            30.34399516451205,
            59.87237586185276
          ],
          [
            30.3439932050838,
            59.87237663749586
          ],
          [
            30.34399123202831,
            59.87237741869953
          ],
          [
            30.343989269639824,
            59.872378194794706
          ],
          [
            30.343987341818362,
            59.87237895789264
          ],
          [
            30.343985412295122,
            59.872379721760474
          ],
          [
            30.34398347615993,
            59.872380487052844
          ],
          [
            30.343981555916933,
            59.872381246540016
          ],
          [
            30.343989666796144,
            59.872379976261435
          ],
          [
            30.343990924527027,
            59.8723794787715
          ],
          [
            30.343992211453248,
            59.87237896979599
          ],
          [
            30.34399353222616,
            59.8723784469946
          ],
          [
            30.34399489025803,
            59.87237791079341
          ],
          [
            30.34399629059197,
            59.872377357431006
          ],
          [
            30.343997739670655,
            59.8723767838077
          ],
          [
            30.343999243967833,
            59.87237618912141
          ],
          [
            30.344000816660838,
            59.87237556797711
          ],
          [
            30.34400246907104,
            59.87237491512713
          ],
          [
            30.34400562245192,
            59.87237628300454
          ],
          [
            30.344005432682696,
            59.87237635756723
          ],
          [
            30.344005314371735,
            59.87237640381393
          ],
          [
            30.344005254671636,
            59.87237642697092
          ],
          [
            30.344005240174756,
            59.872376432554134
          ],
          [
            30.34400523959589,
            59.87237643277521
          ],
          [
            30.344005213842824,
            59.8723764425014
          ],
          [
            30.34400513833575,
            59.87237647085641
          ],
          [
            30.344005010375714,
            59.87237651862886
          ],
          [
            30.344004829989697,
            59.87237658520923
          ],
          [
            30.34400884815171,
            59.872377375991285
          ],
          [
            30.34400895604166,
            59.872377336494964
          ],
          [
            30.344009009717514,
            59.872377317030974
          ],
          [
            30.344009028503688,
            59.87237731026068
          ],
          [
            30.34400906880517,
            59.87237729578169
          ],
          [
            30.344009163322355,
            59.8723772620858
          ],
          [
            30.344009291291727,
            59.87237721683756
          ],
          [
            30.344009421925453,
            59.87237717087969
          ],
          [
            30.344009533087785,
            59.87237713206483
          ],
          [
            30.344009626248777,
            59.872377099792686
          ],
          [
            30.344015215324895,
            59.872377615611256
          ],
          [
            30.344015930313905,
            59.8723773711095
          ],
          [
            30.34401661725421,
            59.87237713759775
          ],
          [
            30.34401727103324,
            59.872376916527806
          ],
          [
            30.344017898880228,
            59.87237670541224
          ],
          [
            30.344018501181093,
            59.87237650385765
          ],
          [
            30.34401905787237,
            59.87237631815071
          ],
          [
            30.344019566420567,
            59.87237614929938
          ],
          [
            30.344020046679073,
            59.87237599046953
          ],
          [
            30.344020510767848,
            59.87237583719109
          ],
          [
            30.34402488863944,
            59.872377013675205
          ],
          [
            30.34402543442643,
            59.87237683436956
          ],
          [
            30.34402596453421,
            59.87237666043727
          ],
          [
            30.344026487477915,
            59.872376488773085
          ],
          [
            30.344027006113404,
            59.872376319073595
          ],
          [
            30.344027524934535,
            59.872376149188135
          ],
          [
            30.344028057641257,
            59.872375975282274
          ],
          [
            30.344028616859738,
            59.8723757931855
          ],
          [
            30.34402922283366,
            59.87237559631289
          ],
          [
            30.34402990791678,
            59.87237537458299
          ],
          [
            30.344033057069247,
            59.87237677730324
          ],
          [
            30.344033622574656,
            59.872376596103095
          ],
          [
            30.3440342413666,
            59.8723763991629
          ],
          [
            30.344034895452033,
            59.872376192607355
          ],
          [
            30.344035577288476,
            59.87237597874503
          ],
          [
            30.344036286943854,
            59.87237575792789
          ],
          [
            30.344037014602687,
            59.872375534002856
          ],
          [
            30.344037759037203,
            59.872375307148054
          ],
          [
            30.34403852279762,
            59.872375076064905
          ],
          [
            30.34403930603068,
            59.87237484108002
          ],
          [
            30.344038347917365,
            59.87237631450371
          ],
          [
            30.344038177503165,
            59.87237636446408
          ],
          [
            30.34403802773388,
            59.87237640792228
          ],
          [
            30.34403789781415,
            59.87237644515719
          ],
          [
            30.344037781614848,
            59.87237647803932
          ],
          [
            30.344037677919935,
            59.87237650712407
          ],
          [
            30.34403758734253,
            59.87237653231382
          ],
          [
            30.344037500010565,
            59.8723765564516
          ],
          [
            30.34403739855301,
            59.8723765841955
          ],
          [
            30.344037269184195,
            59.87237661915797
          ],
          [
            30.34403901130075,
            59.872377391402395
          ],
          [
            30.344039421272754,
            59.872377282038194
          ],
          [
            30.344039886923053,
            59.87237715824267
          ],
          [
            30.344040400468224,
            59.87237702276666
          ],
          [
            30.34404093320179,
            59.87237688286278
          ],
          [
            30.34404144709844,
            59.87237674878705
          ],
          [
            30.3440419018048,
            59.872376630150626
          ],
          [
            30.344042275281854,
            59.87237653270718
          ],
          [
            30.344042567671817,
            59.872376456324574
          ],
          [
            30.34404284105773,
            59.8723763849094
          ],
          [
            30.3440492691167,
            59.87237726208161
          ],
          [
            30.344050104619846,
            59.872377043591996
          ],
          [
            30.344050997850527,
            59.872376810585045
          ],
          [
            30.344051917932553,
            59.87237656997597
          ],
          [
            30.344052845730978,
            59.87237632753411
          ],
          [
            30.344053785564135,
            59.87237608181428
          ],
          [
            30.34405475460969,
            59.87237582789157
          ],
          [
            30.344055781803856,
            59.872375559025926
          ],
          [
            30.344056888441347,
            59.87237526914767
          ],
          [
            30.34405808383399,
            59.87237495563052
          ],
          [
            30.34405910824525,
            59.87237662049915
          ],
          [
            30.34405846038462,
            59.872376789830845
          ],
          [
            30.34405791407228,
            59.87237693294199
          ],
          [
            30.3440574102516,
            59.87237706456464
          ],
          [
            30.34405686036233,
            59.87237720856007
          ],
          [
            30.34405619133476,
            59.87237738389841
          ],
          [
            30.3440553765487,
            59.8723775971561
          ],
          [
            30.344054418370796,
            59.872377848200244
          ],
          [
            30.344053315063423,
            59.87237813647798
          ],
          [
            30.34405207509941,
            59.87237846058983
          ],
          [
            30.344055104146843,
            59.872378529674414
          ],
          [
            30.344055662723743,
            59.87237838343509
          ],
          [
            30.344056100681996,
            59.87237826903384
          ],
          [
            30.34405640831274,
            59.87237818861745
          ],
          [
            30.344056581212175,
            59.87237814345237
          ],
          [
            30.344056619084935,
            59.872378133536635
          ],
          [
            30.34405656756302,
            59.87237814701619
          ],
          [
            30.344056537283326,
            59.87237815493793
          ],
          [
            30.344056541489724,
            59.87237815383672
          ],
          [
            30.344056539797403,
            59.87237815427925
          ],
          [
            30.344054954086598,
            59.87237821346146
          ],
          [
            30.344053545948977,
            59.87237858139114
          ],
          [
            30.344052104510407,
            59.87237895784463
          ],
          [
            30.344050638276993,
            59.87237933930423
          ],
          [
            30.34404913618592,
            59.872379729813886
          ],
          [
            30.344047531948902,
            59.872380144409334
          ],
          [
            30.344045739751426,
            59.87238060363749
          ],
          [
            30.344043710310906,
            59.87238111559841
          ],
          [
            30.344041477872395,
            59.87238166885488
          ],
          [
            30.34403909345712,
            59.87238224537646
          ],
          [
            30.344050322372006,
            59.87238036700842
          ],
          [
            30.34405090860656,
            59.87238023406955
          ],
          [
            30.344051430206306,
            59.87238012080819
          ],
          [
            30.344051903325482,
            59.87238002272351
          ],
          [
            30.34405235647812,
            59.87237993354371
          ],
          [
            30.344052789531613,
            59.87237985312056
          ],
          [
            30.344053186381807,
            59.87237978395988
          ],
          [
            30.34405355203673,
            59.872379724570735
          ],
          [
            30.3440539034455,
            59.87237967168574
          ],
          [
            30.34405423349837,
            59.87237962677244
          ],
          [
            30.344063726011687,
            59.872378920722085
          ],
          [
            30.344064225672547,
            59.872378868498565
          ],
          [
            30.34406462984481,
            59.87237883362302
          ],
          [
            30.344064913472934,
            59.872378814478736
          ],
          [
            30.34406506506946,
            59.87237880703666
          ],
          [
            30.34406511287809,
            59.87237880563265
          ],
          [
            30.344065075300097,
            59.87237880597331
          ],
          [
            30.344064922209537,
            59.872378803708884
          ],
          [
            30.34406463772377,
            59.8723787929766
          ],
          [
            30.344064264283315,
            59.872378770605934
          ],
          [
            30.34407520635584,
            59.87237862987971
          ],
          [
            30.344076613480347,
            59.872378781102235
          ],
          [
            30.344077965226564,
            59.87237895737036
          ],
          [
            30.344079240961698,
            59.87237914750719
          ],
          [
            30.344080461664003,
            59.8723793574699
          ],
          [
            30.34408163287803,
            59.872379589120705
          ],
          [
            30.344082734271094,
            59.87237982994228
          ],
          [
            30.344083732294752,
            59.8723800722557
          ],
          [
            30.344084651582598,
            59.87238031460317
          ],
          [
            30.344085554076127,
            59.872380574588945
          ],
          [
            30.344101132499915,
            59.872380156494295
          ],
          [
            30.34410317740205,
            59.87238083031057
          ],
          [
            30.3441051714975,
            59.87238152521543
          ],
          [
            30.34410703692416,
            59.8723822086075
          ],
          [
            30.34410877448295,
            59.87238287257054
          ],
          [
            30.344110390757454,
            59.872383521614545
          ],
          [
            30.34411189675398,
            59.87238415591956
          ],
          [
            30.344113331982797,
            59.872384786353265
          ],
          [
            30.34411471207578,
            59.87238541706613
          ],
          [
            30.344116035080607,
            59.87238604158707
          ],
          [
            30.344138321418374,
            59.872384174390525
          ],
          [
            30.34414078004784,
            59.87238541112004
          ],
          [
            30.344143151298773,
            59.87238663490571
          ],
          [
            30.344145462963326,
            59.87238784528336
          ],
          [
            30.344147748108927,
            59.87238906125528
          ],
          [
            30.344150026797113,
            59.8723902877293
          ],
          [
            30.344152271560066,
            59.872391519256205
          ],
          [
            30.344154446323042,
            59.87239273135932
          ],
          [
            30.3441565365472,
            59.87239390818589
          ],
          [
            30.344158562015533,
            59.87239506158998
          ],
          [
            30.344188043197217,
            59.87238937235571
          ],
          [
            30.344190392740725,
            59.87239074261679
          ],
          [
            30.344192757525953,
            59.87239213720382
          ],
          [
            30.344195158039504,
            59.872393564879715
          ],
          [
            30.344197592738666,
            59.87239504172053
          ],
          [
            30.34420007576671,
            59.87239656255267
          ],
          [
            30.34420260151207,
            59.872398117884124
          ],
          [
            30.34420514491483,
            59.87239969360872
          ],
          [
            30.34420770388212,
            59.87240130432313
          ],
          [
            30.344210308376162,
            59.87240296023952
          ],
          [
            30.344240790790806,
            59.872393807404286
          ],
          [
            30.34424311989979,
            59.87239532623296
          ],
          [
            30.344245504805617,
            59.872396890490606
          ],
          [
            30.344247952627214,
            59.87239850031938
          ],
          [
            30.344250481186005,
            59.87240017702541
          ],
          [
            30.3442531474304,
            59.872401951097785
          ],
          [
            30.344256022477317,
            59.87240386158173
          ],
          [
            30.344259161977277,
            59.872405958298856
          ],
          [
            30.344262580967747,
            59.872408251600646
          ],
          [
            30.34426624026328,
            59.87241071850173
          ],
          [
            30.344304223223144,
            59.8723974895063
          ],
          [
            30.34430169515486,
            59.87239578533447
          ],
          [
            30.344299375774536,
            59.872394217762015
          ],
          [
            30.344297254289618,
            59.87239278114254
          ],
          [
            30.344295321731103,
            59.8723914655451
          ],
          [
            30.344293552654324,
            59.87239026508272
          ],
          [
            30.34429193850883,
            59.872389169202975
          ],
          [
            30.344290470016087,
            59.87238816682188
          ],
          [
            30.344289123557502,
            59.872387254779056
          ],
          [
            30.34428790164679,
            59.87238642914502
          ],
          [
            30.344339654886664,
            59.87238247757599
          ],
          [
            30.344342121404573,
            59.87238413128259
          ],
          [
            30.344344560211695,
            59.87238577214969
          ],
          [
            30.344347012533518,
            59.87238742595213
          ],
          [
            30.344349475863496,
            59.87238907637837
          ],
          [
            30.34435193602914,
            59.872390730520166
          ],
          [
            30.344354429667103,
            59.87239239965304
          ],
          [
            30.344356942605394,
            59.87239406577423
          ],
          [
            30.34435944338511,
            59.8723957343109
          ],
          [
            30.344361961800335,
            59.87239741290765
          ],
          [
            30.34436649341271,
            59.87238855783359
          ],
          [
            30.34436577262304,
            59.87238807596508
          ],
          [
            30.3443650429927,
            59.87238759053135
          ],
          [
            30.344364277927287,
            59.872387079166884
          ],
          [
            30.34436345642171,
            59.87238653059514
          ],
          [
            30.344362586705884,
            59.872385949281565
          ],
          [
            30.344361680451303,
            59.872385341651665
          ],
          [
            30.34436074044754,
            59.872384711500736
          ],
          [
            30.344359771349183,
            59.872384061753614
          ],
          [
            30.344358778723695,
            59.872383395415135
          ],
          [
            30.34436146100862,
            59.872381107059354
          ],
          [
            30.34436132704915,
            59.87238101703298
          ],
          [
            30.34436118621142,
            59.872380922275354
          ],
          [
            30.344361059778578,
            59.87238083659067
          ],
          [
            30.344360960546346,
            59.87238076944923
          ],
          [
            30.344360895802403,
            59.872380725315686
          ],
          [
            30.34436086980357,
            59.87238070762997
          ],
          [
            30.34436088258032,
            59.87238071635616
          ],
          [
            30.344360934462134,
            59.872380751834754
          ],
          [
            30.344361031588047,
            59.87238081819965
          ],
          [
            30.344366146960798,
            59.87238029850951
          ],
          [
            30.344366337471673,
            59.87238042921084
          ],
          [
            30.344366576979496,
            59.87238059310062
          ],
          [
            30.344366863527465,
            59.872380788680175
          ],
          [
            30.344367200319756,
            59.87238101778796
          ],
          [
            30.344367570260037,
            59.87238126962089
          ],
          [
            30.344367936309464,
            59.872381517085294
          ],
          [
            30.344368299718052,
            59.87238176260651
          ],
          [
            30.344368672570344,
            59.87238201520048
          ],
          [
            30.34436904340599,
            59.87238226651502
          ]
        ]
      }
    },
    {
      "type": "Feature",
      "properties": {
        "role": "endpoint",
        "status": "CONFIDENT",
        "confidence": 0.95
      },
      "geometry": {
        "type": "Point",
        "coordinates": [
          30.344104268100075,
          59.87237818599015
        ]
      }
    },
    {
      "type": "Feature",
      "properties": {
        "role": "confidence_polygon",
        "status": "CONFIDENT"
      },
      "geometry": {
        "type": "Polygon",
        "coordinates": [
          [
            [
              30.34437531049621,
              59.8723779470426
            ],
            [
              30.344373053761313,
              59.87239573652618
            ],
            [
              30.344366198021998,
              59.8724132257197
            ],
            [
              30.344354860575024,
              59.872430115377455
            ],
            [
              30.344339235401396,
              59.87244611651164
            ],
            [
              30.344319589847633,
              59.87246095533693
            ],
            [
              30.344296260051735,
              59.872474377955214
            ],
            [
              30.344269645192004,
              59.87248615469994
            ],
            [
              30.34424020065701,
              59.87249608406589
            ],
            [
              30.3442084302537,
              59.87250399615717
            ],
            [
              30.344174877586966,
              59.8725097555942
            ],
            [
              30.344140116758098,
              59.87251326383031
            ],
            [
              30.34410474254131,
              59.872514460837905
            ],
            [
              30.344069360206607,
              59.87251332613558
            ],
            [
              30.34403457516287,
              59.87250987913863
            ],
            [
              30.34400098259868,
              59.87250417882686
            ],
            [
              30.343969157297998,
              59.8724963227353
            ],
            [
              30.343939643805072,
              59.8724864452853
            ],
            [
              30.34391294710681,
              59.87247471548448
            ],
            [
              30.343889523992093,
              59.87246133403483
            ],
            [
              30.343869775235994,
              59.8724465298985
            ],
            [
              30.343854038742382,
              59.872430556380046
            ],
            [
              30.34384258376256,
              59.872413686792314
            ],
            [
              30.34383560628855,
              59.87239620977973
            ],
            [
              30.34383322570005,
              59.87237842437955
            ],
            [
              30.34383548272227,
              59.872360634905135
            ],
            [
              30.343842338729605,
              59.872343145739116
            ],
            [
              30.343853676407015,
              59.872326256125234
            ],
            [
              30.343869301757838,
              59.87231025504839
            ],
            [
              30.343888947423444,
              59.87229541628996
            ],
            [
              30.343912277258205,
              59.8722819937435
            ],
            [
              30.34393889208119,
              59.87227021707069
            ],
            [
              30.34396833650633,
              59.872260287771816
            ],
            [
              30.344000106734153,
              59.87225237573821
            ],
            [
              30.344033659171735,
              59.872246616345535
            ],
            [
              30.34406841973341,
              59.87224310813741
            ],
            [
              30.34410379366315,
              59.87224191113957
            ],
            [
              30.344139175710534,
              59.87224304583271
            ],
            [
              30.344173960486255,
              59.872246492802184
            ],
            [
              30.34420755282,
              59.872252193070054
            ],
            [
              30.344239377943488,
              59.872260049104284
            ],
            [
              30.344268891324575,
              59.87226992648742
            ],
            [
              30.344295587983968,
              59.87228165621641
            ],
            [
              30.344319011135433,
              59.872295037594135
            ],
            [
              30.34433876000139,
              59.872309841663416
            ],
            [
              30.344354496670487,
              59.87232581512417
            ],
            [
              30.344365951879468,
              59.87234268466758
            ],
            [
              30.344372929620672,
              59.87236016165216
            ],
            [
              30.34437531049621,
              59.8723779470426
            ]
          ]
        ]
      }
    }
  ]
}