{
  "type": "FeatureCollection",
  "features": [
    {
      "type": "Feature",
      "properties": {
        "role": "trajectory"
      },
      "geometry": {
        "type": "LineString",
        "coordinates": [
          [
            30.44425931920948,
            59.82758009900453
          ],
          [
            30.444259318789094,
            59.827580100946165
          ],
          [
            30.44425931858681,
            59.8275801018852
          ],
          [
            30.444259318479983,
            59.82758010237929
          ],
          [
            30.44425931850036,
            59.82758010228588
          ],
          [
            30.444259318593897,
            59.82758010185976
          ],
          [
            30.444259319008005,
            59.82758009998962
          ],
          [
            30.444259320749765,
            59.82758009214995
          ],
          [
            30.44425932479841,
            59.82758007392523
          ],
          [
            30.444259332531143,
            59.8275800392933
          ],
          [
            30.444259344373393,
            59.827579986513015
          ],
          [
            30.444259360767308,
            59.827579914451974
          ],
          [
            30.44425938250034,
            59.82757981854356
          ],
          [
            30.44425941088092,
            59.82757969399262
          ],
          [
            30.44425944567234,
            59.827579541907056
          ],
          [
            30.44425948609284,
            59.82757936693361
          ],
          [
            30.444259532311076,
            59.827579168899696
          ],
          [
            30.444259582934567,
            59.8275789507249
          ],
          [
            30.444259638585134,
            59.827578711785335
          ],
          [
            30.44425970041512,
            59.8275784480449
          ],
          [
            30.444259768393284,
            59.827578157831056
          ],
          [
            30.444259842586813,
            59.8275778439665
          ],
          [
            30.44425992144544,
            59.82757751120094
          ],
          [
            30.444260004868617,
            59.827577157896656
          ],
          [
            30.444260092939526,
            59.82757678159848
          ],
          [
            30.44426018874563,
            59.82757637558377
          ],
          [
            30.444260293297752,
            59.82757593064294
          ],
          [
            30.444260410377133,
            59.82757543606865
          ],
          [
            30.444260542496163,
            59.827574874746446
          ],
          [
            30.444260691171802,
            59.82757423723234
          ],
          [
            30.44426085705946,
            59.82757352511163
          ],
          [
            30.44426104122105,
            59.82757273994182
          ],
          [
            30.444261238836955,
            59.82757188843912
          ],
          [
            30.4442614471441,
            59.827570974784706
          ],
          [
            30.444261668580697,
            59.82756999380285
          ],
          [
            30.444261905478008,
            59.827568945658875
          ],
          [
            30.44426215397171,
            59.82756783654902
          ],
          [
            30.44426241233907,
            59.827566661954776
          ],
          [
            30.444262680588114,
            59.82756542071713
          ],
          [
            30.444262962413816,
            59.827564108608826
          ],
          [
            30.444263261826055,
            59.8275627209971
          ],
          [
            30.444263569147278,
            59.827561273460674
          ],
          [
            30.44426388457884,
            59.82755976858988
          ],
          [
            30.444264200465692,
            59.82755823020405
          ],
          [
            30.444264512447408,
            59.8275566905108
          ],
          [
            30.444264828081774,
            59.82755516264374
          ],
          [
            30.444265142007776,
            59.82755365460244
          ],
          [
            30.444265453985718,
            59.82755216023215
          ],
          [
            30.444265768094784,
            59.82755067583061
          ],
          [
            30.444266077649612,
            59.827549208068916
          ],
          [
            30.44426637872689,
            59.827547760876975
          ],
          [
            30.444266679386104,
            59.827546338392125
          ],
          [
            30.44426697315819,
            59.82754494643244
          ],
          [
            30.444267260585363,
            59.82754358702216
          ],
          [
            30.4442675381376,
            59.827542258143
          ],
          [
            30.444267812401,
            59.82754094991231
          ],
          [
            30.444268077445575,
            59.82753966315084
          ],
          [
            30.444268332094694,
            59.82753841109886
          ],
          [
            30.444268580112382,
            59.82753720679478
          ],
          [
            30.444268821913568,
            59.827536046787216
          ],
          [
            30.444269056230443,
            59.82753492214092
          ],
          [
            30.44426928371235,
            59.827533831560395
          ],
          [
            30.44426950162004,
            59.82753277247066
          ],
          [
            30.44426971074309,
            59.8275317431447
          ],
          [
            30.44426991584996,
            59.82753073262572
          ],
          [
            30.444270114567093,
            59.82752974245752
          ],
          [
            30.44427030602309,
            59.82752878648466
          ],
          [
            30.4442704928072,
            59.82752785389237
          ],
          [
            30.444270675134394,
            59.827526931808464
          ],
          [
            30.444270854310236,
            59.82752603274673
          ],
          [
            30.444271025842816,
            59.827525163506216
          ],
          [
            30.444271192080777,
            59.827524315495566
          ],
          [
            30.44427135784812,
            59.827523477557406
          ],
          [
            30.44427151594965,
            59.82752266607959
          ],
          [
            30.44427166025122,
            59.82752192287479
          ],
          [
            30.444271789056355,
            59.827521264788935
          ],
          [
            30.44427190229401,
            59.82752068522289
          ],
          [
            30.444272003344818,
            59.827520162214725
          ],
          [
            30.444272096905316,
            59.82751967855545
          ],
          [
            30.444272182825145,
            59.82751923328303
          ],
          [
            30.44427226305588,
            59.827518813920264
          ],
          [
            30.4442723394012,
            59.827518414799954
          ],
          [
            30.444272411943018,
            59.827518040812954
          ],
          [
            30.44427247960579,
            59.827517693028284
          ],
          [
            30.44427254268849,
            59.827517368276666
          ],
          [
            30.444272601718318,
            59.827517064466505
          ],
          [
            30.444272654900207,
            59.827516789525646
          ],
          [
            30.44427270086769,
            59.827516552436734
          ],
          [
            30.44427273940724,
            59.82751635586957
          ],
          [
            30.44427276988618,
            59.82751619903453
          ],
          [
            30.44427279413226,
            59.82751607541364
          ],
          [
            30.44427281278274,
            59.82751597906292
          ],
          [
            30.444272825340683,
            59.827515914235676
          ],
          [
            30.44427283159462,
            59.82751588217567
          ],
          [
            30.44427283267354,
            59.82751587657903
          ],
          [
            30.444272830587778,
            59.827515887446815
          ],
          [
            30.44427282829629,
            59.82751589937345
          ],
          [
            30.44427282801664,
            59.827515900839536
          ],
          [
            30.444272830501863,
            59.827515887898294
          ],
          [
            30.44427283615427,
            59.82751585820087
          ],
          [
            30.44427284584746,
            59.82751580734989
          ],
          [
            30.444272860005267,
            59.82751573325258
          ],
          [
            30.444272877790695,
            59.82751563901184
          ],
          [
            30.444272899667325,
            59.82751552477351
          ],
          [
            30.444272924171216,
            59.82751539651432
          ],
          [
            30.444272950110978,
            59.82751525907124
          ],
          [
            30.44427297833558,
            59.82751511178786
          ],
          [
            30.44427300735113,
            59.82751495883226
          ],
          [
            30.44427303579119,
            59.827514808057664
          ],
          [
            30.44427306375134,
            59.82751466160318
          ],
          [
            30.444273091290533,
            59.82751451709014
          ],
          [
            30.444273121587017,
            59.827514358312456
          ],
          [
            30.444273159381943,
            59.8275141608343
          ],
          [
            30.444273205161153,
            59.827513917932656
          ],
          [
            30.444273259108616,
            59.82751363295138
          ],
          [
            30.444273321438978,
            59.82751330590284
          ],
          [
            30.444273391594304,
            59.827512935834925
          ],
          [
            30.444273470186342,
            59.827512524388126
          ],
          [
            30.444273558867945,
            59.82751205991732
          ],
          [
            30.444273662519777,
            59.82751151588559
          ],
          [
            30.444273785411696,
            59.82751087074316
          ],
          [
            30.4442739318468,
            59.827510108502686
          ],
          [
            30.444274102557724,
            59.827509215835356
          ],
          [
            30.44427429842446,
            59.82750819403297
          ],
          [
            30.444274517073563,
            59.827507053577676
          ],
          [
            30.444274757857883,
            59.82750579508065
          ],
          [
            30.444275019332235,
            59.82750443304679
          ],
          [
            30.444275299484627,
            59.82750298597657
          ],
          [
            30.444275607043885,
            59.82750145724192
          ],
          [
            30.444275933888044,
            59.8274998620015
          ],
          [
            30.44427628112524,
            59.827498215781446
          ],
          [
            30.44427664389505,
            59.82749651001766
          ],
          [
            30.444277022995703,
            59.82749473651492
          ],
          [
            30.444277420373293,
            59.827492895791586
          ],
          [
            30.444277837505062,
            59.82749098473233
          ],
          [
            30.44427826889996,
            59.827489005001105
          ],
          [
            30.444278718671804,
            59.827486951143584
          ],
          [
            30.44427918187248,
            59.82748483593661
          ],
          [
            30.44427965848914,
            59.827482681222776
          ],
          [
            30.444280140547438,
            59.82748048354515
          ],
          [
            30.444280646155203,
            59.82747824068131
          ],
          [
            30.444281156051698,
            59.82747595047714
          ],
          [
            30.44428168089051,
            59.82747361547402
          ],
          [
            30.44428221336237,
            59.827471222974445
          ],
          [
            30.444282753287,
            59.82746875903063
          ],
          [
            30.444283300865,
            59.82746622835177
          ],
          [
            30.44428386406526,
            59.827463642228565
          ],
          [
            30.44428444833705,
            59.827461007593755
          ],
          [
            30.444285039145292,
            59.827458340062925
          ],
          [
            30.44428562558464,
            59.82745565720484
          ],
          [
            30.444286210973868,
            59.827452952563014
          ],
          [
            30.44428681442591,
            59.827450222121634
          ],
          [
            30.44428742470841,
            59.82744750481377
          ],
          [
            30.44428803206714,
            59.82744483456924
          ],
          [
            30.444288619828274,
            59.827442265357796
          ],
          [
            30.44428917769775,
            59.827439857505055
          ],
          [
            30.4442896923345,
            59.8274376251238
          ],
          [
            30.444290176392677,
            59.82743557961781
          ],
          [
            30.444290614802785,
            59.82743372649487
          ],
          [
            30.444291013391005,
            59.82743206629232
          ],
          [
            30.44429137042625,
            59.82743058003807
          ],
          [
            30.444291685829427,
            59.82742925624759
          ],
          [
            30.444291968897314,
            59.82742808932682
          ],
          [
            30.444292217827286,
            59.8274270648783
          ],
          [
            30.44429243650264,
            59.827426162781315
          ],
          [
            30.444292630981945,
            59.827425364614214
          ],
          [
            30.444292805097085,
            59.827424650874576
          ],
          [
            30.444292966641815,
            59.82742398094677
          ],
          [
            30.444293125786682,
            59.82742331762241
          ],
          [
            30.44429328336356,
            59.82742265747866
          ],
          [
            30.44429343841488,
            59.827422008212295
          ],
          [
            30.44429358971317,
            59.82742137048488
          ],
          [
            30.444293734515288,
            59.82742075112175
          ],
          [
            30.444293874334054,
            59.827420151885654
          ],
          [
            30.44429401069332,
            59.82741956213307
          ],
          [
            30.44429414531269,
            59.8274189737502
          ],
          [
            30.444294278825364,
            59.827418390235295
          ],
          [
            30.444294409366844,
            59.82741781774263
          ],
          [
            30.444294536512583,
            59.827417257206406
          ],
          [
            30.44429465952611,
            59.82741670752899
          ],
          [
            30.444294780582663,
            59.8274161640564
          ],
          [
            30.444294898572743,
            59.82741563051171
          ],
          [
            30.44429501293739,
            59.82741511171263
          ],
          [
            30.444295123657035,
            59.82741460515299
          ],
          [
            30.44429523076467,
            59.82741411122163
          ],
          [
            30.44429533540692,
            59.82741362618549
          ],
          [
            30.444295438944852,
            59.82741314190199
          ],
          [
            30.444295542447144,
            59.82741265465029
          ],
          [
            30.444295649173004,
            59.82741215530754
          ],
          [
            30.444295760870197,
            59.827411628092605
          ],
          [
            30.444295879538835,
            59.82741106547123
          ],
          [
            30.444296006109322,
            59.82741046651948
          ],
          [
            30.444296140641192,
            59.82740982638027
          ],
          [
            30.44429628463135,
            59.82740913876801
          ],
          [
            30.44429643846726,
            59.827408401748265
          ],
          [
            30.444296601787812,
            59.82740761571224
          ],
          [
            30.444296774990654,
            59.827406782378304
          ],
          [
            30.444296955513654,
            59.82740590531672
          ],
          [
            30.444297143648992,
            59.827404984306
          ],
          [
            30.444297339635373,
            59.82740401297651
          ],
          [
            30.4442975450276,
            59.82740299522423
          ],
          [
            30.444297754862035,
            59.827401939393994
          ],
          [
            30.44429796653671,
            59.82740085986415
          ],
          [
            30.44429817674588,
            59.82739977156151
          ],
          [
            30.444298379837623,
            59.82739871048426
          ],
          [
            30.444298564429406,
            59.82739773222661
          ],
          [
            30.444298729343707,
            59.827396858161094
          ],
          [
            30.444298872325295,
            59.82739609434289
          ],
          [
            30.44429899315246,
            59.827395446024255
          ],
          [
            30.44429909206361,
            59.82739491137748
          ],
          [
            30.444299169293778,
            59.82739449032242
          ],
          [
            30.444299226241046,
            59.82739417860429
          ],
          [
            30.44429926480165,
            59.82739396782313
          ],
          [
            30.444299286903448,
            59.827393845852214
          ],
          [
            30.444299298005426,
            59.82739378481283
          ],
          [
            30.444299304396775,
            59.82739374941498
          ],
          [
            30.444299309943492,
            59.82739371847627
          ],
          [
            30.444299317254952,
            59.82739367763869
          ],
          [
            30.444299327581316,
            59.82739361959987
          ],
          [
            30.444299340411636,
            59.827393547541945
          ],
          [
            30.444299355243324,
            59.82739346451348
          ],
          [
            30.444299371275946,
            59.82739337366896
          ],
          [
            30.444299388804097,
            59.82739327514933
          ],
          [
            30.444299406611343,
            59.82739317366186
          ],
          [
            30.444299424681066,
            59.82739307185285
          ],
          [
            30.444299442477313,
            59.82739297063693
          ],
          [
            30.444299459760735,
            59.82739287304456
          ],
          [
            30.444299476185563,
            59.82739277938566
          ],
          [
            30.444299491739372,
            59.82739269079201
          ],
          [
            30.444299506937146,
            59.82739260360703
          ],
          [
            30.444299522371754,
            59.82739251487119
          ],
          [
            30.444299536830847,
            59.82739243139872
          ],
          [
            30.4442995505644,
            59.82739235211402
          ],
          [
            30.444299565024913,
            59.827392268497235
          ],
          [
            30.44429957970349,
            59.82739218294376
          ],
          [
            30.44429959294954,
            59.8273921054503
          ],
          [
            30.44429960184052,
            59.82739205358305
          ],
          [
            30.444299603885515,
            59.82739204159403
          ],
          [
            30.4442995992323,
            59.8273920686755
          ],
          [
            30.44429958872649,
            59.82739213079568
          ],
          [
            30.444299572615655,
            59.82739222537446
          ],
          [
            30.444299551214634,
            59.82739235168469
          ],
          [
            30.44429952404038,
            59.82739251035585
          ],
          [
            30.44429949135754,
            59.82739270233044
          ],
          [
            30.44429945342262,
            59.827392925484034
          ],
          [
            30.44429941124533,
            59.827393171936244
          ],
          [
            30.444299366343245,
            59.82739343790968
          ],
          [
            30.444299317345966,
            59.827393724290076
          ],
          [
            30.444299265258895,
            59.8273940317559
          ],
          [
            30.444299210217842,
            59.82739435817205
          ],
          [
            30.44429915217826,
            59.82739469800853
          ],
          [
            30.444299094480893,
            59.8273950368306
          ],
          [
            30.4442990412845,
            59.827395351161314
          ],
          [
            30.44429899389687,
            59.827395628993514
          ],
          [
            30.444298952202182,
            59.82739587354173
          ],
          [
            30.444298916120285,
            59.82739608714863
          ],
          [
            30.444298884551365,
            59.827396272442535
          ],
          [
            30.444298858083595,
            59.82739642382221
          ],
          [
            30.444298838598964,
            59.82739653524448
          ],
          [
            30.444298826425168,
            59.827396605600846
          ],
          [
            30.444298821047486,
            59.82739663709348
          ],
          [
            30.44429882102666,
            59.82739663721448
          ],
          [
            30.444298825717205,
            59.827396609921834
          ],
          [
            30.444298835201177,
            59.82739655436657
          ],
          [
            30.44429884963769,
            59.82739646920725
          ],
          [
            30.444298869252375,
            59.827396354971405
          ],
          [
            30.444298893906833,
            59.827396210737675
          ],
          [
            30.44429892368617,
            59.82739603637056
          ],
          [
            30.444298958822856,
            59.82739582765147
          ],
          [
            30.444299000126794,
            59.827395583211405
          ],
          [
            30.44429904595218,
            59.827395310680345
          ],
          [
            30.444299095248894,
            59.827395017062976
          ],
          [
            30.44429914632528,
            59.82739470994106
          ],
          [
            30.44429919833919,
            59.82739439791371
          ],
          [
            30.444299250982365,
            59.827394081358136
          ],
          [
            30.44429930362661,
            59.8273937615769
          ],
          [
            30.44429935719865,
            59.82739343903765
          ],
          [
            30.444299411612956,
            59.82739310779492
          ],
          [
            30.444299469029126,
            59.827392761439675
          ],
          [
            30.444299529507628,
            59.82739239666803
          ],
          [
            30.444299591922146,
            59.82739201550225
          ],
          [
            30.444299656291548,
            59.82739162121113
          ],
          [
            30.444299721985196,
            59.82739121477
          ],
          [
            30.444299791649865,
            59.827390788711064
          ],
          [
            30.444299864113237,
            59.82739033838292
          ],
          [
            30.444299941627452,
            59.82738986549414
          ],
          [
            30.444300021951946,
            59.82738936836995
          ],
          [
            30.444300107738282,
            59.82738884674585
          ],
          [
            30.44430019837417,
            59.82738830060205
          ],
          [
            30.44430029446328,
            59.827387721784234
          ],
          [
            30.444300399923627,
            59.82738709594931
          ],
          [
            30.444300518227763,
            59.82738641191864
          ],
          [
            30.44430064994273,
            59.827385666264014
          ],
          [
            30.444300796698293,
            59.82738485566502
          ],
          [
            30.444300960026286,
            59.82738398113816
          ],
          [
            30.444301139002103,
            59.827383050665745
          ],
          [
            30.44430133360582,
            59.82738206137179
          ],
          [
            30.4443015438367,
            59.827381018360626
          ],
          [
            30.444301763047974,
            59.827379941355474
          ],
          [
            30.444301989069576,
            59.82737885063774
          ],
          [
            30.44430221931618,
            59.82737776333663
          ],
          [
            30.444302450208518,
            59.82737669420823
          ],
          [
            30.44430267749911,
            59.82737566024722
          ],
          [
            30.44430289684673,
            59.82737468261045
          ],
          [
            30.444303101160894,
            59.827373783991284
          ],
          [
            30.444303285649056,
            59.82737298112042
          ],
          [
            30.44430344956284,
            59.827372279557636
          ],
          [
            30.444303590173078,
            59.82737168043745
          ],
          [
            30.44430370900209,
            59.8273711807143
          ],
          [
            30.44430380759563,
            59.82737077068978
          ],
          [
            30.444303885292147,
            59.82737044761726
          ],
          [
            30.44430394254067,
            59.827370210915994
          ],
          [
            30.444303982642502,
            59.82737004634268
          ],
          [
            30.444304013920306,
            59.82736991850118
          ],
          [
            30.44430404583923,
            59.8273697887843
          ],
          [
            30.44430408284274,
            59.82736963784633
          ],
          [
            30.44430412656851,
            59.827369460844295
          ],
          [
            30.444304176699664,
            59.82736925761022
          ],
          [
            30.44430423240029,
            59.827369031895095
          ],
          [
            30.444304292148914,
            59.827368788900614
          ],
          [
            30.444304356294587,
            59.82736852770447
          ],
          [
            30.444304424675682,
            59.82736825126584
          ],
          [
            30.444304495297523,
            59.827367964617125
          ],
          [
            30.4443045694479,
            59.827367664844566
          ],
          [
            30.44430464767452,
            59.82736735028369
          ],
          [
            30.444304727170298,
            59.827367031279955
          ],
          [
            30.444304804369686,
            59.82736671876258
          ],
          [
            30.444304881416613,
            59.827366409812065
          ],
          [
            30.44430496009017,
            59.82736609265457
          ],
          [
            30.444305042824865,
            59.82736575884728
          ],
          [
            30.44430512798058,
            59.82736541139673
          ],
          [
            30.444305217175284,
            59.82736504857288
          ],
          [
            30.44430531085397,
            59.8273646672302
          ],
          [
            30.444305406639813,
            59.82736427259971
          ],
          [
            30.444305506593878,
            59.82736386434797
          ],
          [
            30.444305611374492,
            59.827363440652455
          ],
          [
            30.444305719704065,
            59.827362998578025
          ],
          [
            30.444305834041195,
            59.827362529352534
          ],
          [
            30.44430595685096,
            59.82736202688711
          ],
          [
            30.444306090341346,
            59.82736148111214
          ],
          [
            30.444306237110904,
            59.827360878819576
          ],
          [
            30.44430640112832,
            59.82736021133774
          ],
          [
            30.444306581744378,
            59.82735947611265
          ],
          [
            30.4443067778124,
            59.827358680787185
          ],
          [
            30.444306991351656,
            59.827357823656705
          ],
          [
            30.444307221837725,
            59.82735690126991
          ],
          [
            30.444307466861716,
            59.82735591008438
          ],
          [
            30.444307728325054,
            59.82735485974968
          ],
          [
            30.44430800709597,
            59.82735376329495
          ],
          [
            30.444308297284195,
            59.827352616047776
          ],
          [
            30.444308601074837,
            59.827351414053965
          ],
          [
            30.44430891932124,
            59.827350151947726
          ],
          [
            30.44430925669848,
            59.82734883919555
          ],
          [
            30.444309610643348,
            59.827347484452446
          ],
          [
            30.444309982129997,
            59.827346086997146
          ],
          [
            30.444310365336726,
            59.82734464035816
          ],
          [
            30.44431076644108,
            59.827343133023184
          ],
          [
            30.444311182535092,
            59.827341553877
          ],
          [
            30.444311605529037,
            59.8273399081412
          ],
          [
            30.444312032568362,
            59.8273382154246
          ],
          [
            30.44431246859026,
            59.82733648694099
          ],
          [
            30.444312905706255,
            59.82733472980319
          ],
          [
            30.444313337540777,
            59.82733294578335
          ],
          [
            30.444313775551493,
            59.82733113189153
          ],
          [
            30.44431421255611,
            59.82732928111659
          ],
          [
            30.444314663410236,
            59.82732737538256
          ],
          [
            30.44431512326095,
            59.82732540669333
          ],
          [
            30.44431558016746,
            59.82732337961757
          ],
          [
            30.444316057658952,
            59.827321299775484
          ],
          [
            30.44431653433652,
            59.82731916716438
          ],
          [
            30.444317009336313,
            59.827316972297645
          ],
          [
            30.444317480069373,
            59.8273147197404
          ],
          [
            30.444317961721307,
            59.82731241974694
          ],
          [
            30.44431845013108,
            59.82731007173196
          ],
          [
            30.444318941427287,
            59.82730767654106
          ],
          [
            30.44431943474353,
            59.827305236790224
          ],
          [
            30.444319930182186,
            59.827302756087256
          ],
          [
            30.444320439575435,
            59.82730023756283
          ],
          [
            30.444320945835774,
            59.827297677297665
          ],
          [
            30.44432145345564,
            59.82729506850742
          ],
          [
            30.444321968157585,
            59.827292412481825
          ],
          [
            30.44432248207575,
            59.8272897081455
          ],
          [
            30.444322999777395,
            59.827286955500405
          ],
          [
            30.44432351401535,
            59.82728416768995
          ],
          [
            30.444324037312544,
            59.82728135185363
          ],
          [
            30.444324544891185,
            59.82727852258524
          ],
          [
            30.44432505275968,
            59.827275704519856
          ],
          [
            30.444325548608454,
            59.82727291876421
          ],
          [
            30.444326052107513,
            59.827270180853326
          ],
          [
            30.444326521635485,
            59.82726750708727
          ],
          [
            30.444326975375827,
            59.8272648947111
          ],
          [
            30.444327409710677,
            59.82726234809955
          ],
          [
            30.444327825400915,
            59.827259892704255
          ],
          [
            30.444328229878753,
            59.82725753253582
          ],
          [
            30.444328619907278,
            59.827255288090704
          ],
          [
            30.444328983029724,
            59.82725315498323
          ],
          [
            30.444329315982134,
            59.827251087435144
          ],
          [
            30.444329637651858,
            59.827249055426314
          ],
          [
            30.444329957609927,
            59.827247072569456
          ],
          [
            30.444330262539413,
            59.82724514847204
          ],
          [
            30.44433055573884,
            59.82724328486551
          ],
          [
            30.444330833084685,
            59.82724150733628
          ],
          [
            30.444331079028657,
            59.827239854165725
          ],
          [
            30.44433130166606,
            59.8272383550462
          ],
          [
            30.444331493656282,
            59.82723703702901
          ],
          [
            30.444331656858544,
            59.827235915214054
          ],
          [
            30.444331792445386,
            59.82723498574433
          ],
          [
            30.444331903178217,
            59.8272342420361
          ],
          [
            30.44433198932462,
            59.82723366382309
          ],
          [
            30.444332055567454,
            59.82723321823217
          ],
          [
            30.444332110590533,
            59.82723285211233
          ],
          [
            30.44433216151267,
            59.827232522374075
          ],
          [
            30.444332208092064,
            59.82723222375865
          ],
          [
            30.444332251291115,
            59.8272319561125
          ],
          [
            30.44433229165176,
            59.827231709104524
          ],
          [
            30.444332330728038,
            59.82723147353953
          ],
          [
            30.444332368858426,
            59.82723124844334
          ],
          [
            30.444332404696222,
            59.827231036085195
          ],
          [
            30.444332440059,
            59.82723083033206
          ],
          [
            30.444332476573365,
            59.82723061791694
          ],
          [
            30.44433251546454,
            59.82723039382626
          ],
          [
            30.444332557902058,
            59.827230143647256
          ],
          [
            30.44433260897374,
            59.82722984979888
          ],
          [
            30.444332666912924,
            59.8272295088879
          ],
          [
            30.444332734920632,
            59.827229119764084
          ],
          [
            30.444332811874723,
            59.82722868146436
          ],
          [
            30.444332897030794,
            59.827228182246216
          ],
          [
            30.444332994078295,
            59.82722761771408
          ],
          [
            30.444333100664554,
            59.82722700121377
          ],
          [
            30.44433321774095,
            59.8272263485425
          ],
          [
            30.444333340666347,
            59.82722566579195
          ],
          [
            30.444333469872355,
            59.82722494792809
          ],
          [
            30.444333609538845,
            59.82722419048922
          ],
          [
            30.444333757311696,
            59.827223387986784
          ],
          [
            30.444333916889263,
            59.827222526005656
          ],
          [
            30.444334086635926,
            59.82722158526698
          ],
          [
            30.444334272498597,
            59.827220543553096
          ],
          [
            30.4443344827894,
            59.827219378352744
          ],
          [
            30.444334712248054,
            59.82721807755552
          ],
          [
            30.444334963700914,
            59.827216641801016
          ],
          [
            30.44433523849583,
            59.82721507904911
          ],
          [
            30.444335534359865,
            59.827213384693195
          ],
          [
            30.444335844338326,
            59.82721156924449
          ],
          [
            30.444336168491308,
            59.82720965833169
          ],
          [
            30.44433650908371,
            59.82720765626007
          ],
          [
            30.444336869770485,
            59.82720555203069
          ],
          [
            30.44433725340757,
            59.82720332658264
          ],
          [
            30.444337652447526,
            59.82720097827949
          ],
          [
            30.444338077262714,
            59.82719852980088
          ],
          [
            30.444338509166144,
            59.82719603960005
          ],
          [
            30.4443389401267,
            59.827193557557635
          ],
          [
            30.444339360645966,
            59.82719108294327
          ],
          [
            30.444339793517297,
            59.82718861192566
          ],
          [
            30.444340203528967,
            59.82718614916422
          ],
          [
            30.44434060045208,
            59.827183703269114
          ],
          [
            30.44434100038656,
            59.827181278447455
          ],
          [
            30.44434140196746,
            59.82717889274021
          ],
          [
            30.44434178854019,
            59.82717655086851
          ],
          [
            30.444342179347505,
            59.82717424951401
          ],
          [
            30.444342572671818,
            59.827171994181235
          ],
          [
            30.44434296112394,
            59.8271697901533
          ],
          [
            30.444343353463623,
            59.8271676479633
          ],
          [
            30.444343729564817,
            59.82716559692153
          ],
          [
            30.4443441006884,
            59.82716364338049
          ],
          [
            30.44434445230246,
            59.82716176771105
          ],
          [
            30.444344777449263,
            59.827159978104156
          ],
          [
            30.444345090268705,
            59.827158288835626
          ],
          [
            30.44434538181695,
            59.82715670757433
          ],
          [
            30.444345639511518,
            59.82715525118282
          ],
          [
            30.44434587365914,
            59.82715393843981
          ],
          [
            30.44434608676632,
            59.82715276613325
          ],
          [
            30.44434627171514,
            59.82715174332996
          ],
          [
            30.444346432622247,
            59.82715086962034
          ],
          [
            30.444346569027584,
            59.827150131684135
          ],
          [
            30.444346682377287,
            59.82714952982772
          ],
          [
            30.444346770183724,
            59.8271490742178
          ],
          [
            30.444346826538816,
            59.827148777701055
          ],
          [
            30.444346851891225,
            59.82714864315294
          ],
          [
            30.444346848997366,
            59.82714865909158
          ],
          [
            30.44434681782311,
            59.82714882838003
          ],
          [
            30.44434675508852,
            59.82714916229839
          ],
          [
            30.444346661650822,
            59.82714965701149
          ],
          [
            30.444346537125554,
            59.82715032021889
          ],
          [
            30.444346382499326,
            59.82715114993757
          ],
          [
            30.444346201668647,
            59.82715213453098
          ],
          [
            30.444345992359708,
            59.827153266165325
          ],
          [
            30.444345763288464,
            59.82715451461284
          ],
          [
            30.444345517917128,
            59.827155848859924
          ],
          [
            30.444345251765636,
            59.82715725731883
          ],
          [
            30.44434498173255,
            59.8271587146119
          ],
          [
            30.444344707696175,
            59.827160185902976
          ],
          [
            30.44434443164343,
            59.82716166234105
          ],
          [
            30.444344152834436,
            59.82716315310483
          ],
          [
            30.44434387052169,
            59.82716466289663
          ],
          [
            30.444343586609705,
            59.82716619485095
          ],
          [
            30.444343296601833,
            59.827167751477134
          ],
          [
            30.44434299866245,
            59.82716933450774
          ],
          [
            30.444342693117004,
            59.82717095759651
          ],
          [
            30.444342376787432,
            59.827172636211884
          ],
          [
            30.444342045546385,
            59.82717438664059
          ],
          [
            30.444341699030453,
            59.82717621044024
          ],
          [
            30.44434134407528,
            59.827178095526705
          ],
          [
            30.44434097785719,
            59.827180018655355
          ],
          [
            30.444340611990476,
            59.827181947386805
          ],
          [
            30.444340246490214,
            59.82718386740633
          ],
          [
            30.444339883586185,
            59.82718577932165
          ],
          [
            30.444339519832607,
            59.82718768882736
          ],
          [
            30.444339155429848,
            59.82718959985013
          ],
          [
            30.444338794125883,
            59.827191521680426
          ],
          [
            30.444338426384352,
            59.827193462664745
          ],
          [
            30.444338058716834,
            59.82719542403553
          ],
          [
            30.444337683006918,
            59.827197407861014
          ],
          [
            30.4443373033314,
            59.827199414741266
          ],
          [
            30.444336917660117,
            59.82720144814814
          ],
          [
            30.444336529635446,
            59.827203513584685
          ],
          [
            30.444336130966523,
            59.827205603176516
          ],
          [
            30.44433573140403,
            59.82720771127775
          ],
          [
            30.444335330103083,
            59.827209841729584
          ],
          [
            30.444334919746385,
            59.827211991275334
          ],
          [
            30.44433451066326,
            59.82721415454849
          ],
          [
            30.44433409406036,
            59.8272163297524
          ],
          [
            30.444333678532995,
            59.82721851653016
          ],
          [
            30.44433326248428,
            59.827220714166984
          ],
          [
            30.444332842960627,
            59.82722291891946
          ],
          [
            30.444332423594123,
            59.82722512888932
          ],
          [
            30.444332000503298,
            59.82722734407592
          ],
          [
            30.444331576582584,
            59.82722956649739
          ],
          [
            30.444331149761116,
            59.82723179965041
          ],
          [
            30.444330719806807,
            59.82723404125305
          ],
          [
            30.44433029149722,
            59.82723628733452
          ],
          [
            30.44432985849777,
            59.82723853559867
          ],
          [
            30.444329431822556,
            59.82724078801427
          ],
          [
            30.444329002139867,
            59.8272430467813
          ],
          [
            30.444328569045123,
            59.827245310267855
          ],
          [
            30.44432813974565,
            59.82724757852815
          ],
          [
            30.444327706021685,
            59.827249849341094
          ],
          [
            30.44432727305939,
            59.82725212738884
          ],
          [
            30.44432683619641,
            59.82725441597359
          ],
          [
            30.444326402735207,
            59.82725671147832
          ],
          [
            30.444325964603788,
            59.82725901132402
          ],
          [
            30.4443255271817,
            59.82726131292307
          ],
          [
            30.444325091326412,
            59.827263618718646
          ],
          [
            30.44432464999,
            59.82726593299537
          ],
          [
            30.444324211618333,
            59.82726825192497
          ],
          [
            30.444323771017256,
            59.82727056771254
          ],
          [
            30.44432333363655,
            59.82727288287646
          ],
          [
            30.444322896438667,
            59.82727520197276
          ],
          [
            30.444322455414685,
            59.82727752542549
          ],
          [
            30.444322016106412,
            59.827279853638956
          ],
          [
            30.44432157824634,
            59.827282186208244
          ],
          [
            30.44432113267976,
            59.82728452133729
          ],
          [
            30.444320687991123,
            59.827286861353585
          ],
          [
            30.44432024555249,
            59.8272892089425
          ],
          [
            30.44431980185225,
            59.82729156482311
          ],
          [
            30.44431935306635,
            59.827293925016114
          ],
          [
            30.44431890484421,
            59.827296286525424
          ],
          [
            30.444318461702945,
            59.827298650281705
          ],
          [
            30.444318016451973,
            59.82730101425096
          ],
          [
            30.444317568914165,
            59.82730337674553
          ],
          [
            30.444317124131487,
            59.8273057396128
          ],
          [
            30.44431668059822,
            59.82730810283932
          ],
          [
            30.444316238238166,
            59.827310465423196
          ],
          [
            30.444315793160946,
            59.827312825814154
          ],
          [
            30.44431535005836,
            59.82731518274896
          ],
          [
            30.444314908045726,
            59.82731753699164
          ],
          [
            30.444314472210745,
            59.82731988181908
          ],
          [
            30.444314035291537,
            59.82732220951884
          ],
          [
            30.444313599937974,
            59.82732451491147
          ],
          [
            30.444313173181982,
            59.82732679187829
          ],
          [
            30.44431275317925,
            59.827329037590786
          ],
          [
            30.444312332920564,
            59.827331253827246
          ],
          [
            30.44431191695014,
            59.82733343740248
          ],
          [
            30.44431150642081,
            59.827335582452065
          ],
          [
            30.444311106445355,
            59.82733769236544
          ],
          [
            30.444310713535806,
            59.827339776450096
          ],
          [
            30.44431032193242,
            59.82734184381687
          ],
          [
            30.444309932269665,
            59.8273439056113
          ],
          [
            30.44430953905722,
            59.82734596920995
          ],
          [
            30.444309145498995,
            59.827348038791335
          ],
          [
            30.444308752204147,
            59.82735011911848
          ],
          [
            30.444308358035258,
            59.82735220912908
          ],
          [
            30.444307961890495,
            59.82735430318573
          ],
          [
            30.444307567246568,
            59.82735637932025
          ],
          [
            30.4443071791443,
            59.8273584171729
          ],
          [
            30.444306801474855,
            59.827360416674075
          ],
          [
            30.444306429432494,
            59.827362383938095
          ],
          [
            30.444306059482823,
            59.827364321995695
          ],
          [
            30.444305694439187,
            59.82736623099421
          ],
          [
            30.444305337149967,
            59.82736811211687
          ],
          [
            30.4443049860497,
            59.827369968790364
          ],
          [
            30.444304632924634,
            59.82737181065919
          ],
          [
            30.44430427831392,
            59.82737365966398
          ],
          [
            30.44430392414936,
            59.82737553042155
          ],
          [
            30.444303563660885,
            59.827377408384905
          ],
          [
            30.444303205907215,
            59.82737926855877
          ],
          [
            30.444302860769273,
            59.827381096941025
          ],
          [
            30.444302518134524,
            59.827382890250774
          ],
          [
            30.4443022169714,
            59.827384661092445
          ],
          [
            30.444301910355858,
            59.82738640426879
          ],
          [
            30.444301611575113,
            59.82738811107175
          ]
        ]
      }
    },
    {
      "type": "Feature",
      "properties": {
        "role": "endpoint",
        "status": "INSUFFICIENT_DATA",
        "confidence": 0.078
      },
      "geometry": {
        "type": "Point",
        "coordinates": [
          30.444301611575113,
          59.82738811107175
        ]
      }
    },
    {
      "type": "Feature",
      "properties": {
        "role": "confidence_polygon",
        "status": "INSUFFICIENT_DATA"
      },
      "geometry": {
        "type": "Polygon",
        "coordinates": [
          [
            [
              30.445282170674464,
              59.827387637530805
            ],
            [
              30.445273905560015,
              59.827452079085056
            ],
            [
              30.445249004130837,
              59.82751542618709
            ],
            [
              30.445207892367915,
              59.82757659494118
            ],
            [
              30.445151273628138,
              59.82763453871829
            ],
            [
              30.44508011661484,
              59.827688266065195
            ],
            [
              30.444995638807075,
              59.827736857669734
            ],
            [
              30.444899285630754,
              59.82777948209207
            ],
            [
              30.444792705727853,
              59.82781540999254
            ],
            [
              30.444677722746857,
              59.82784402661242
            ],
            [
              30.444556304137148,
              59.82786484229417
            ],
            [
              30.44443052748133,
              59.827877500860936
            ],
            [
              30.4443025449421,
              59.827881785711824
            ],
            [
              30.44417454643197,
              59.82787762352862
            ],
            [
              30.44404872213678,
              59.82786508553056
            ],
            [
              30.443927225034482,
              59.827844386255485
            ],
            [
              30.44381213405095,
              59.82781587988841
            ],
            [
              30.443705418483837,
              59.827780054200346
            ],
            [
              30.443608904303225,
              59.827737522201105
            ],
            [
              30.44352424290633,
              59.82768901164898
            ],
            [
              30.44345288286068,
              59.827635352596936
            ],
            [
              30.44339604511964,
              59.827577463188646
            ],
            [
              30.443354702134037,
              59.82751633394715
            ],
            [
              30.44332956121726,
              59.82745301082552
            ],
            [
              30.443321052448145,
              59.82738857730919
            ],
            [
              30.443329321318302,
              59.827324135876744
            ],
            [
              30.44335422624923,
              59.827260789135806
            ],
            [
              30.443395341021297,
              59.8271996209575
            ],
            [
              30.443451962072565,
              59.82714167793158
            ],
            [
              30.443523120542164,
              59.82708795146015
            ],
            [
              30.44360759885179,
              59.827039360795666
            ],
            [
              30.443703951541348,
              59.82699673731389
            ],
            [
              30.443810530002025,
              59.82696081029044
            ],
            [
              30.44392551068362,
              59.8269321944242
            ],
            [
              30.444046926293456,
              59.82691137932143
            ],
            [
              30.44417269945334,
              59.826898721119456
            ],
            [
              30.444300678238868,
              59.826894436394355
            ],
            [
              30.444428672993283,
              59.826898598455756
            ],
            [
              30.444554493786733,
              59.82691113609272
            ],
            [
              30.444675987879886,
              59.82693183479203
            ],
            [
              30.444791076551915,
              59.826960340407894
            ],
            [
              30.444897790662736,
              59.826996165220486
            ],
            [
              30.444994304341474,
              59.827038696279686
            ],
            [
              30.44507896622514,
              59.82708720589126
            ],
            [
              30.445150327713016,
              59.82714086406627
            ],
            [
              30.445207167753452,
              59.8271987527209
            ],
            [
              30.44524851373894,
              59.827259881383426
            ],
            [
              30.445273658151635,
              59.82732320414027
            ],
            [
              30.445282170674464,
              59.827387637530805
            ]
          ]
        ]
      }
    }
  ]
}