{
  "type": "FeatureCollection",
  "features": [
    {
      "type": "Feature",
      "properties": {
        "role": "trajectory"
      },
      "geometry": {
        "type": "LineString",
        "coordinates": [
          [
            30.266375099093352,
            59.96335768425951
          ],
          [
            30.26637567510348,
            59.963357898429884
          ],
          [
            30.26637642465171,
            59.9633581370587
          ],
          [
            30.266377154850076,
            59.96335831795951
          ],
          [
            30.266377800148916,
            59.96335841545677
          ],
          [
            30.266378422724525,
            59.96335854751379
          ],
          [
            30.266379278370913,
            59.96335891977698
          ],
          [
            30.26638038486791,
            59.96335944513464
          ],
          [
            30.266381736596177,
            59.963360003464274
          ],
          [
            30.266386862789354,
            59.96336208861045
          ],
          [
            30.266388668163327,
            59.963362436289344
          ],
          [
            30.266390533906083,
            59.9633626803078
          ],
          [
            30.266391739710595,
            59.963362840811634
          ],
          [
            30.266392243203786,
            59.96336293226297
          ],
          [
            30.26639259518764,
            59.96336308766545
          ],
          [
            30.26639294032703,
            59.96336334194769
          ],
          [
            30.26639325219805,
            59.96336362405092
          ],
          [
            30.266393733107975,
            59.96336397436618
          ],
          [
            30.266394638025513,
            59.96336438002829
          ],
          [
            30.266396996133178,
            59.96336612061709
          ],
          [
            30.26639778407956,
            59.963366523180014
          ],
          [
            30.266398401575593,
            59.9633668021654
          ],
          [
            30.266398801796246,
            59.9633669532292
          ],
          [
            30.26639926803986,
            59.963367180081505
          ],
          [
            30.266399901834262,
            59.96336768030488
          ],
          [
            30.266400794429263,
            59.963368346974946
          ],
          [
            30.26640204109068,
            59.9633690288747
          ],
          [
            30.266403768808928,
            59.963369651887085
          ],
          [
            30.26640574804758,
            59.963370343009146
          ],
          [
            30.266408298335485,
            59.963372634028076
          ],
          [
            30.266409098581214,
            59.96337295631446
          ],
          [
            30.266409784348905,
            59.96337317806909
          ],
          [
            30.26641043896259,
            59.963373438613225
          ],
          [
            30.266411157782503,
            59.96337383683907
          ],
          [
            30.266411958372206,
            59.96337427804058
          ],
          [
            30.266412912876593,
            59.963374687006585
          ],
          [
            30.266414165290833,
            59.96337509626882
          ],
          [
            30.26641559181729,
            59.96337562749692
          ],
          [
            30.266416951534012,
            59.96337624350625
          ],
          [
            30.266418992306022,
            59.96337768444472
          ],
          [
            30.266419965848087,
            59.96337797417813
          ],
          [
            30.266420989209525,
            59.96337826089362
          ],
          [
            30.26642212876377,
            59.96337867007487
          ],
          [
            30.266423395150483,
            59.96337917127839
          ],
          [
            30.26642477400257,
            59.963379635357384
          ],
          [
            30.266426424276798,
            59.96338004344376
          ],
          [
            30.266428278274194,
            59.96338044271389
          ],
          [
            30.266430202611218,
            59.96338095621615
          ],
          [
            30.266432136723814,
            59.96338158233335
          ],
          [
            30.26643398750733,
            59.963383457893215
          ],
          [
            30.266434878284347,
            59.963383646047575
          ],
          [
            30.26643564369027,
            59.963383830359554
          ],
          [
            30.26643637822224,
            59.96338409279279
          ],
          [
            30.266437095492662,
            59.96338436850092
          ],
          [
            30.26643787381125,
            59.96338462185986
          ],
          [
            30.26643895840808,
            59.96338488171899
          ],
          [
            30.266440239228583,
            59.96338515248708
          ],
          [
            30.266441468062716,
            59.963385525991555
          ],
          [
            30.266442537686046,
            59.963385948817255
          ],
          [
            30.266444831926464,
            59.96338735154365
          ],
          [
            30.266445779417342,
            59.963387574717814
          ],
          [
            30.266446679123778,
            59.963387846616016
          ],
          [
            30.266447602213116,
            59.963388152235915
          ],
          [
            30.266448538129044,
            59.96338852198
          ],
          [
            30.266449549999,
            59.96338891149679
          ],
          [
            30.266450921456965,
            59.9633893214444
          ],
          [
            30.266452662837377,
            59.96338973511115
          ],
          [
            30.266454509924216,
            59.963390272407175
          ],
          [
            30.26645627284367,
            59.96339070477689
          ],
          [
            30.266461045690647,
            59.963391799291976
          ],
          [
            30.266461907791513,
            59.96339200688682
          ],
          [
            30.26646269692888,
            59.96339219900457
          ],
          [
            30.266463440321903,
            59.9633923814338
          ],
          [
            30.26646408493927,
            59.96339255907331
          ],
          [
            30.2664649493445,
            59.963392932581364
          ],
          [
            30.266466082183175,
            59.963393537119856
          ],
          [
            30.26646781111202,
            59.96339409563237
          ],
          [
            30.266470167718854,
            59.963394421313
          ],
          [
            30.266472784278648,
            59.963394916564496
          ],
          [
            30.266481167343922,
            59.96339672640306
          ],
          [
            30.266482583303056,
            59.963396739973824
          ],
          [
            30.26648378631705,
            59.96339676818789
          ],
          [
            30.266484911219358,
            59.96339675051759
          ],
          [
            30.266486122165823,
            59.96339669080573
          ],
          [
            30.26648748592526,
            59.96339668459773
          ],
          [
            30.26648885649267,
            59.963396785633
          ],
          [
            30.266490192241907,
            59.963397013552
          ],
          [
            30.26649147852659,
            59.963397309917326
          ],
          [
            30.26649279166302,
            59.96339767181847
          ],
          [
            30.266498087410262,
            59.96339914510008
          ],
          [
            30.266498706277623,
            59.963399489466084
          ],
          [
            30.266499267737853,
            59.963399806687306
          ],
          [
            30.26649978486493,
            59.963400046068614
          ],
          [
            30.26650026322886,
            59.96340021165985
          ],
          [
            30.266500605697832,
            59.96340033953238
          ],
          [
            30.2665008862965,
            59.96340048252123
          ],
          [
            30.266501137141194,
            59.963400691191865
          ],
          [
            30.266501405776832,
            59.963400954668444
          ],
          [
            30.26650182603954,
            59.96340129770689
          ],
          [
            30.2665047645007,
            59.96340337312315
          ],
          [
            30.26650540453778,
            59.96340354793537
          ],
          [
            30.266506333874958,
            59.9634038684747
          ],
          [
            30.266507076494182,
            59.96340420940707
          ],
          [
            30.266507587647425,
            59.96340445180689
          ],
          [
            30.266508163154896,
            59.96340472867079
          ],
          [
            30.266508739931183,
            59.96340502416877
          ],
          [
            30.266509250990406,
            59.96340532496993
          ],
          [
            30.266509773995114,
            59.96340561718044
          ],
          [
            30.266510221752494,
            59.963405888968595
          ],
          [
            30.266512078507233,
            59.96340769173609
          ],
          [
            30.266512399194852,
            59.9634078352167
          ],
          [
            30.266513112658604,
            59.96340803692482
          ],
          [
            30.266514079491625,
            59.96340819666157
          ],
          [
            30.266515322670955,
            59.963408275184975
          ],
          [
            30.2665171243499,
            59.96340849009806
          ],
          [
            30.266519049130572,
            59.96340813124698
          ],
          [
            30.266520044237616,
            59.96340757184729
          ],
          [
            30.266521294002477,
            59.96340725883905
          ],
          [
            30.26652300394026,
            59.96340697689365
          ],
          [
            30.26652467807341,
            59.96340806805747
          ],
          [
            30.266524646037226,
            59.96340807360563
          ],
          [
            30.266525115120952,
            59.96340785821974
          ],
          [
            30.266525596037773,
            59.96340731550521
          ],
          [
            30.266525963340797,
            59.963406686024506
          ],
          [
            30.266526293706473,
            59.96340630292397
          ],
          [
            30.26652645115345,
            59.963406135939294
          ],
          [
            30.26652659346456,
            59.96340599329677
          ],
          [
            30.2665267530328,
            59.96340581808476
          ],
          [
            30.26652689452371,
            59.96340566026374
          ],
          [
            30.266527889384523,
            59.96340612841148
          ],
          [
            30.266527762065692,
            59.96340620443662
          ],
          [
            30.26652769917581,
            59.96340623852027
          ],
          [
            30.26652763079237,
            59.96340627836976
          ],
          [
            30.266527540461837,
            59.963406342123406
          ],
          [
            30.266527510227707,
            59.96340635901882
          ],
          [
            30.26652743647731,
            59.963406385885506
          ],
          [
            30.266527096242797,
            59.963406504297176
          ],
          [
            30.266526649835217,
            59.963406659668244
          ],
          [
            30.26652623887615,
            59.96340680368095
          ],
          [
            30.266529107944034,
            59.96340736481062
          ],
          [
            30.26652983544102,
            59.96340709048454
          ],
          [
            30.26653056277503,
            59.96340685631517
          ],
          [
            30.266531329287425,
            59.96340663436116
          ],
          [
            30.266532166579335,
            59.96340638871892
          ],
          [
            30.26653309497689,
            59.96340610350252
          ],
          [
            30.26653404377716,
            59.9634057798643
          ],
          [
            30.266534927276645,
            59.96340543070905
          ],
          [
            30.266535815762953,
            59.96340509689546
          ],
          [
            30.266536758761347,
            59.96340487651192
          ],
          [
            30.26654350462217,
            59.96340541567382
          ],
          [
            30.266545333351285,
            59.96340512371361
          ],
          [
            30.266546982905204,
            59.963404793841704
          ],
          [
            30.266548475665775,
            59.963404475876764
          ],
          [
            30.266549974959503,
            59.96340430932475
          ],
          [
            30.266551508033626,
            59.96340430046561
          ],
          [
            30.266553095685623,
            59.96340434412945
          ],
          [
            30.266554885307727,
            59.96340443199058
          ],
          [
            30.266556916307266,
            59.963404430913094
          ],
          [
            30.266559111227288,
            59.96340428561143
          ],
          [
            30.26656780364961,
            59.96340479462251
          ],
          [
            30.266570200322306,
            59.96340469509235
          ],
          [
            30.266572290543284,
            59.96340459472307
          ],
          [
            30.266574238827058,
            59.963404430918594
          ],
          [
            30.266576081357943,
            59.963404155867956
          ],
          [
            30.26657767388178,
            59.96340384395112
          ],
          [
            30.266579336424677,
            59.96340352439435
          ],
          [
            30.266581532629953,
            59.96340321389694
          ],
          [
            30.266584100895034,
            59.96340268564739
          ],
          [
            30.266586577530926,
            59.963401726796434
          ],
          [
            30.266594639970474,
            59.963401306418056
          ],
          [
            30.266596089541615,
            59.963400048625395
          ],
          [
            30.266597152932906,
            59.96339846689818
          ],
          [
            30.266597398118552,
            59.96339661984431
          ],
          [
            30.266596433628937,
            59.963394738237845
          ],
          [
            30.266594210113954,
            59.9633931762643
          ],
          [
            30.266591284064695,
            59.96339204139385
          ],
          [
            30.26658806698748,
            59.96339123281476
          ],
          [
            30.266584750287695,
            59.96339062294481
          ],
          [
            30.266581330134926,
            59.96339019268615
          ],
          [
            30.266587115403706,
            59.96339229683598
          ],
          [
            30.26658958338694,
            59.963392386917214
          ],
          [
            30.26659198423236,
            59.963392753862294
          ],
          [
            30.26659439251636,
            59.96339330084655
          ],
          [
            30.266596790071972,
            59.96339394780301
          ],
          [
            30.266598993051723,
            59.96339468633567
          ],
          [
            30.2666009763979,
            59.96339546497062
          ],
          [
            30.266602888369086,
            59.963396194037706
          ],
          [
            30.266604722157652,
            59.96339685752802
          ],
          [
            30.266606614357922,
            59.963397456016665
          ],
          [
            30.26662066459792,
            59.96340136874339
          ],
          [
            30.26662326291688,
            59.963402192561865
          ],
          [
            30.266625895304337,
            59.963403040086014
          ],
          [
            30.26662859760342,
            59.9634039098879
          ],
          [
            30.266631337604746,
            59.96340480402987
          ],
          [
            30.266634075957445,
            59.963405692099414
          ],
          [
            30.26663674173428,
            59.96340656720936
          ],
          [
            30.26663936370685,
            59.963407440095104
          ],
          [
            30.26664209792916,
            59.96340828341615
          ],
          [
            30.266644983348133,
            59.96340909893576
          ],
          [
            30.26665827710396,
            59.963412854020426
          ],
          [
            30.2666613500016,
            59.963413714549844
          ],
          [
            30.266664395314834,
            59.96341455363346
          ],
          [
            30.266667445577887,
            59.963415406666016
          ],
          [
            30.26667053972571,
            59.96341629555246
          ],
          [
            30.266673679174897,
            59.963417200102825
          ],
          [
            30.266676781815054,
            59.963418084881795
          ],
          [
            30.26667979561098,
            59.963418939560206
          ],
          [
            30.266682671393895,
            59.96341968685852
          ],
          [
            30.266685017117876,
            59.96342067728858
          ],
          [
            30.266700319778728,
            59.9634239468412
          ],
          [
            30.266700387110347,
            59.96342396974296
          ],
          [
            30.266700546355217,
            59.96342404094898
          ],
          [
            30.26670064403142,
            59.96342413614815
          ],
          [
            30.26670066332478,
            59.96342423422486
          ],
          [
            30.266700585525975,
            59.96342442473276
          ],
          [
            30.266700324219624,
            59.96342474272117
          ],
          [
            30.266699791099654,
            59.963425099297865
          ],
          [
            30.266699095529646,
            59.963425358115714
          ],
          [
            30.26669853678478,
            59.96342548003433
          ],
          [
            30.266715740414398,
            59.96342812378654
          ],
          [
            30.266720232440225,
            59.96342728985349
          ],
          [
            30.266724295714365,
            59.963426036999614
          ],
          [
            30.26672816796446,
            59.96342468727319
          ],
          [
            30.266732455510173,
            59.963423747292524
          ],
          [
            30.266736910609957,
            59.963423201674374
          ],
          [
            30.266741272085493,
            59.96342274047792
          ],
          [
            30.26674544737616,
            59.963421969993774
          ],
          [
            30.266749324773585,
            59.963420840730684
          ],
          [
            30.266753544502574,
            59.963419779767996
          ],
          [
            30.266758221111594,
            59.963418916054216
          ],
          [
            30.26677802467981,
            59.96342147549327
          ],
          [
            30.266782428806916,
            59.963419971401734
          ],
          [
            30.266786608756494,
            59.96341796717271
          ],
          [
            30.26679083178857,
            59.96341579877206
          ],
          [
            30.26679518570113,
            59.96341385460354
          ],
          [
            30.266799031219634,
            59.963412029781736
          ],
          [
            30.266802409372787,
            59.96341027053714
          ],
          [
            30.266805743525527,
            59.96340864441053
          ],
          [
            30.26680960799705,
            59.963407463146545
          ],
          [
            30.26681362443535,
            59.963406495791055
          ],
          [
            30.26683194412874,
            59.96341048239312
          ],
          [
            30.266836479766734,
            59.96340912151702
          ],
          [
            30.266840655277058,
            59.96340750559798
          ],
          [
            30.266845344884057,
            59.963406319193005
          ],
          [
            30.26685024029408,
            59.963405688895726
          ],
          [
            30.266854833539767,
            59.963405203008676
          ],
          [
            30.26685906599645,
            59.96340449887116
          ],
          [
            30.266863017384022,
            59.96340365443545
          ],
          [
            30.26686720372993,
            59.96340325214722
          ],
          [
            30.266871400367684,
            59.963403136384215
          ],
          [
            30.266889581235905,
            59.963408574766945
          ],
          [
            30.266894765293777,
            59.963408204549566
          ],
          [
            30.266900020852322,
            59.96340770640956
          ],
          [
            30.26690539019335,
            59.96340785711969
          ],
          [
            30.266910317862145,
            59.9634085234667
          ],
          [
            30.266914818553715,
            59.96340922071527
          ],
          [
            30.26691924851669,
            59.96340969356884
          ],
          [
            30.26692355134224,
            59.96341007621367
          ],
          [
            30.26692747800068,
            59.96341083487955
          ],
          [
            30.266930935555788,
            59.963411880848284
          ],
          [
            30.2669475468153,
            59.963417705446645
          ],
          [
            30.266951803978962,
            59.96341895357999
          ],
          [
            30.26695641970922,
            59.96342001144886
          ],
          [
            30.26696099502943,
            59.963421127064535
          ],
          [
            30.266964845166726,
            59.96342274750035
          ],
          [
            30.266968022769397,
            59.96342453861856
          ],
          [
            30.266971077508497,
            59.9634261711182
          ],
          [
            30.26697459688015,
            59.96342741017543
          ],
          [
            30.2669779753605,
            59.9634285530218
          ],
          [
            30.266980644027754,
            59.96343001747418
          ],
          [
            30.266996184485293,
            59.96343516846618
          ],
          [
            30.266998661782804,
            59.96343724119739
          ],
          [
            30.26700163837976,
            59.96343929649778
          ],
          [
            30.26700548998653,
            59.96344111576849
          ],
          [
            30.267009898670903,
            59.96344266349785
          ],
          [
            30.267013901548996,
            59.963444518274095
          ],
          [
            30.267017194531316,
            59.963446696982516
          ],
          [
            30.267020867686764,
            59.963448611929415
          ],
          [
            30.267025354663524,
            59.96344997605658
          ],
          [
            30.267030290489892,
            59.963450862792634
          ],
          [
            30.26703518457597,
            59.96345195125872
          ],
          [
            30.26703983245188,
            59.963453480762624
          ],
          [
            30.26704441923003,
            59.96345518263985
          ],
          [
            30.26704936240708,
            59.96345689946716
          ],
          [
            30.267055028090688,
            59.96345840212387
          ],
          [
            30.267061357641442,
            59.96345958082664
          ],
          [
            30.267068190512475,
            59.963460144670535
          ],
          [
            30.267075150421554,
            59.96346026790631
          ],
          [
            30.26708219315998,
            59.9634600670164
          ],
          [
            30.267089222782904,
            59.96345943744232
          ],
          [
            30.267096006845843,
            59.963458138828315
          ],
          [
            30.267102177943386,
            59.96345606472483
          ],
          [
            30.26710787078456,
            59.963453574456445
          ],
          [
            30.267113435994236,
            59.963450957866016
          ],
          [
            30.26711885180376,
            59.963448177874845
          ],
          [
            30.2671241280142,
            59.963445231340295
          ],
          [
            30.267128668431937,
            59.96344192763866
          ],
          [
            30.267132356316505,
            59.96343819971087
          ],
          [
            30.267135142409177,
            59.963434065085536
          ],
          [
            30.267136617766507,
            59.96342963409035
          ],
          [
            30.26713692766168,
            59.963425100495684
          ],
          [
            30.26713651338512,
            59.963420601505554
          ],
          [
            30.26713678026116,
            59.96341616130203
          ],
          [
            30.267136725819835,
            59.96341183919584
          ],
          [
            30.26713582805492,
            59.96340763005254
          ],
          [
            30.267134538898635,
            59.963403532448496
          ],
          [
            30.26713384017904,
            59.96339953879851
          ],
          [
            30.26713479068439,
            59.9633956308935
          ],
          [
            30.267138016207706,
            59.96339207976176
          ],
          [
            30.267143465577742,
            59.96338936907855
          ],
          [
            30.26715048604501,
            59.963387972338
          ],
          [
            30.267158022890246,
            59.963388503388714
          ],
          [
            30.267170924341183,
            59.963403086915484
          ],
          [
            30.267174312733466,
            59.96340465800709
          ],
          [
            30.267178346726165,
            59.96340485647225
          ],
          [
            30.26718167613539,
            59.96340475576803
          ],
          [
            30.267184821303914,
            59.963405040133935
          ],
          [
            30.267187743427396,
            59.963405570128145
          ],
          [
            30.26719074279115,
            59.96340586054749
          ],
          [
            30.26719382278329,
            59.96340582383345
          ],
          [
            30.267196724220533,
            59.963405846857555
          ],
          [
            30.267199517186167,
            59.96340601161114
          ],
          [
            30.267202011977396,
            59.9634065076503
          ],
          [
            30.2672041884697,
            59.963407119233345
          ],
          [
            30.267206005882827,
            59.96340795365543
          ],
          [
            30.26720825794708,
            59.9634087443811
          ],
          [
            30.267211335876773,
            59.96340945461212
          ],
          [
            30.26721492897848,
            59.96340988049606
          ],
          [
            30.267218407377783,
            59.96340995306413
          ],
          [
            30.267221651045688,
            59.9634100491815
          ],
          [
            30.267224798976777,
            59.963410285466175
          ],
          [
            30.267229442378337,
            59.96341854817611
          ],
          [
            30.267232657693345,
            59.96341885509461
          ],
          [
            30.267235903140616,
            59.963419088164905
          ],
          [
            30.267239094362292,
            59.96341933688622
          ],
          [
            30.267242212012746,
            59.96341958792328
          ],
          [
            30.26724528600309,
            59.96341989511565
          ],
          [
            30.267248328123102,
            59.96342024880649
          ],
          [
            30.267251325695536,
            59.963420624033375
          ],
          [
            30.267254288669445,
            59.96342101160113
          ],
          [
            30.267257241791633,
            59.96342144174261
          ],
          [
            30.267260186130606,
            59.963421894705924
          ],
          [
            30.267263096574418,
            59.96342239027507
          ],
          [
            30.267265994797775,
            59.96342290860525
          ],
          [
            30.267268846920377,
            59.96342347281594
          ],
          [
            30.267271613121597,
            59.96342410209223
          ],
          [
            30.267274380334236,
            59.96342477407667
          ],
          [
            30.267277204307035,
            59.96342540661455
          ],
          [
            30.267280075950204,
            59.96342596429595
          ],
          [
            30.267282934188746,
            59.96342654066528
          ],
          [
            30.267285804538535,
            59.96342708223655
          ],
          [
            30.267288686874423,
            59.9634276316647
          ],
          [
            30.267291440769366,
            59.9634282396101
          ],
          [
            30.267293924999137,
            59.9634289739461
          ],
          [
            30.267296384320286,
            59.96342980089635
          ],
          [
            30.26729884712638,
            59.9634307146103
          ],
          [
            30.26730146003898,
            59.96343146067275
          ],
          [
            30.267304176744958,
            59.96343206980035
          ],
          [
            30.26730674386448,
            59.963432764493234
          ],
          [
            30.267309363302513,
            59.96343343994071
          ],
          [
            30.267311945499188,
            59.963434211189465
          ],
          [
            30.267314490112334,
            59.96343500905297
          ],
          [
            30.267317063650573,
            59.96343582109753
          ],
          [
            30.267319454893048,
            59.963436726020085
          ],
          [
            30.267321802377662,
            59.96343766969321
          ],
          [
            30.267324152948078,
            59.96343864247725
          ],
          [
            30.267326408555046,
            59.96343961888893
          ],
          [
            30.267328765462754,
            59.96344052731542
          ],
          [
            30.267331186882128,
            59.96344143453994
          ],
          [
            30.267333748197,
            59.96344227426237
          ],
          [
            30.267336236558457,
            59.96344315177646
          ],
          [
            30.267338584133295,
            59.963444040641704
          ],
          [
            30.26734094588519,
            59.963444876268035
          ],
          [
            30.26734362805176,
            59.963445579416934
          ],
          [
            30.267346434123567,
            59.963446319103525
          ],
          [
            30.267349680557682,
            59.963446911227244
          ],
          [
            30.267352855966028,
            59.96344743903728
          ],
          [
            30.26735566186339,
            59.96344795986474
          ],
          [
            30.267358178670182,
            59.96344873818688
          ],
          [
            30.267360621251377,
            59.963449580459155
          ],
          [
            30.267363197254756,
            59.96345038244146
          ],
          [
            30.26736588563161,
            59.96345109750215
          ],
          [
            30.267368520240353,
            59.96345177510594
          ],
          [
            30.267371039368452,
            59.963452446929544
          ],
          [
            30.267373517986528,
            59.96345317779104
          ],
          [
            30.267376024850748,
            59.96345395254303
          ],
          [
            30.26737868923503,
            59.96345467376132
          ],
          [
            30.267381399142643,
            59.963455311545275
          ],
          [
            30.26738398800536,
            59.963455914883774
          ],
          [
            30.267386542194952,
            59.963456554070056
          ],
          [
            30.267389074465505,
            59.96345718946884
          ],
          [
            30.26739162458369,
            59.96345773025175
          ],
          [
            30.267394297559548,
            59.963458219978286
          ],
          [
            30.267397080538057,
            59.96345867737079
          ],
          [
            30.267399898763816,
            59.963459100382885
          ],
          [
            30.267402666369367,
            59.963459495382764
          ],
          [
            30.267405353044637,
            59.963459873186196
          ],
          [
            30.267408015314547,
            59.96346025850434
          ],
          [
            30.26741070636009,
            59.96346065516113
          ],
          [
            30.267413475015328,
            59.96346102584957
          ],
          [
            30.26741634549462,
            59.96346137927445
          ],
          [
            30.2674192726597,
            59.96346173583918
          ],
          [
            30.26742214565628,
            59.96346196002261
          ],
          [
            30.26742496464406,
            59.963462043433324
          ],
          [
            30.267427784811407,
            59.96346212240217
          ],
          [
            30.267430545936083,
            59.963462299504855
          ],
          [
            30.26743327217191,
            59.963462567761326
          ],
          [
            30.26742486141727,
            59.96346536939206
          ],
          [
            30.26742770861327,
            59.96346572070528
          ],
          [
            30.26743069788875,
            59.963466085731966
          ],
          [
            30.267433839759285,
            59.96346649367782
          ],
          [
            30.267437143988875,
            59.9634670017335
          ],
          [
            30.267440480803813,
            59.96346779314344
          ],
          [
            30.26744323203545,
            59.96346908839205
          ],
          [
            30.26744489234041,
            59.96347066398662
          ],
          [
            30.267445876582375,
            59.9634722211711
          ],
          [
            30.267446783254844,
            59.96347378779919
          ],
          [
            30.267447056450386,
            59.96347540038968
          ],
          [
            30.267446856038426,
            59.96347694082474
          ],
          [
            30.267446438229943,
            59.96347847540117
          ],
          [
            30.267446200562894,
            59.963480047968545
          ],
          [
            30.267446176767578,
            59.96348164524621
          ],
          [
            30.267445996792432,
            59.96348322606265
          ],
          [
            30.267445879735686,
            59.96348478949705
          ],
          [
            30.26744578590984,
            59.96348634666306
          ],
          [
            30.26744546078658,
            59.96348788032847
          ],
          [
            30.26744502272681,
            59.963489427279164
          ],
          [
            30.26744458645237,
            59.96349101908058
          ],
          [
            30.267444203035577,
            59.963492628395805
          ],
          [
            30.26744388577499,
            59.96349425082471
          ],
          [
            30.267443663715884,
            59.96349588992746
          ],
          [
            30.26744353127834,
            59.963497534866356
          ],
          [
            30.26744344714981,
            59.96349916445871
          ],
          [
            30.267443419383255,
            59.963500796938874
          ],
          [
            30.267443490904963,
            59.9635024306537
          ],
          [
            30.267443658157354,
            59.963504049362285
          ],
          [
            30.26744383794052,
            59.963505655680564
          ],
          [
            30.26743273648657,
            59.963506229024674
          ],
          [
            30.267432923892223,
            59.96350780898663
          ],
          [
            30.267433105421524,
            59.96350938036944
          ],
          [
            30.26743325925087,
            59.96351094940154
          ],
          [
            30.26743340759847,
            59.963512524500516
          ],
          [
            30.267433561686207,
            59.963514097770414
          ],
          [
            30.267433711504086,
            59.96351566290826
          ],
          [
            30.267433834435018,
            59.963517226863225
          ],
          [
            30.267433943047994,
            59.96351879175462
          ],
          [
            30.267434041461286,
            59.96352035532872
          ],
          [
            30.267434133227514,
            59.96352191831714
          ],
          [
            30.267434213551837,
            59.963523480028975
          ],
          [
            30.26742389294977,
            59.963522614942136
          ],
          [
            30.267423962348033,
            59.96352417812819
          ],
          [
            30.26742402206511,
            59.963525736442215
          ],
          [
            30.267424077202467,
            59.96352729300143
          ],
          [
            30.267424126248706,
            59.96352884790645
          ],
          [
            30.267424154106003,
            59.96353039758089
          ],
          [
            30.267424177685612,
            59.96353194596382
          ],
          [
            30.26742419769957,
            59.96353349488695
          ],
          [
            30.267424215156304,
            59.96353504146508
          ],
          [
            30.267424248344533,
            59.96353658596649
          ],
          [
            30.267406193220673,
            59.963530923608374
          ],
          [
            30.267406171917077,
            59.96353245757698
          ],
          [
            30.26740616298969,
            59.9635339920993
          ],
          [
            30.267406143023784,
            59.9635355263214
          ],
          [
            30.267406097358435,
            59.9635370495498
          ],
          [
            30.267406030249656,
            59.96353856142832
          ],
          [
            30.267405970010802,
            59.96354007871134
          ],
          [
            30.26740593234128,
            59.963541609976524
          ],
          [
            30.267405892630762,
            59.963543145553594
          ],
          [
            30.26740586514328,
            59.96354467302283
          ],
          [
            30.267405855641307,
            59.96354619188256
          ],
          [
            30.267405856666603,
            59.963547718507535
          ],
          [
            30.26740596135133,
            59.963549227628086
          ],
          [
            30.267406374977877,
            59.963550757615685
          ],
          [
            30.267406766106596,
            59.96355231172615
          ],
          [
            30.267406849873158,
            59.96355382618988
          ],
          [
            30.267406892392295,
            59.963555334029124
          ],
          [
            30.267406908496252,
            59.96355684889011
          ],
          [
            30.267406882127126,
            59.96355836735839
          ],
          [
            30.267406836405684,
            59.96355988326257
          ],
          [
            30.2674067500569,
            59.96356138276604
          ],
          [
            30.267406617901273,
            59.96356287103085
          ],
          [
            30.267406457495404,
            59.96356435548092
          ],
          [
            30.267406269783613,
            59.96356582413765
          ],
          [
            30.26740603775598,
            59.9635672494954
          ],
          [
            30.267405611318424,
            59.96356861137281
          ],
          [
            30.267405061016646,
            59.963569928603384
          ],
          [
            30.267404433607744,
            59.96357123775767
          ],
          [
            30.267403672392557,
            59.963572572854154
          ],
          [
            30.267402818970695,
            59.963573949848794
          ],
          [
            30.267402006996146,
            59.963575364908436
          ],
          [
            30.26740137455337,
            59.96357680344196
          ],
          [
            30.267400839383047,
            59.96357822596827
          ],
          [
            30.26740035908545,
            59.96357963866406
          ],
          [
            30.26739984357165,
            59.96358104009827
          ],
          [
            30.267399262984018,
            59.96358243051871
          ],
          [
            30.26739865936307,
            59.96358380973526
          ],
          [
            30.267398095582095,
            59.963585193277716
          ],
          [
            30.267397544322037,
            59.9635865793861
          ],
          [
            30.267397027949748,
            59.96358796058454
          ],
          [
            30.26739653355631,
            59.96358934163565
          ],
          [
            30.267396061612658,
            59.96359070981282
          ],
          [
            30.26739557807209,
            59.96359207578756
          ],
          [
            30.26739506113025,
            59.96359344105708
          ],
          [
            30.26739453047744,
            59.96359478767485
          ],
          [
            30.267394006765695,
            59.963596134812406
          ],
          [
            30.267393509960467,
            59.9635975161269
          ],
          [
            30.267393113144323,
            59.96359894781391
          ],
          [
            30.26739290194466,
            59.963600450719746
          ],
          [
            30.267393021102404,
            59.96360203306201
          ],
          [
            30.26739358996391,
            59.96360364044712
          ],
          [
            30.267394649100233,
            59.9636052086171
          ],
          [
            30.267396170252052,
            59.96360666351164
          ],
          [
            30.26739815440946,
            59.96360794956099
          ],
          [
            30.267400643578597,
            59.96360903064408
          ],
          [
            30.267403617524092,
            59.96360983676602
          ],
          [
            30.267406579549064,
            59.96361055644696
          ],
          [
            30.26740942198028,
            59.9636112272286
          ],
          [
            30.267412173778155,
            59.9636119031111
          ],
          [
            30.267414815807744,
            59.96361263295806
          ],
          [
            30.267417684013317,
            59.96361325272953
          ],
          [
            30.267420457623068,
            59.96361398687809
          ],
          [
            30.267422929755206,
            59.96361484363157
          ],
          [
            30.26742519991151,
            59.96361577438925
          ],
          [
            30.267427431031912,
            59.963616750321684
          ],
          [
            30.267429772181178,
            59.963617746212556
          ],
          [
            30.267432194159287,
            59.9636187684728
          ],
          [
            30.26743463741688,
            59.96361980125928
          ],
          [
            30.267437084414446,
            59.96362081327533
          ],
          [
            30.2673876130005,
            59.963608137924936
          ],
          [
            30.267390095868233,
            59.96360915359591
          ],
          [
            30.267392537514308,
            59.963610206988726
          ],
          [
            30.267394853830044,
            59.96361127235979
          ],
          [
            30.26739710129826,
            59.963612318774175
          ],
          [
            30.267399417515218,
            59.963613379147155
          ],
          [
            30.267401877582028,
            59.963614454008265
          ],
          [
            30.267404448423193,
            59.96361552069177
          ],
          [
            30.267407053570217,
            59.96361655433088
          ],
          [
            30.267409667047456,
            59.96361754673151
          ],
          [
            30.267412282356567,
            59.9636185262607
          ],
          [
            30.267414884759503,
            59.96361950380708
          ],
          [
            30.267417469353006,
            59.9636204831115
          ],
          [
            30.26742001456102,
            59.96362148486133
          ],
          [
            30.267422503284628,
            59.96362251784316
          ],
          [
            30.267424949166795,
            59.963623584722036
          ],
          [
            30.267427367515623,
            59.96362467515387
          ],
          [
            30.267429752428974,
            59.96362579048205
          ],
          [
            30.26743210860266,
            59.96362693513045
          ],
          [
            30.267434439166284,
            59.963628105337484
          ],
          [
            30.26743675563566,
            59.96362929497035
          ],
          [
            30.267439032930064,
            59.96363050741717
          ],
          [
            30.267441239479503,
            59.963631750630846
          ],
          [
            30.267443381918973,
            59.96363302981752
          ],
          [
            30.267445473801875,
            59.963634337232435
          ],
          [
            30.26744751539926,
            59.96363567098683
          ],
          [
            30.2674495126243,
            59.96363703005215
          ],
          [
            30.26745146976419,
            59.96363841198473
          ],
          [
            30.267453395083198,
            59.96363981523393
          ],
          [
            30.26745531062195,
            59.96364123860508
          ],
          [
            30.267457231663926,
            59.96364267480307
          ],
          [
            30.267459167103397,
            59.963644116372045
          ],
          [
            30.26746112295505,
            59.96364555698567
          ],
          [
            30.267463141705136,
            59.963646998906825
          ],
          [
            30.267465334464898,
            59.96364839700427
          ],
          [
            30.267467648577778,
            59.96364968321047
          ],
          [
            30.267469994737038,
            59.96365094901335
          ],
          [
            30.267472531153633,
            59.96365228669921
          ],
          [
            30.267475497402604,
            59.96365346521013
          ],
          [
            30.267478336834774,
            59.96365471635676
          ],
          [
            30.26748114673308,
            59.963655953460595
          ],
          [
            30.26748433008046,
            59.96365656791195
          ],
          [
            30.267486979532105,
            59.96365686571043
          ],
          [
            30.26742727722231,
            59.96364008150495
          ],
          [
            30.267429522495675,
            59.963641080431046
          ],
          [
            30.26742981347012,
            59.963642682211585
          ],
          [
            30.267429034728462,
            59.96364392176668
          ],
          [
            30.267428554831813,
            59.96364502208877
          ],
          [
            30.267428324759734,
            59.963645968111265
          ],
          [
            30.267428231914206,
            59.963646772175075
          ],
          [
            30.26742816161553,
            59.96364755286477
          ],
          [
            30.267428086636237,
            59.96364840778624
          ],
          [
            30.2674280248499,
            59.963649312035635
          ],
          [
            30.267427982907236,
            59.963650191828876
          ],
          [
            30.267427934936883,
            59.96365103971548
          ],
          [
            30.26742789694972,
            59.963651874681005
          ],
          [
            30.267427849772282,
            59.96365271153987
          ],
          [
            30.267427790629508,
            59.96365355635819
          ],
          [
            30.267427712487432,
            59.963654405880916
          ],
          [
            30.267427621545814,
            59.96365525852407
          ],
          [
            30.26742753617999,
            59.96365610870121
          ],
          [
            30.267427452589914,
            59.963656956386814
          ],
          [
            30.26742736671633,
            59.9636578081267
          ],
          [
            30.267427279337404,
            59.96365866631861
          ],
          [
            30.267427175571243,
            59.963659528358995
          ],
          [
            30.267427055789966,
            59.963660395006144
          ],
          [
            30.267426916371168,
            59.96366126699212
          ],
          [
            30.26742676745548,
            59.963662141460894
          ],
          [
            30.267364746616874,
            59.9636451396907
          ],
          [
            30.267364587771375,
            59.96364601919647
          ],
          [
            30.26736443481135,
            59.96364689669382
          ],
          [
            30.26736428205699,
            59.96364777549183
          ]
        ]
      }
    },
    {
      "type": "Feature",
      "properties": {
        "role": "endpoint",
        "status": "UNCERTAIN",
        "confidence": 0.20800000000000002
      },
      "geometry": {
        "type": "Point",
        "coordinates": [
          30.26736428205699,
          59.96364777549183
        ]
      }
    },
    {
      "type": "Feature",
      "properties": {
        "role": "confidence_polygon",
        "status": "UNCERTAIN"
      },
      "geometry": {
        "type": "Polygon",
        "coordinates": [
          [
            [
              30.268348864567248,
              59.96364830453498
            ],
            [
              30.268340304552563,
              59.96371273616294
            ],
            [
              30.26831504442481,
              59.96377605635422
            ],
            [
              30.268273516301676,
              59.96383718167347
            ],
            [
              30.2682164306636,
              59.96389506623461
            ],
            [
              30.268144764202436,
              59.963948719597454
            ],
            [
              30.268059743114073,
              59.96399722371554
            ],
            [
              30.26796282212036,
              59.96403974864583
            ],
            [
              30.267855659579343,
              59.964075566750864
            ],
            [
              30.267740089109367,
              59.96410406515045
            ],
            [
              30.26761808821279,
              59.96412475620979
            ],
            [
              30.267491744436313,
              59.964137285884384
            ],
            [
              30.26736321964726,
              59.96414143977873
            ],
            [
              30.26723471303716,
              59.9641371468154
            ],
            [
              30.26710842348647,
              59.96412448045148
            ],
            [
              30.266986511934498,
              59.96410365742131
            ],
            [
              30.266871064398973,
              59.96407503402759
            ],
            [
              30.266764056278483,
              59.96403910004384
            ],
            [
              30.26666731854875,
              59.96399647033302
            ],
            [
              30.26658250643168,
              59.96394787432544
            ],
            [
              30.26651107107314,
              59.963894143536386
            ],
            [
              30.26645423471438,
              59.96383619733703
            ],
            [
              30.266412969781666,
              59.96377502722216
            ],
            [
              30.26638798225188,
              59.9637116798442
            ],
            [
              30.26637969957835,
              59.96364723910361
            ],
            [
              30.266388263383124,
              59.96358280760243
            ],
            [
              30.266413527040413,
              59.963519487778285
            ],
            [
              30.266455058191973,
              59.963458363041546
            ],
            [
              30.266512146151005,
              59.96340047923853
            ],
            [
              30.266583814067474,
              59.96334682675782
            ],
            [
              30.26666883564633,
              59.96329832358574
            ],
            [
              30.266765756132273,
              59.963255799600844
            ],
            [
              30.266872917201876,
              59.96321998237619
            ],
            [
              30.266988485337077,
              59.96319148473196
            ],
            [
              30.267110483194624,
              59.963170794251475
            ],
            [
              30.2672368234349,
              59.9631582649398
            ],
            [
              30.267365344431592,
              59.963154111167704
            ],
            [
              30.267493847251604,
              59.96315840400424
            ],
            [
              30.267620133272775,
              59.963171070001025
            ],
            [
              30.267742041796303,
              59.96319189244869
            ],
            [
              30.267857487010872,
              59.96322051508429
            ],
            [
              30.267964493676065,
              59.96325644818589
            ],
            [
              30.26806123091531,
              59.96329907695071
            ],
            [
              30.26814604354014,
              59.96334767201289
            ],
            [
              30.26821748037008,
              59.96340140192155
            ],
            [
              30.26827431906362,
              59.963459347365564
            ],
            [
              30.268315587035364,
              59.96352051690157
            ],
            [
              30.26834057810135,
              59.963583863916604
            ],
            [
              30.268348864567248,
              59.96364830453498
            ]
          ]
        ]
      }
    }
  ]
}